`id`,`district_id`,name_en,latitude,longitude
1,1,Akkaraipattu,7.2167,81.85
2,1,Ambagahawatta,7.4,81.3
3,1,Ampara,7.2833,81.6667
4,1,Bakmitiyawa,7.026268,81.633832
5,1,Deegawapiya,7.2833,81.6667
6,1,Devalahinda,7.1889,81.5778
7,1,Digamadulla Weeragoda,7.2833,81.6667
8,1,Dorakumbura,7.358849,81.280133
9,1,Gonagolla,7.449853,81.618014
10,1,Hulannuge,7.4,81.3
11,1,Kalmunai,7.413897,81.826718
12,1,Kannakipuram,7.2167,81.85
13,1,Karativu,7.3833,81.8333
14,1,Kekirihena,7.490724,81.310836
15,1,Koknahara,7.184832,81.555806
16,1,Kolamanthalawa,7.351733,81.249913
17,1,Komari,6.976958,81.78883
18,1,Lahugala,7.415566,81.33954
19,1,lmkkamam,7.1125,81.8542
20,1,Mahaoya,7.535248,81.351145
21,1,Marathamune,7.45,81.8167
22,1,Namaloya,7.1889,81.5778
23,1,Navithanveli,7.4333,81.7833
24,1,Nintavur,7.35,81.85
25,1,Oluvil,7.2833,81.85
26,1,Padiyatalawa,7.4,81.2333
27,1,Pahalalanda,7.21752,81.578714
28,1,Panama,6.812201,81.712237
29,1,Pannalagama,7.0667,81.6167
30,1,Paragahakele,7.25669,81.609526
31,1,Periyaneelavanai,7.434002,81.814169
32,1,Polwaga Janapadaya,7.1889,81.5778
33,1,Pottuvil,6.8667,81.8333
34,1,Sainthamaruthu,7.3833,81.8333
35,1,Samanthurai,7.3833,81.8333
36,1,Serankada,7.464517,81.263599
37,1,Tempitiya,7.610374,81.429907
38,1,Thambiluvil,7.132227,81.819074
39,1,Tirukovil,7.1167,81.85
40,1,Uhana,7.363281,81.637746
41,1,Wadinagala,7.127849,81.56922
42,1,Wanagamuwa,7.1125,81.8542
43,2,Angamuwa,8.177645,80.205048
44,2,Anuradhapura,8.35,80.3833
45,2,Awukana,7.9753,80.5266
46,2,Bogahawewa,8.328993,80.251702
47,2,Dematawewa,8.357373,80.870087
48,2,Dimbulagala,7.9167,80.55
49,2,Dutuwewa,8.65,80.5167
50,2,Elayapattuwa,8.413522,80.318148
51,2,Ellewewa,7.9167,80.55
52,2,Eppawala,8.1167,80.7333
53,2,Etawatunuwewa,8.5595,80.5476
54,2,Etaweeragollewa,8.613962,80.539713
55,2,Galapitagala,8.089843,80.685528
56,2,Galenbindunuwewa,8.5833,80.55
57,2,Galkadawala,8.412861,80.378175
58,2,Galkiriyagama,7.9414,80.565
59,2,Galkulama,8.270414,80.506526
60,2,Galnewa,8.2,80.3667
61,2,Gambirigaswewa,8.4667,80.3667
62,2,Ganewalpola,8.090528,80.628195
63,2,Gemunupura,8.0667,80.6833
64,2,Getalawa,8.6167,80.5333
65,2,Gnanikulama,8.297336,80.431753
66,2,Gonahaddenawa,8.5333,80.5083
67,2,Habarana,8.047531,80.748664
68,2,Halmillawa Dambulla,7.9474,80.594
69,2,Halmillawetiya,8.35,80.2667
70,2,Hidogama,8.250421,80.418663
71,2,Horawpatana,8.4333,80.8667
72,2,Horiwila,8.0667,80.6833
73,2,Hurigaswewa,8.1333,80.3667
74,2,Hurulunikawewa,8.6167,80.5333
75,2,Ihala Puliyankulama,8.153213,80.559989
76,2,Kagama,8.061465,80.478039
77,2,Kahatagasdigiliya,8.4167,80.6833
78,2,Kahatagollewa,8.45,80.65
79,2,Kalakarambewa,8.0833,80.4667
80,2,Kalaoya,8.0667,80.6833
81,2,Kalawedi Ulpotha,8.5333,80.5083
82,2,Kallanchiya,8.45,80.55
83,2,Kalpitiya,8.2333,79.7667
84,2,Kalukele Badanagala,7.9167,80.55
85,2,Kapugallawa,8.4233,80.6783
86,2,Karagahawewa,8.23416,80.322772
87,2,Kashyapapura,7.9167,80.55
88,2,Kebithigollewa,8.5333,80.4833
89,2,Kekirawa,8.037462,80.59801
90,2,Kendewa,8.4833,80.6
91,2,Kiralogama,8.19407,80.37012
92,2,Kirigalwewa,8.537767,80.556651
93,2,Kirimundalama,8.2333,79.7667
94,2,Kitulhitiyawa,7.916592,80.63811
95,2,Kurundankulama,8.2,80.45
96,2,Labunoruwa,8.168026,80.617001
97,2,Ihalagama,8.35,80.5
98,2,Ipologama,8.0833,80.4667
99,2,Madatugama,7.940041,80.638217
100,2,Maha Elagamuwa,7.991935,80.61824
101,2,Mahabulankulama,7.9753,80.5266
102,2,Mahailluppallama,8.106,80.3619
103,2,Mahakanadarawa,8.35,80.5
104,2,Mahapothana,8.4167,80.6833
105,2,Mahasenpura,8.5595,80.5476
106,2,Mahawilachchiya,8.2814,80.4588
107,2,Mailagaswewa,8.4,80.6333
108,2,Malwanagama,8.225,80.3333
109,2,Maneruwa,7.895997,80.475966
110,2,Maradankadawala,8.1333,80.4833
111,2,Maradankalla,8.317498,80.537899
112,2,Medawachchiya,8.540822,80.495957
113,2,Megodawewa,8.2333,80.7333
114,2,Mihintale,8.35,80.5
115,2,Morakewa,8.513051,80.778223
116,2,Mulkiriyawa,8.4167,80.6833
117,2,Muriyakadawala,8.236464,80.654663
118,5,Colombo 15,6.959444,79.875278
119,2,Nachchaduwa,8.2667,80.4667
120,2,Namalpura,8.2333,80.7333
121,2,Negampaha,7.9872,80.4597
122,2,Nochchiyagama,8.266802,80.20823
123,2,Nuwaragala,7.9167,80.55
124,2,Padavi Maithripura,8.5595,80.5476
125,2,Padavi Parakramapura,8.5595,80.5476
126,2,Padavi Sripura,8.5595,80.5476
127,2,Padavi Sritissapura,8.5595,80.5476
128,2,Padaviya,8.5595,80.5476
129,2,Padikaramaduwa,8.2333,80.7333
130,2,Pahala Halmillewa,8.21672,80.19116
131,2,Pahala Maragahawe,8.0667,80.6833
132,2,Pahalagama,8.186896,80.283767
133,2,Palugaswewa,8.053538,80.71918
134,2,Pandukabayapura,8.4467,80.46731
135,2,Pandulagama,8.2814,80.4588
136,2,Parakumpura,8.4167,80.6833
137,2,Parangiyawadiya,8.491831,80.910014
138,2,Parasangahawewa,8.4333,80.4333
139,2,Pelatiyawa,7.9167,80.55
140,2,Pemaduwa,8.2814,80.4588
141,2,Perimiyankulama,8.270584,80.535827
142,2,Pihimbiyagolewa,8.5595,80.5476
143,2,Pubbogama,7.9167,80.6
144,2,Punewa,8.6167,80.4667
145,2,Rajanganaya,8.1708,80.2833
146,2,Rambewa,8.4333,80.5
147,2,Rampathwila,8.4,80.6333
148,2,Rathmalgahawewa,8.5595,80.5476
149,2,Saliyapura,8.3389,80.4333
150,2,Seeppukulama,8.4,80.6333
151,2,Senapura,8.0833,80.4667
152,2,Sivalakulama,8.25237,80.641743
153,2,Siyambalewa,7.95,80.5167
154,2,Sravasthipura,8.2667,80.4333
155,2,Talawa,8.2167,80.35
156,2,Tambuttegama,8.15,80.3
157,2,Tammennawa,8.0333,80.6
158,2,Tantirimale,8.4,80.3
159,2,Telhiriyawa,8.15,80.3333
160,2,Tirappane,8.2167,80.3833
161,2,Tittagonewa,8.7167,80.75
162,2,Udunuwara Colony,8.2417,80.1917
163,2,Upuldeniya,8.4,80.6333
164,2,Uttimaduwa,8.254989,80.55487
165,2,Vellamanal,8.5167,81.1833
166,2,Viharapalugama,8.4,80.3
167,2,Wahalkada,8.5667,80.6222
168,2,Wahamalgollewa,8.479838,80.497451
169,2,Walagambahuwa,8.153134,80.499049
170,2,Walahaviddawewa,8.5595,80.5476
171,2,Welimuwapotana,8.4333,80.8667
172,2,Welioya Project,8.5595,80.5476
173,3,Akkarasiyaya,6.7792,80.9208
174,3,Aluketiyawa,7.317155,81.127134
175,3,Aluttaramma,7.2167,81.0667
176,3,Ambadandegama,6.81591,81.056492
177,3,Ambagasdowa,6.928519,80.892126
178,3,Arawa,7.162769,81.07755
179,3,Arawakumbura,7.084925,81.198802
180,3,Arawatta,7.328715,81.036976
181,3,Atakiriya,7.0667,81.1056
182,3,Badulla,6.995365,81.048438
183,3,Baduluoya,7.151852,81.023867
184,3,Ballaketuwa,6.862905,81.097249
185,3,Bambarapana,7.1167,81.0375
186,3,Bandarawela,6.828867,80.990898
187,3,Beramada,7.055713,80.987238
188,3,Bibilegama,6.887473,81.141268
189,3,Boragas,6.901625,80.840162
190,3,Boralanda,6.828637,80.881603
191,3,Bowela,6.95,80.9333
192,3,Central Camp,7.3589,81.1759
193,3,Damanewela,7.2125,81.0583
194,3,Dambana,7.3583,81.1083
195,3,Dehiattakandiya,7.2125,81.0583
196,3,Demodara,6.899055,81.053273
197,3,Diganatenna,6.8667,80.9667
198,3,Dikkapitiya,6.7381,80.9669
199,3,Dimbulana,7.006897,80.948431
200,3,Divulapelessa,7.2167,81.0667
201,3,Diyatalawa,6.8,80.9667
202,3,Dulgolla,6.819618,81.012115
203,3,Ekiriyankumbura,7.269736,81.226709
204,3,Ella,6.874485,81.050937
205,3,Ettampitiya,6.9342,80.9853
206,3,Galauda,7.037347,80.981759
207,3,Galporuyaya,7.4,81.05
208,3,Gawarawela,6.897394,81.069668
209,3,Girandurukotte,7.4,81.05
210,3,Godunna,7.071959,80.975003
211,3,Gurutalawa,6.8431,80.9228
212,3,Haldummulla,6.77061,80.884385
213,3,Hali Ela,6.95,81.0333
214,3,Hangunnawa,6.948019,80.871427
215,3,Haputale,6.7667,80.9667
216,3,Hebarawa,7.2167,81.0667
217,3,Heeloya,6.8212,80.9407
218,3,Helahalpe,6.8212,80.9407
219,3,Helapupula,6.8556,81.0722
220,3,Hopton,6.9594,81.1552
221,3,Idalgashinna,6.7833,80.9
222,3,Kahataruppa,7.023705,81.105188
223,3,Kalugahakandura,7.123675,81.094178
224,3,Kalupahana,6.770298,80.854521
225,3,Kebillawela,6.816937,80.993072
226,3,Kendagolla,6.990765,81.110073
227,3,Keselpotha,7.32819,81.083285
228,3,Ketawatta,7.103503,81.080813
229,3,Kiriwanagama,6.971183,80.91551
230,3,Koslanda,6.759935,81.027417
231,3,Kuruwitenna,7.2167,81.0667
232,3,Kuttiyagolla,7.0167,81.0833
233,3,Landewela,7.002113,81.000496
234,3,Liyangahawela,6.817452,81.032456
235,3,Lunugala,7.041299,81.199335
236,3,Lunuwatta,6.953933,80.917059
237,3,Madulsima,7.045064,81.133375
238,3,Mahiyanganaya,7.2444,81.1167
239,3,Makulella,6.8212,80.9407
240,3,Malgoda,7.4,81.05
241,3,Mapakadawewa,7.3,81.1167
242,3,Maspanna,7.024427,80.942159
243,3,Maussagolla,6.898433,81.147817
244,3,Mawanagama,7.2125,81.0583
245,3,Medawela Udukinda,6.846,80.9279
246,3,Meegahakiula,7.0833,80.9833
247,3,Metigahatenna,6.9667,81.0833
248,3,Mirahawatta,6.8817,80.9347
249,3,Miriyabedda,6.9167,81.15
250,3,Nawamedagama,7.2125,81.0583
251,3,Nelumgama,7,81.0917
252,3,Nikapotha,6.740622,80.97083
253,3,Nugatalawa,6.9,80.8833
254,3,Ohiya,6.821352,80.841789
255,3,Pahalarathkinda,7.4,81.05
256,3,Pallekiruwa,7.007551,81.227033
257,3,Passara,6.935017,81.151166
258,3,Pattiyagedara,6.8742,80.9507
259,3,Pelagahatenna,6.9594,81.1552
260,3,Perawella,6.943148,80.84264
261,3,Pitamaruwa,7.106546,81.135882
262,3,Pitapola,6.803692,80.884474
263,3,Puhulpola,6.907145,80.931109
264,3,Rajagalatenna,7.5458,81.125
265,3,Ratkarawwa,6.8,80.9167
266,3,Ridimaliyadda,7.2333,81.1
267,3,Silmiyapura,6.912388,80.843988
268,3,Sirimalgoda,7.003857,81.073671
269,3,Siripura,7.2125,81.0583
270,3,Sorabora Colony,7.3583,81.1083
271,3,Soragune,6.8333,80.8778
272,3,Soranatota,7.0167,81.05
273,3,Taldena,7.0833,81.05
274,3,Timbirigaspitiya,7.0333,81.05
275,3,Uduhawara,6.94706,80.85877
276,3,Uraniya,7.237143,81.102818
277,3,Uva Karandagolla,6.8333,81.0667
278,3,Uva Mawelagama,6.7333,81.0167
279,3,Uva Tenna,6.8333,80.8778
280,3,Uva Tissapura,7.3,81.1167
281,3,Welimada,6.906059,80.913222
282,3,Werunketagoda,7.5458,81.125
283,3,Wewatta,7.337729,81.201255
284,3,Wineethagama,7.029,80.937
285,3,Yalagamuwa,7.047834,80.950541
286,3,Yalwela,7.2667,81.15
287,4,Addalaichenai,7.4833,81.75
288,4,Ampilanthurai,7.8597,81.4411
289,4,Araipattai,7.667705,81.725335
290,4,Ayithiyamalai,7.670934,81.574798
291,4,Bakiella,7.5083,81.7583
292,4,Batticaloa,7.7167,81.7
293,4,Cheddipalayam,7.575161,81.783189
294,4,Chenkaladi,7.7833,81.6
295,4,Eravur,7.768518,81.619817
296,4,Kaluwanchikudi,7.5167,81.7833
297,4,Kaluwankemy,7.8,81.5667
298,4,Kannankudah,7.675505,81.674125
299,4,Karadiyanaru,7.689478,81.531117
300,4,Kathiraveli,8.243933,81.360298
301,4,Kattankudi,7.675,81.73
302,4,Kiran,7.866841,81.529737
303,4,Kirankulam,7.615628,81.764245
304,4,Koddaikallar,7.6389,81.6639
305,4,Kokkaddichcholai,7.8597,81.4411
306,4,Kurukkalmadam,7.594069,81.77497
307,4,Mandur,7.482114,81.762407
308,4,Miravodai,7.9,81.5167
309,4,Murakottanchanai,7.8667,81.5333
310,4,Navagirinagar,7.525,81.725
311,4,Navatkadu,7.5833,81.7167
312,4,Oddamavadi,7.9167,81.5167
313,4,Palamunai,7.4833,81.75
314,4,Pankudavely,7.75,81.5667
315,4,Periyaporativu,7.536243,81.764557
316,4,Periyapullumalai,7.561255,81.47434
317,4,Pillaiyaradi,7.75,81.6333
318,4,Punanai,7.9667,81.3833
319,4,Thannamunai,7.76355,81.645852
320,4,Thettativu,7.5833,81.7833
321,4,Thikkodai,7.525269,81.684177
322,4,Thirupalugamam,7.525,81.725
323,4,Unnichchai,7.6167,81.55
324,4,Vakaneri,7.9167,81.4333
325,4,Vakarai,8.165968,81.415623
326,4,Valaichenai,7.7,81.6
327,4,Vantharumoolai,7.807445,81.591476
328,4,Vellavely,7.5,81.7333
329,5,Akarawita,6.95,80.1
330,5,Ambalangoda,6.77533,79.96413
331,5,Athurugiriya,6.873072,79.997214
332,5,Avissawella,6.955003,80.211692
333,5,Batawala,6.877924,80.051592
334,5,Battaramulla,6.900299,79.922136
335,5,Biyagama,6.9408,79.9889
336,5,Bope,6.8333,80.1167
337,5,Boralesgamuwa,6.8425,79.9006
338,5,Colombo 8,6.914722,79.877778
339,5,Dedigamuwa,6.9115,80.0622
340,5,Dehiwala,6.856387,79.865156
341,5,Deltara,6.7833,79.9167
342,5,Habarakada,6.882518,80.017704
343,5,Hanwella,6.905988,80.083333
344,5,Hiripitya,6.85,79.95
345,5,Hokandara,6.890237,79.969894
346,5,Homagama,6.85685,80.005384
347,5,Horagala,6.807635,80.066995
348,5,Kaduwela,6.930497,79.984817
349,5,Kaluaggala,6.9167,80.1
350,5,Kapugoda,6.9486,80.1
351,5,Kehelwatta,6.75,79.9167
352,5,Kiriwattuduwa,6.804157,80.009759
353,5,Kolonnawa,6.933035,79.888095
354,5,Kosgama,6.9333,80.1411
355,5,Madapatha,6.766824,79.930103
356,5,Maharagama,6.843401,79.932766
357,5,Malabe,6.901241,79.958072
358,5,Moratuwa,6.7733,79.8825
359,5,Mount Lavinia,6.838864,79.863141
360,5,Mullegama,6.887403,80.012959
361,5,Napawela,6.9531,80.2183
362,5,Nugegoda,6.877563,79.886231
363,5,Padukka,6.837834,80.090301
364,5,Pannipitiya,6.843999,79.944518
365,5,Piliyandala,6.7981,79.9264
366,5,Pitipana Homagama,6.8477,80.016
367,5,Polgasowita,6.7842,79.9811
368,5,Pugoda,6.9703,80.1222
369,5,Ranala,6.915253,80.032962
370,5,Siddamulla,6.815785,79.955978
371,5,Siyambalagoda,6.800041,79.966845
372,5,Sri Jayawardenepu,6.8897,79.9359
373,5,Talawatugoda,6.8692,79.9411
374,5,Tummodara,6.9061,80.1353
375,5,Waga,6.9061,80.1353
376,5,Colombo 6,6.874657,79.860483
377,6,Agaliya,6.1833,80.2
378,6,Ahangama,5.970765,80.370204
379,6,Ahungalla,6.315216,80.03029
380,6,Akmeemana,6.1845,80.3032
381,6,Alawatugoda,6.4167,80
382,6,Aluthwala,6.180801,80.136538
383,6,Ampegama,6.193907,80.14453
384,6,Amugoda,6.314635,80.22104
385,6,Anangoda,6.0722,80.2389
386,6,Angulugaha,6.036963,80.322148
387,6,Ankokkawala,6.05329,80.274014
388,6,Aselapura,6.3167,80.0333
389,6,Baddegama,6.165975,80.201841
390,6,Balapitiya,6.269254,80.036054
391,6,Banagala,6.2706,80.42
392,6,Batapola,6.235697,80.120034
393,6,Bentota,6.4211,79.9989
394,6,Boossa,6.2233,80.2
395,6,Dellawa,6.335012,80.452741
396,6,Dikkumbura,6.012945,80.376153
397,6,Dodanduwa,6.0967,80.1456
398,6,Ella Tanabaddegama,6.2922,80.1988
399,6,Elpitiya,6.300214,80.171923
400,6,Galle,6.0536,80.2117
401,6,Ginimellagaha,6.2233,80.2
402,6,Gintota,6.0564,80.1839
403,6,Godahena,6.2333,80.0667
404,6,Gonamulla Junction,6.0667,80.3
405,6,Gonapinuwala,6.2233,80.2
406,6,Habaraduwa,6.0043,80.326
407,6,Haburugala,6.4052,80.038306
408,6,Hikkaduwa,6.139535,80.113201
409,6,Hiniduma,6.316028,80.328888
410,6,Hiyare,6.079898,80.317871
411,6,Kahaduwa,6.2244,80.21
412,6,Kahawa,6.185429,80.07601
413,6,Karagoda,6.084182,80.395041
414,6,Karandeniya,6.260467,80.072462
415,6,Kosgoda,6.332288,80.028315
416,6,Kottawagama,6.1375,80.3419
417,6,Kottegoda,6.1667,80.1
418,6,Kuleegoda,6.2167,80.1167
419,6,Magedara,6.108129,80.393927
420,6,Mahawela Sinhapura,6.3167,80.0333
421,6,Mapalagama,6.234713,80.27784
422,6,Mapalagama Central,6.2167,80.3
423,6,Mattaka,6.302366,80.254218
424,6,Meda-Keembiya,6.1845,80.3032
425,6,Meetiyagoda,6.189135,80.093504
426,6,Nagoda,6.201296,80.277829
427,6,Nakiyadeniya,6.143029,80.338164
428,6,Nawadagala,6.304655,80.134175
429,6,Neluwa,6.37393,80.363267
430,6,Nindana,6.207731,80.107663
431,6,Pahala Millawa,6.293995,80.475431
432,6,Panangala,6.274182,80.334525
433,6,Pannimulla Panagoda,6.36,80.3653
434,6,Parana ThanaYamgoda,6.2167,80.3
435,6,Patana,6.1333,80.1167
436,6,Pitigala,6.348894,80.217851
437,6,Poddala,6.1167,80.2167
438,6,Polgampola,6.3244,80.4383
439,6,Porawagama,6.279568,80.231811
440,6,Rantotuwila,6.3833,80.0833
441,6,Talagampola,6.0667,80.3
442,6,Talgaspe,6.3,80.2
443,6,Talpe,6.0061,80.2961
444,6,Tawalama,6.3333,80.3333
445,6,Tiranagama,6.1333,80.1167
446,6,Udalamatta,6.18924,80.306106
447,6,Udugama,6.188469,80.338951
448,6,Uluvitike,6.3056,80.309
449,6,Unawatuna,6.0169,80.249901
450,6,Unenwitiya,6.2417,80.225
451,6,Uragaha,6.35,80.1167
452,6,Uragasmanhandiya,6.358461,80.082277
453,6,Wakwella,6.1,80.1833
454,6,Walahanduwa,6.05443,80.251763
455,6,Wanchawela,6.0333,80.3167
456,6,Wanduramba,6.136388,80.252794
457,6,Warukandeniya,6.381574,80.43131
458,6,Watugedara,6.25,80.05
459,6,Weihena,6.310127,80.23392
460,6,Welikanda,6.3167,80.0333
461,6,Wilanagama,6.4167,80
462,6,Yakkalamulla,6.109027,80.349195
463,6,Yatalamatta,6.172247,80.293052
464,7,Akaragama,7.262603,79.958057
465,7,Ambagaspitiya,7.0833,80.0667
466,7,Ambepussa,7.25,80.1667
467,7,Andiambalama,7.188346,79.902344
468,7,Attanagalla,7.1119,80.1328
469,7,Badalgama,7.291218,79.978003
470,7,Banduragoda,7.2319,80.0678
471,7,Batuwatta,7.058399,79.932048
472,7,Bemmulla,7.120933,80.028191
473,7,Biyagama IPZ,6.9492,80.0153
474,7,Bokalagama,7.2333,80.15
475,7,Bollete (WP),7.0667,79.95
476,7,Bopagama,7.079641,80.15868
477,7,Buthpitiya,7.042846,80.051854
478,7,Dagonna,7.221568,79.927455
479,7,Danowita,7.2028,80.1758
480,7,Debahera,7.1389,80.0981
481,7,Dekatana,6.968317,80.035385
482,7,Delgoda,6.986583,80.01576
483,7,Delwagura,7.265367,80.003272
484,7,Demalagama,6.988934,80.046886
485,7,Demanhandiya,7.2333,79.9
486,7,Dewalapola,7.162553,79.997446
487,7,Divulapitiya,7.2167,80.0156
488,7,Divuldeniya,7.3,80.1
489,7,Dompe,6.949806,80.055083
490,7,Dunagaha,7.2342,79.9756
491,7,Ekala,7.105558,79.91532
492,7,Ellakkala,7.135968,80.132524
493,7,Essella,7.178736,80.021603
494,7,Galedanda,6.964202,79.930611
495,7,Gampaha,7.0917,79.9942
496,7,Ganemulla,7.064183,79.963294
497,7,Giriulla,7.3275,80.1267
498,7,Gonawala,6.9612,79.9992
499,7,Halpe,7.261935,80.10821
500,7,Hapugastenna,7.1,80.1667
501,7,Heiyanthuduwa,6.96283,79.963309
502,7,Hinatiyana Madawala,7.1667,79.95
503,7,Hiswella,7.021559,80.160869
504,7,Horampella,7.185188,79.976771
505,7,Hunumulla,7.244925,79.996921
506,7,Hunupola,7.111463,80.130625
507,7,Ihala Madampella,7.250345,79.960941
508,7,Imbulgoda,7.035,79.9931
509,7,Ja-Ela,7.076147,79.894932
510,7,Kadawatha,7.0258,79.9882
511,7,Kahatowita,7.0667,80.1167
512,7,Kalagedihena,7.118004,80.058001
513,7,Kaleliya,7.195,80.1136
514,7,Kandana,7.05056,79.895123
515,7,Katana,7.2517,79.9078
516,7,Katudeniya,7.3,80.0833
517,7,Katunayake,7.1647,79.8731
518,7,Katunayake Air Force Camp,7.1407,79.8782
519,7,Katunayake(FTZ),7.1407,79.8782
520,7,Katuwellegama,7.208557,79.94572
521,7,Kelaniya,6.956357,79.921431
522,7,Kimbulapitiya,7.202265,79.908937
523,7,Kirindiwela,7.044223,80.126707
524,7,Kitalawalana,7.3,80.1
525,7,Kochchikade,7.2581,79.8542
526,7,Kotadeniyawa,7.279861,80.05581
527,7,Kotugoda,7.1217,79.9297
528,7,Kumbaloluwa,7.179375,80.082233
529,7,Loluwagoda,7.294586,80.126624
530,7,Mabodale,7.2,80.0167
531,7,Madelgamuwa,7.110062,79.948175
532,7,Makewita,7.1,79.9333
533,7,Makola,6.983178,79.9525
534,7,Malwana,6.951988,80.012561
535,7,Mandawala,7.003066,80.097082
536,7,Marandagahamula,7.2447,79.9696
537,7,Mellawagedara,7.285808,80.023977
538,7,Minuwangoda,7.176455,79.954904
539,7,Mirigama,7.2414,80.1325
540,7,Miriswatta,7.0711,80.0183
541,7,Mithirigala,6.9648,80.0648
542,7,Muddaragama,7.2167,80.05
543,7,Mudungoda,7.064698,79.999092
544,7,Mulleriyawa New Town,6.9301,80.0549
545,7,Naranwala,7.001631,80.027404
546,7,Nawana,7.270062,80.092618
547,7,Nedungamuwa,7.05,80.0333
548,7,Negombo,7.2086,79.8358
549,7,Nikadalupotha,7.1167,80.1333
550,7,Nikahetikanda,7.099089,80.179551
551,7,Nittambuwa,7.144243,80.096178
552,7,Niwandama,7.078762,79.928331
553,7,Opatha,7.132037,79.921419
554,7,Pamunugama,7.094359,79.844569
555,7,Pamunuwatta,7.214678,80.139696
556,7,Panawala,6.9833,80.0333
557,7,Pasyala,7.172926,80.115911
558,7,Peliyagoda,6.960977,79.878852
559,7,Pepiliyawala,7.002342,80.128886
560,7,Pethiyagoda,7.1167,80.0167
561,7,Polpithimukulana,7.0444,79.8782
562,7,Puwakpitiya,7.040498,80.064451
563,7,Radawadunna,7.177279,80.141344
564,7,Radawana,7.029871,80.100915
565,7,Raddolugama,7.140656,79.898198
566,7,Ragama,7.025281,79.917386
567,7,Ruggahawila,7.0667,80.1167
568,7,Seeduwa,7.132059,79.885024
569,7,Siyambalape,6.964545,79.986406
570,7,Talahena,7.1667,79.8167
571,7,Thambagalla,7.1167,80.1333
572,7,Thimbirigaskatuwa,7.2669,79.9495
573,7,Tittapattara,6.9297,80.0889
574,7,Udathuthiripitiya,7.075,80.0333
575,7,Udugampola,7.1167,79.9833
576,7,Uggalboda,7.135549,79.948259
577,7,Urapola,7.104792,80.136935
578,7,Uswetakeiyawa,7.031046,79.860339
579,7,Veyangoda,7.156981,80.095842
580,7,Walgammulla,7.071902,80.116511
581,7,Walpita,7.258131,80.034704
582,7,Walpola (WP),7.0418,79.9257
583,7,Wathurugama,7.0421,80.0701
584,7,Watinapaha,7.2,79.9833
585,7,Wattala,6.990037,79.892207
586,7,Weboda,7.0167,79.9833
587,7,Wegowwa,7.178443,79.962063
588,7,Weweldeniya,7.1834,80.1446
589,7,Yakkala,7.1167,80.05
590,7,Yatiyana,7.184998,79.931858
591,8,Ambalantota,6.114494,81.025983
592,8,Angunakolapelessa,6.162261,80.899471
593,8,Angunakolawewa,6.389127,81.093226
594,8,Bandagiriya Colony,6.1833,81.1389
595,8,Barawakumbuka,6.1667,80.8167
596,8,Beliatta,6.048637,80.734343
597,8,Beragama,6.15,81.0667
598,8,Beralihela,6.2556,81.2944
599,8,Bundala,6.195164,81.250493
600,8,Ellagala,6.26867,81.359512
601,8,Gangulandeniya,6.2833,80.7167
602,8,Getamanna,6.036244,80.669146
603,8,Goda Koggalla,6.0333,80.75
604,8,Gonagamuwa Uduwila,6.25,81.2917
605,8,Gonnoruwa,6.230443,81.112465
606,8,Hakuruwela,6.146456,80.83047
607,8,Hambantota,6.127563,81.111287
608,8,Handugala,6.188877,80.62414
609,8,Hungama,6.108006,80.927144
610,8,Ihala Beligalla,6.092378,80.747311
611,8,Ittademaliya,6.167432,80.735179
612,8,Julampitiya,6.2261,80.7403
613,8,Kahandamodara,6.078654,80.902917
614,8,Kariyamaditta,6.257359,80.809448
615,8,Katuwana,6.2667,80.6972
616,8,Kawantissapura,6.2786,81.2524
617,8,Kirama,6.2117,80.6653
618,8,Kirinda,6.268985,81.290653
619,8,Lunama,6.098517,80.971511
620,8,Lunugamwehera,6.3417,81.15
621,8,Magama,6.280108,81.270354
622,8,Mahagalwewa,6.1833,81.1389
623,8,Mamadala,6.158126,80.96681
624,8,Medamulana,6.175878,80.770016
625,8,Middeniya,6.2494,80.7672
626,8,Migahajandur,6.1833,81.1389
627,8,Modarawana,6.117576,80.720781
628,8,Mulkirigala,6.12,80.7397
629,8,Nakulugamuwa,6.1842,80.9063
630,8,Netolpitiya,6.066848,80.850703
631,8,Nihiluwa,6.077147,80.696499
632,8,Padawkema,6.35,81.1667
633,8,Pahala Andarawewa,6.1833,81.1389
634,8,Rammalawarapitiya,6.2117,80.6653
635,8,Ranakeliya,6.2167,81.3
636,8,Ranmuduwewa,6.1833,81.1389
637,8,Ranna,6.103377,80.890168
638,8,Ratmalwala,6.2667,80.85
639,8,RU/Ridiyagama,6.1375,81.0042
640,8,Sooriyawewa Town,6.1833,81.1389
641,8,Tangalla,6.0231,80.7889
642,8,Tissamaharama,6.370333,81.328087
643,8,Uda Gomadiya,6.2667,80.6972
644,8,Udamattala,6.3333,81.1333
645,8,Uswewa,6.246247,80.862175
646,8,Vitharandeniya,6.1824,80.806
647,8,Walasmulla,6.15,80.7
648,8,Weeraketiya,6.135,80.7865
649,8,Weerawila,6.3417,81.15
650,8,Weerawila NewTown,6.2556,81.2944
651,8,Wekandawela,6.135,80.7865
652,8,Weligatta,6.205897,81.196032
653,8,Yatigala,6.1,80.6833
654,9,Jaffna,9.660668,80.022706
655,10,Agalawatta,6.541499,80.155785
656,10,Alubomulla,6.711977,79.965857
657,10,Anguruwatota,6.6383,80.0861
658,10,Atale,6.45,80.2667
659,10,Baduraliya,6.523102,80.232371
660,10,Bandaragama,6.710264,79.986087
661,10,Batugampola,6.769068,80.142775
662,10,Bellana,6.518936,80.183117
663,10,Beruwala,6.4739,79.9842
664,10,Bolossagama,6.62099,80.015288
665,10,Bombuwala,6.5833,80.0167
666,10,Boralugoda,6.438709,80.278799
667,10,Bulathsinhala,6.666199,80.164896
668,10,Danawala Thiniyawala,6.4333,80.2667
669,10,Delmella,6.67833,80.210488
670,10,Dharga Town,6.648,80.0089
671,10,Diwalakada,6.696767,80.146983
672,10,Dodangoda,6.555952,80.006847
673,10,Dombagoda,6.661797,80.053343
674,10,Ethkandura,6.4415,80.1807
675,10,Galpatha,6.5983,80.0015
676,10,Gamagoda,6.597103,80.005539
677,10,Gonagalpura,6.6307,80.0169
678,10,Gonapola Junction,6.6944,80.0333
679,10,Govinna,6.663337,80.116274
680,10,Gurulubadda,6.5333,80.2667
681,10,Halkandawila,6.5167,80.0167
682,10,Haltota,6.69554,80.02127
683,10,Halvitigala Colony,6.5791,80.2233
684,10,Halwala,6.416524,80.106562
685,10,Halwatura,6.7,80.2
686,10,Handapangoda,6.789746,80.140774
687,10,Hedigalla Colony,6.5333,80.2667
688,10,Henegama,6.7167,80.0333
689,10,Hettimulla,6.461362,79.992643
690,10,Horana,6.719389,80.061557
691,10,Ittapana,6.42254,80.079501
692,10,Kahawala,6.7833,80.1
693,10,Kalawila Kiranthidiya,6.4619,80.0004
694,10,Kalutara,6.581333,79.958546
695,10,Kananwila,6.7667,80.05
696,10,Kandanagama,6.7667,80.0778
697,10,Kelinkanda,6.587128,80.29322
698,10,Kitulgoda,6.5167,80.1833
699,10,Koholana,6.618149,79.989353
700,10,Kuda Uduwa,6.747871,80.078499
701,10,Labbala,6.4833,80
702,10,lhalahewessa,6.4415,80.1807
703,10,lnduruwa,6.4681,80.0257
704,10,lngiriya,6.7296,80.0604
705,10,Maggona,6.503158,79.977597
706,10,Mahagama,6.620177,80.154204
707,10,Mahakalupahana,6.3917,80.1417
708,10,Maharangalla,6.4667,80
709,10,Malgalla Talangalla,6.5791,80.2233
710,10,Matugama,6.5222,80.1144
711,10,Meegahatenna,6.3637,80.285
712,10,Meegama,6.648,80.0089
713,10,Meegoda,6.8053,80.0829
714,10,Millaniya,6.686206,80.017227
715,10,Millewa,6.7833,80.0667
716,10,Miwanapalana,6.75,80.1
717,10,Molkawa,6.607725,80.238612
718,10,Morapitiya,6.527127,80.263667
719,10,Morontuduwa,6.65,79.9667
720,10,Nawattuduwa,6.5019,80.0937
721,10,Neboda,6.5906,80.0842
722,10,Padagoda,6.456979,80.009049
723,10,Pahalahewessa,6.4333,80.2667
724,10,Paiyagala,6.5167,80.0167
725,10,Panadura,6.7133,79.9042
726,10,Pannala,6.4833,80
727,10,Paragastota,6.6667,80
728,10,Paragoda,6.627108,80.24112
729,10,Paraigama,6.4167,80.1167
730,10,Pelanda,6.6056,80.2333
731,10,Pelawatta,6.385227,80.207989
732,10,Pimbura,6.570997,80.161311
733,10,Pitagaldeniya,6.45,80.2667
734,10,Pokunuwita,6.7333,80.0333
735,10,Poruwedanda,6.7333,80.1167
736,10,Ratmale,6.45,80.2
737,10,Remunagoda,6.594994,80.031349
738,10,Talgaswela,6.4415,80.1807
739,10,Tebuwana,6.5944,80.0611
740,10,Uduwara,6.6167,80.0667
741,10,Utumgama,6.3917,80.1417
742,10,Veyangalla,6.5422,80.1583
743,10,Wadduwa,6.667121,79.924051
744,10,Walagedara,6.437775,80.071449
745,10,Walallawita,6.3667,80.2
746,10,Waskaduwa,6.6317,79.9442
747,10,Welipenna,6.466448,80.101763
748,10,Weliveriya,6.7167,80.0333
749,10,Welmilla Junction,6.7072,80.01
750,10,Weragala,6.527062,80.004097
751,10,Yagirala,6.378714,80.161812
752,10,Yatadolawatta,6.52309,80.064428
753,10,Yatawara Junction,6.5983,80.0015
754,11,Aludeniya,7.370491,80.46648
755,11,Ambagahapelessa,7.243803,81.00264
756,11,Ambagamuwa Udabulathgama,7.0333,80.5
757,11,Ambatenna,7.3472,80.6192
758,11,Ampitiya,7.2667,80.65
759,11,Ankumbura,7.434149,80.568704
760,11,Atabage,7.1333,80.6
761,11,Balana,7.269032,80.485503
762,11,Bambaragahaela,7.0523,80.5023
763,11,Batagolladeniya,7.41596,80.576688
764,11,Batugoda,7.366275,80.59604
765,11,Batumulla,7.256086,80.978905
766,11,Bawlana,7.211388,80.718828
767,11,Bopana,7.3,80.9
768,11,Danture,7.2833,80.5333
769,11,Dedunupitiya,7.3333,80.4333
770,11,Dekinda,7.014688,80.509932
771,11,Deltota,7.2,80.6667
772,11,Divulankadawala,7.175,80.55
773,11,Dolapihilla,7.393576,80.584659
774,11,Dolosbage,7.0806,80.4731
775,11,Dunuwila,7.3833,80.6333
776,11,Etulgama,7.2333,80.65
777,11,Galaboda,6.9875,80.5319
778,11,Galagedara,7.369716,80.520308
779,11,Galaha,7.195764,80.668659
780,11,Galhinna,7.418361,80.560015
781,11,Gampola,7.1647,80.5767
782,11,Gelioya,7.2136,80.6017
783,11,Godamunna,7.227313,80.697447
784,11,Gomagoda,7.3167,80.7333
785,11,Gonagantenna,7.1517,80.7118
786,11,Gonawalapatana,7.0358,80.5262
787,11,Gunnepana,7.2696,80.6537
788,11,Gurudeniya,7.265953,80.702921
789,11,Hakmana,7.334701,80.82402
790,11,Handaganawa,7.277451,80.989485
791,11,Handawalapitiya,7.2,80.6667
792,11,Handessa,7.230048,80.580831
793,11,Hanguranketha,7.1517,80.7118
794,11,Harangalagama,7.0271,80.5493
795,11,Hataraliyadda,7.3333,80.4667
796,11,Hindagala,7.231512,80.600815
797,11,Hondiyadeniya,7.1364,80.5766
798,11,Hunnasgiriya,7.298756,80.849834
799,11,Inguruwatta,7.175038,80.599767
800,11,Jambugahapitiya,7.3833,80.6333
801,11,Kadugannawa,7.2536,80.5275
802,11,Kahataliyadda,7.376,80.8213
803,11,Kalugala,7.390136,80.883008
804,11,Kandy,7.2964,80.635
805,11,Kapuliyadde,7.2401,80.6808
806,11,Katugastota,7.3161,80.6211
807,11,Katukitula,7.1089,80.6339
808,11,Kelanigama,7.0049,80.5182
809,11,Kengalla,7.296461,80.711767
810,11,Ketaboola,7.0271,80.5493
811,11,Ketakumbura,7.210532,80.571678
812,11,Kobonila,7.376,80.8213
813,11,Kolabissa,7.225,80.7167
814,11,Kolongoda,7.3552,80.8375
815,11,Kulugammana,7.315193,80.590268
816,11,Kumbukkandura,7.2969,80.7686
817,11,Kumburegama,7.357279,80.551316
818,11,Kundasale,7.2667,80.6833
819,11,Leemagahakotuwa,7.2333,80.5833
820,11,lhala Kobbekaduwa,7.3167,80.5833
821,11,Lunugama,7.198402,80.578244
822,11,Lunuketiya Maditta,7.3292,80.716
823,11,Madawala Bazaar,7.2696,80.6537
824,11,Madawalalanda,7.3792,80.4982
825,11,Madugalla,7.265802,80.882139
826,11,Madulkele,7.400281,80.728874
827,11,Mahadoraliyadda,7.3,80.85
828,11,Mahamedagama,7.225,80.7167
829,11,Mahanagapura,7.3792,80.4982
830,11,Mailapitiya,7.1517,80.7118
831,11,Makkanigama,7.3833,80.6333
832,11,Makuldeniya,7.341706,80.777466
833,11,Mangalagama,7.285856,80.563656
834,11,Mapakanda,7.007889,80.531101
835,11,Marassana,7.221663,80.732336
836,11,Marymount Colony,7.1517,80.7118
837,11,Mawatura,7.1,80.5667
838,11,Medamahanuwara,7.3,80.85
839,11,Medawala Harispattuwa,7.3417,80.6833
840,11,Meetalawa,7.0986,80.4699
841,11,Megoda Kalugamuwa,7.2631,80.6028
842,11,Menikdiwela,7.288455,80.501662
843,11,Menikhinna,7.3167,80.7
844,11,Mimure,7.4333,80.8333
845,11,Minigamuwa,7.3333,80.5167
846,11,Minipe,7.223556,80.990971
847,11,Moragahapallama,7.3792,80.4982
848,11,Murutalawa,7.3,80.5667
849,11,Muruthagahamulla,7.1364,80.5766
850,11,Nanuoya,7.1171,80.6387
851,11,Naranpanawa,7.339733,80.729831
852,11,Narawelpita,7.3167,80.8
853,11,Nawalapitiya,7.05048,80.530631
854,11,Nawathispane,7.0333,80.5
855,11,Nillambe,7.15,80.6333
856,11,Nugaliyadda,7.2333,80.7
857,11,Ovilikanda,7.45,80.5667
858,11,Pallekotuwa,7.3333,80.5667
859,11,Panwilatenna,7.1556,80.6314
860,11,Paradeka,7.12293,80.618959
861,11,Pasbage,7.0358,80.5262
862,11,Pattitalawa,7.1167,80.4667
863,11,Peradeniya,7.2631,80.6028
864,11,Pilimatalawa,7.2333,80.5333
865,11,Poholiyadda,7.343274,80.520186
866,11,Pubbiliya,7.385927,80.481336
867,11,Pupuressa,7.115632,80.677455
868,11,Pussellawa,7.112565,80.644101
869,11,Putuhapuwa,7.334198,80.759353
870,11,Rajawella,7.280519,80.748217
871,11,Rambukpitiya,7.0333,80.5
872,11,Rambukwella,7.294759,80.777664
873,11,Rangala,7.344486,80.795047
874,11,Rantembe,7.3552,80.8375
875,11,Sangarajapura,7.3167,80.5833
876,11,Senarathwela,7.280125,80.761602
877,11,Talatuoya,7.2536,80.6925
878,11,Teldeniya,7.2969,80.7686
879,11,Tennekumbura,7.2833,80.6667
880,11,Uda Peradeniya,7.249001,80.614072
881,11,Udahentenna,7.0889,80.5189
882,11,Udatalawinna,7.3161,80.6211
883,11,Udispattuwa,7.3552,80.8375
884,11,Ududumbara,7.3552,80.8375
885,11,Uduwahinna,7.2833,80.8917
886,11,Uduwela,7.2722,80.6667
887,11,Ulapane,7.114072,80.552445
888,11,Unuwinna,7.1517,80.7118
889,11,Velamboda,7.0523,80.5023
890,11,Watagoda,7.39731,80.588304
891,11,Watagoda Harispattuwa,7.3569,80.6012
892,11,Wattappola,7.234802,80.543661
893,11,Weligampola,7.0271,80.5493
894,11,Wendaruwa,7.3552,80.8375
895,11,Weragantota,7.3167,80.9833
896,11,Werapitya,7.2969,80.7686
897,11,Werellagama,7.3167,80.5833
898,11,Wettawa,7.3508,80.5221
899,11,Yahalatenna,7.3,80.5667
900,11,Yatihalagala,7.3,80.6
901,12,Alawala,7.197379,80.282779
902,12,Alawatura,7.1333,80.3333
903,12,Alawwa,7.2875,80.2536
904,12,Algama,7.158338,80.162939
905,12,Alutnuwara,7.2333,80.4667
906,12,Ambalakanda,7.134049,80.446804
907,12,Ambulugala,7.239127,80.409623
908,12,Amitirigala,7.0306,80.1839
909,12,Ampagala,7.080239,80.289037
910,12,Anhandiya,7.2667,80.2667
911,12,Anhettigama,6.922121,80.371876
912,12,Aranayaka,7.144705,80.461358
913,12,Aruggammana,7.117733,80.306712
914,12,Batuwita,7.044339,80.179129
915,12,Beligala(Sab),7.2167,80.2917
916,12,Belihuloya,7.2667,80.2167
917,12,Berannawa,7.064482,80.405526
918,12,Bopitiya,7.179761,80.205221
919,12,Bopitiya (SAB),7.2583,80.2167
920,12,Boralankada,6.979656,80.330338
921,12,Bossella,7.1333,80.4
922,12,Bulathkohupitiya,7.105994,80.338761
923,12,Damunupola,7.187968,80.334456
924,12,Debathgama,7.1833,80.3583
925,12,Dedugala,7.093849,80.418959
926,12,Deewala Pallegama,7.2333,80.2667
927,12,Dehiowita,6.9706,80.2675
928,12,Deldeniya,7.280914,80.35876
929,12,Deloluwa,6.9653,80.3181
930,12,Deraniyagala,6.932387,80.335039
931,12,Dewalegama,7.278928,80.319135
932,12,Dewanagala,7.2167,80.4667
933,12,Dombemada,7.37974,80.348761
934,12,Dorawaka,7.1833,80.2167
935,12,Dunumala,7.1738,80.2074
936,12,Galapitamada,7.14,80.2364
937,12,Galatara,7.2167,80.4167
938,12,Galigamuwa Town,7.2,80.3
939,12,Gallella,6.85,80.35
940,12,Galpatha(Sab),7.05,80.2333
941,12,Gantuna,7.1667,80.3667
942,12,Getahetta,6.9128,80.2358
943,12,Godagampola,6.885959,80.313855
944,12,Gonagala,7.035326,80.207373
945,12,Hakahinna,7.2,80.3
946,12,Hakbellawaka,7.003952,80.328796
947,12,Halloluwa,7.2,80.35
948,12,Hedunuwewa,6.9306,80.2747
949,12,Hemmatagama,7.1667,80.5
950,12,Hewadiwela,7.372493,80.377574
951,12,Hingula,7.247803,80.469032
952,12,Hinguralakanda,6.91506,80.304394
953,12,Hingurana,6.9167,80.4167
954,12,Hiriwadunna,7.2833,80.3833
955,12,Ihala Walpola,7.350958,80.397324
956,12,Ihalagama,7.2667,80.3333
957,12,Imbulana,7.08264,80.245565
958,12,Imbulgasdeniya,7.2853,80.3186
959,12,Kabagamuwa,7.136698,80.341558
960,12,Kahapathwala,7.3,80.4583
961,12,Kandaketya,7.2333,80.4667
962,12,Kannattota,7.081348,80.275311
963,12,Karagahinna,7.3604,80.3832
964,12,Kegalle,7.249349,80.351662
965,12,Kehelpannala,7.161131,80.519539
966,12,Ketawala Leula,7.1167,80.35
967,12,Kitulgala,6.9944,80.4114
968,12,Kondeniya,7.2667,80.4333
969,12,Kotiyakumbura,7.0833,80.2667
970,12,Lewangama,7.112902,80.239
971,12,Mahabage,7.019803,80.450227
972,12,Makehelwala,7.282441,80.47528
973,12,Malalpola,7.053091,80.351009
974,12,Maldeniya,6.9306,80.2747
975,12,Maliboda,6.887528,80.464212
976,12,Maliyadda,7.2333,80.4667
977,12,Malmaduwa,7.15,80.2833
978,12,Marapana,7.2333,80.35
979,12,Mawanella,7.244446,80.439045
980,12,Meetanwala,7.3,80.4583
981,12,Migastenna Sabara,7.0333,80.3333
982,12,Miyanawita,6.900423,80.351075
983,12,Molagoda,7.25,80.3833
984,12,Morontota,7.1667,80.3667
985,12,Narangala,7.07922,80.360764
986,12,Narangoda,7.198165,80.294552
987,12,Nattarampotha,7.1167,80.35
988,12,Nelundeniya,7.2319,80.2669
989,12,Niyadurupola,7.1667,80.2167
990,12,Noori,6.9508,80.3174
991,12,Pannila,6.866357,80.320996
992,12,Pattampitiya,7.315516,80.434412
993,12,Pilawala,7.1167,80.35
994,12,Pothukoladeniya,7.1833,80.3583
995,12,Puswelitenna,7.3667,80.3667
996,12,Rambukkana,7.323016,80.391856
997,12,Rilpola,7.2333,80.4667
998,12,Rukmale,7.2,80.4833
999,12,Ruwanwella,7.048852,80.2561
1000,12,Samanalawewa,7.2667,80.2167
1001,12,Seaforth Colony,7.0469,80.3502
1002,5,Colombo 2,6.926944,79.848611
1003,12,Spring Valley,7.2333,80.4667
1004,12,Talgaspitiya,7.1667,80.4833
1005,12,Teligama,7.0033,80.3647
1006,12,Tholangamuwa,7.233983,80.225956
1007,12,Thotawella,7.3555,80.3969
1008,12,Udaha Hawupe,7.05,80.2833
1009,12,Udapotha,7.09414,80.377416
1010,12,Uduwa,7.110957,80.387557
1011,12,Undugoda,7.141866,80.365332
1012,12,Ussapitiya,7.216957,80.444573
1013,12,Wahakula,7.058236,80.207402
1014,12,Waharaka,7.088513,80.198619
1015,12,Wanaluwewa,7.0667,80.175
1016,12,Warakapola,7.230053,80.196768
1017,12,Watura,7.1833,80.3833
1018,12,Weeoya,7.0469,80.3502
1019,12,Wegalla,7.099631,80.30654
1020,12,Weligalla,7.1833,80.2
1021,12,Welihelatenna,7.0333,80.3333
1022,12,Wewelwatta,6.85,80.35
1023,12,Yatagama,7.32512,80.356415
1024,12,Yatapana,7.1333,80.3
1025,12,Yatiyantota,7.0242,80.3006
1026,12,Yattogoda,7.2333,80.2667
1027,13,Kandavalai,9.4515585,80.5008173
1028,13,Karachchi,9.3769363,80.3766044
1029,13,Kilinochchi,9.416667,80.416667
1030,13,Pachchilaipalli,9.6115808,80.3273106
1031,13,Poonakary,9.5035013,80.2111173
1032,14,Akurana,7.637034,80.023362
1033,14,Alahengama,7.6779,80.1151
1034,14,Alahitiyawa,7.473913,80.171211
1035,14,Ambakote,7.492063,80.452844
1036,14,Ambanpola,7.915973,80.237512
1037,14,Andiyagala,7.4667,80.1333
1038,14,Anukkane,7.501814,80.120028
1039,14,Aragoda,7.366116,80.344207
1040,14,Ataragalla,7.9696,80.2768
1041,14,Awulegama,7.6569,80.2203
1042,14,Balalla,7.791025,80.250762
1043,14,Bamunukotuwa,7.8667,80.2167
1044,14,Bandara Koswatta,7.603296,80.17257
1045,14,Bingiriya,7.605177,79.921996
1046,14,Bogamulla,7.4589,80.2107
1047,14,Boraluwewa,7.682578,80.034757
1048,14,Boyagane,7.452272,80.341672
1049,14,Bujjomuwa,7.4581,80.0603
1050,14,Buluwala,7.484201,80.473535
1051,14,Dadayamtalawa,7.65,79.9667
1052,14,Dambadeniya,7.370527,80.146193
1053,14,Daraluwa,7.359407,79.978233
1054,14,Deegalla,7.510205,80.029797
1055,14,Demataluwa,7.513976,80.258741
1056,14,Demuwatha,7.35,80.1667
1057,14,Diddeniya,7.685279,80.47286
1058,14,Digannewa,7.897218,80.101328
1059,14,Divullegoda,7.75,80.2
1060,14,Diyasenpura,7.8167,80.1833
1061,14,Dodangaslanda,7.5667,80.5333
1062,14,Doluwa,7.621516,80.418833
1063,14,Doragamuwa,7.5833,79.9333
1064,14,Doratiyawa,7.450628,80.380562
1065,14,Dunumadalawa,7.8,80.0833
1066,14,Dunuwilapitiya,7.3667,80.2
1067,14,Ehetuwewa,7.927568,80.332035
1068,14,Elibichchiya,7.313179,80.056935
1069,14,Embogama,7.9214,80.3608
1070,14,Etungahakotuwa,7.5167,79.9667
1071,14,Galadivulwewa,7.8,80.0833
1072,14,Galgamuwa,7.995468,80.267527
1073,14,Gallellagama,7.3,80.15
1074,14,Gallewa,7.9667,80.3333
1075,14,Ganegoda,7.5833,80
1076,14,Girathalana,7.9833,80.3833
1077,14,Gokaralla,7.6301,80.3775
1078,14,Gonawila,7.3167,80
1079,14,Halmillawewa,7.5953,79.9972
1080,14,Handungamuwa,7.3667,80.2
1081,14,Harankahawa,7.3,80.15
1082,14,Helamada,7.3167,80.2833
1083,14,Hengamuwa,7.703282,80.111254
1084,14,Hettipola,7.605372,80.083137
1085,14,Hewainna,7.3333,80.2167
1086,14,Hilogama,7.75,80.0833
1087,14,Hindagolla,7.4833,80.4167
1088,14,Hiriyala Lenawa,7.6709,80.4751
1089,14,Hiruwalpola,7.553915,79.924699
1090,14,Horambawa,7.45,80.1833
1091,14,Hulogedara,7.7833,80.1833
1092,14,Hulugalla,7.79059,80.140007
1093,14,Ihala Gomugomuwa,7.5167,80.0833
1094,14,Ihala Katugampala,7.3672,80.1467
1095,14,Indulgodakanda,7.422625,80.402808
1096,14,Ithanawatta,7.4458,80.3458
1097,14,Kadigawa,7.7167,80
1098,14,Kalankuttiya,8.05,80.3833
1099,14,Kalatuwawa,7.6333,80.3667
1100,14,Kalugamuwa,7.449717,80.256696
1101,14,Kanadeniyawala,7.43824,80.535658
1102,14,Kanattewewa,7.6167,80.2
1103,14,Kandegedara,7.424611,80.071498
1104,14,Karagahagedara,7.475787,80.209967
1105,14,Karambe,7.805937,80.339167
1106,14,Katiyawa,7.624637,80.553944
1107,14,Katupota,7.5331,80.1897
1108,14,Kawudulla,7.75,80.3833
1109,14,Kawuduluwewa Stagell,7.8167,80.1833
1110,14,Kekunagolla,7.49608,80.170446
1111,14,Keppitiwalana,7.323203,80.190441
1112,14,Kimbulwanaoya,7.6709,80.4751
1113,14,Kirimetiyawa,7.5247,80.1408
1114,14,Kirindawa,7.502078,80.096123
1115,14,Kirindigalla,7.554314,80.475005
1116,14,Kithalawa,7.4816,80.1615
1117,14,Kitulwala,7.5,80.5333
1118,14,Kobeigane,7.656731,80.120999
1119,14,Kohilagedara,7.4167,80.3667
1120,14,Konwewa,7.8,80.0667
1121,14,Kosdeniya,7.574081,80.138826
1122,14,Kosgolla,7.4,80.3833
1123,14,Kotagala,7.45,80.2333
1124,5,Colombo 13,6.942778,79.858611
1125,14,Kotawehera,7.7911,80.1023
1126,14,Kudagalgamuwa,7.558498,80.340333
1127,14,Kudakatnoruwa,7.9833,80.3833
1128,14,Kuliyapitiya,7.469551,80.04873
1129,14,Kumaragama,7.75,80.3833
1130,14,Kumbukgeta,7.675,80.3667
1131,14,Kumbukwewa,7.797468,80.217857
1132,14,Kuratihena,7.6,80.1333
1133,14,Kurunegala,7.4867,80.3647
1134,14,lbbagamuwa,7.675,80.3667
1135,14,lhala Kadigamuwa,7.5436,79.9819
1136,14,Lihiriyagama,7.3447,79.9425
1137,14,lllagolla,7.4333,80.1333
1138,14,llukhena,7.5436,79.9819
1139,14,Lonahettiya,7.4589,80.2107
1140,14,Madahapola,7.711952,80.499003
1141,14,Madakumburumulla,7.44599,79.994062
1142,14,Madalagama,7.353398,80.314033
1143,14,Madawala Ulpotha,7.703,80.5051
1144,14,Maduragoda,7.5667,80.5333
1145,14,Maeliya,7.734847,80.4079
1146,14,Magulagama,7.542895,80.090321
1147,14,Maha Ambagaswewa,7.8167,80.1833
1148,14,Mahagalkadawala,8.062861,80.28052
1149,14,Mahagirilla,7.8333,80.1333
1150,14,Mahamukalanyaya,7.7417,80.4318
1151,14,Mahananneriya,8.013545,80.183367
1152,14,Mahapallegama,7.366,80.0918
1153,14,Maharachchimulla,7.335989,80.212673
1154,14,Mahatalakolawewa,7.8167,80.1833
1155,14,Mahawewa,7.5167,79.9167
1156,14,Maho,7.8228,80.2778
1157,14,Makulewa,7.998315,80.345072
1158,14,Makulpotha,7.751748,80.43986
1159,14,Makulwewa,7.6333,80.05
1160,14,Malagane,7.65,80.2667
1161,14,Mandapola,7.63521,80.108641
1162,14,Maspotha,7.8667,80.2167
1163,14,Mawathagama,7.409691,80.315775
1164,14,Medirigiriya,7.8167,80.1833
1165,14,Medivawa,7.7678,80.2858
1166,14,Meegalawa,7.9833,80.3833
1167,14,Meegaswewa,7.8167,80.1833
1168,14,Meewellawa,7.85,80.15
1169,14,Melsiripura,7.65,80.5
1170,14,Metikumbura,7.3615,80.3177
1171,14,Metiyagane,7.390854,80.180612
1172,14,Minhettiya,7.581261,80.307757
1173,14,Minuwangete,7.7167,80.25
1174,14,Mirihanagama,7.6542,80.2583
1175,14,Monnekulama,7.824042,80.060587
1176,14,Moragane,7.547791,80.130329
1177,14,Moragollagama,7.6333,80.2167
1178,14,Morathiha,7.510701,80.488428
1179,14,Munamaldeniya,7.55,80.0667
1180,14,Muruthenge,7.3942,80.1861
1181,14,Mutugala,7.3667,80.1667
1182,14,Nabadewa,7.6833,80.0667
1183,14,Nagollagama,7.752013,80.309254
1184,14,Nagollagoda,7.563335,80.037807
1185,14,Nakkawatta,7.448259,80.141879
1186,14,Narammala,7.431387,80.206159
1187,14,Nawasenapura,7.3667,80.1667
1188,14,Nawatalwatta,7.4581,80.0603
1189,14,Nelliya,7.690523,80.457947
1190,14,Nikaweratiya,7.747585,80.115201
1191,14,Nugagolla,7.3667,80.2
1192,14,Nugawela,7.329999,80.220383
1193,14,Padeniya,7.648348,80.222132
1194,14,Padiwela,7.545547,79.9905
1195,14,Pahalagiribawa,8.0833,80.2111
1196,14,Pahamune,7.4833,80.2
1197,14,Palagala,7.4667,80.1333
1198,14,Palapathwela,7.9,80.2
1199,14,Palaviya,7.5785,79.9098
1200,14,Pallewela,7.4667,79.9833
1201,14,Palukadawala,7.947895,80.279058
1202,14,Panadaragama,7.8667,80.2167
1203,14,Panagamuwa,7.55,80.4667
1204,14,Panaliya,7.328059,80.331852
1205,14,Panapitiya,7.4167,80.1833
1206,14,Panliyadda,7.7061,80.4964
1207,14,Pansiyagama,7.7061,80.4964
1208,14,Parape,7.3667,80.4167
1209,14,Pathanewatta,7.4167,80.0833
1210,14,Pattiya Watta,7.3833,80.3167
1211,14,Perakanatta,7.3667,80.2
1212,14,Periyakadneluwa,7.7417,80.4318
1213,14,Pihimbiya Ratmale,7.6299,80.0953
1214,14,Pihimbuwa,7.460742,80.512294
1215,14,Pilessa,7.45,80.4167
1216,14,Polgahawela,7.332765,80.295285
1217,14,Polgolla,7.4167,80.5333
1218,14,Polpitigama,7.8142,80.4042
1219,14,Pothuhera,7.4181,80.3317
1220,14,Pothupitiya,7.35542,80.17166
1221,14,Pujapitiya,7.3833,80.3167
1222,14,Rakwana,7.9,80.4
1223,14,Ranorawa,7.8,80.0833
1224,14,Rathukohodigala,7.5833,79.9333
1225,14,Ridibendiella,7.802,80.287
1226,14,Ridigama,7.55,80.4833
1227,14,Saliya Asokapura,8.0833,80.2111
1228,14,Sandalankawa,7.304619,79.944358
1229,14,Sevanapitiya,7.3667,80.1667
1230,14,Sirambiadiya,8.1,80.2667
1231,14,Sirisetagama,7.7772,80.1506
1232,14,Siyambalangamuwa,7.529179,80.340311
1233,14,Siyambalawewa,7.65,79.9667
1234,14,Solepura,8.153657,80.153384
1235,14,Solewewa,8.145855,80.132596
1236,14,Sunandapura,7.6299,80.0953
1237,14,Talawattegedara,7.3833,80.3
1238,14,Tambutta,8.0833,80.2167
1239,14,Tennepanguwa,7.4167,80.0833
1240,14,Thalahitimulla,7.432473,80.001954
1241,14,Thalakolawewa,7.796943,80.433851
1242,14,Thalwita,7.5943,80.2108
1243,14,Tharana Udawela,7.5333,80.0667
1244,14,Thimbiriyawa,7.750904,80.140975
1245,14,Tisogama,7.6065,79.9406
1246,14,Torayaya,7.5167,80.4
1247,14,Tulhiriya,7.2833,80.2167
1248,14,Tuntota,7.5,79.9167
1249,14,Tuttiripitigama,7.6,80.1333
1250,14,Udagaldeniya,7.3583,80.35
1251,14,Udahingulwala,7.3,80.15
1252,14,Udawatta,7.4333,80.1333
1253,14,Udubaddawa,7.4828,79.9753
1254,14,Udumulla,7.45,80.4
1255,14,Uhumiya,7.4667,80.2833
1256,14,Ulpotha Pallekele,7.8071,80.4188
1257,14,Ulpothagama,7.7167,80.3167
1258,14,Usgala Siyabmalangamuwa,8.0833,80.2111
1259,14,Vijithapura,7.4667,80.1333
1260,14,Wadakada,7.39697,80.267596
1261,14,Wadumunnegedara,7.4167,79.9667
1262,14,Walakumburumulla,7.4167,80.0167
1263,14,Wannigama,7.6569,80.2203
1264,14,Wannikudawewa,7.9977,80.2964
1265,14,Wannilhalagama,7.9977,80.2964
1266,14,Wannirasnayakapura,7.6889,80.1556
1267,14,Warawewa,8.121572,80.14855
1268,14,Wariyapola,7.628694,80.235989
1269,14,Watareka,7.397142,80.432878
1270,14,Wattegama,7.5833,79.9333
1271,14,Watuwatta,7.5167,79.9167
1272,14,Weerapokuna,7.649426,79.981893
1273,14,Welawa Juncton,7.6569,80.2203
1274,14,Welipennagahamulla,7.4581,80.0603
1275,14,Wellagala,7.6167,80.2833
1276,14,Wellarawa,7.5729,79.913974
1277,14,Wellawa,7.566524,80.369189
1278,14,Welpalla,7.4333,80.05
1279,14,Wennoruwa,7.369467,80.219573
1280,14,Weuda,7.4,80.1667
1281,14,Wewagama,7.42031,80.099835
1282,14,Wilgamuwa,7.3667,80.2
1283,14,Yakwila,7.3833,80.0333
1284,14,Yatigaloluwa,7.328729,80.264509
1285,15,Mannar,8.9833,79.9
1286,15,Puthukudiyiruppu,9.046951,79.853286
1287,16,Akuramboda,7.646383,80.600048
1288,16,Alawatuwala,7.55,80.5583
1289,16,Alwatta,7.449444,80.663358
1290,16,Ambana,7.651007,80.693816
1291,16,Aralaganwila,7.696,80.5842
1292,16,Ataragallewa,7.5333,80.6067
1293,16,Bambaragaswewa,7.784315,80.540511
1294,16,Barawardhana Oya,7.5667,80.625
1295,16,Beligamuwa,7.725882,80.552789
1296,16,Damana,7.8417,80.5797
1297,16,Dambulla,7.868039,80.646464
1298,16,Damminna,7.696,80.5842
1299,16,Dankanda,7.519616,80.694168
1300,16,Delwite,7.55,80.5583
1301,16,Devagiriya,7.5833,80.9667
1302,16,Dewahuwa,7.7589,80.5683
1303,16,Divuldamana,7.696,80.5842
1304,16,Dullewa,7.511012,80.59862
1305,16,Dunkolawatta,7.4917,80.625
1306,16,Elkaduwa,7.410706,80.693258
1307,16,Erawula Junction,7.8633,80.6842
1308,16,Etanawala,7.5217,80.6847
1309,16,Galewela,7.759807,80.56744
1310,16,Galoya Junction,7.696,80.5842
1311,16,Gammaduwa,7.581654,80.698521
1312,16,Gangala Puwakpitiya,7.5217,80.6847
1313,16,Hasalaka,7.5667,80.625
1314,16,Hattota Amuna,7.5333,80.6067
1315,16,Imbulgolla,7.575027,80.663159
1316,16,Inamaluwa,7.951344,80.690187
1317,16,Iriyagolla,7.55,80.6333
1318,16,Kaikawala,7.507177,80.659444
1319,16,Kalundawa,7.8,80.7167
1320,16,Kandalama,7.887403,80.703507
1321,16,Kavudupelella,7.5914,80.6258
1322,16,Kibissa,7.9397,80.7278
1323,16,Kiwula,7.4917,80.625
1324,16,Kongahawela,7.679932,80.706607
1325,16,Laggala Pallegama,7.5333,80.6067
1326,16,Leliambe,7.4346,80.6519
1327,16,Lenadora,7.753507,80.660161
1328,16,lhala Halmillewa,7.8667,80.6417
1329,16,lllukkumbura,7.5217,80.6847
1330,16,Madipola,7.6833,80.5833
1331,16,Maduruoya,7.696,80.5842
1332,16,Mahawela,7.581804,80.607485
1333,16,Mananwatta,7.685106,80.601107
1334,16,Maraka,7.586801,80.962009
1335,16,Matale,7.4717,80.6244
1336,16,Melipitiya,7.5458,80.5833
1337,16,Metihakka,7.536495,80.654081
1338,16,Millawana,7.6503,80.5772
1339,16,Muwandeniya,7.461452,80.660098
1340,16,Nalanda,7.662487,80.635004
1341,16,Naula,7.708132,80.652321
1342,16,Opalgala,7.619927,80.698338
1343,16,Pallepola,7.620686,80.600466
1344,16,Pimburattewa,7.696,80.5842
1345,16,Pulastigama,7.67,80.565
1346,16,Ranamuregama,7.5333,80.6067
1347,16,Rattota,7.5217,80.6847
1348,16,Selagama,7.594457,80.58381
1349,16,Sigiriya,7.954968,80.755205
1350,16,Sinhagama,7.696,80.5842
1351,16,Sungavila,7.67,80.565
1352,16,Talagoda Junction,7.5722,80.6222
1353,16,Talakiriyagama,7.8206,80.6172
1354,16,Tamankaduwa,7.67,80.565
1355,16,Udasgiriya,7.535254,80.570342
1356,16,Udatenna,7.4167,80.65
1357,16,Ukuwela,7.423917,80.62996
1358,16,Wahacotte,7.7142,80.5972
1359,16,Walawela,7.520365,80.597403
1360,16,Wehigala,7.409019,80.669112
1361,16,Welangahawatte,7.5217,80.6847
1362,16,Wewalawewa,7.8103,80.6669
1363,16,Yatawatta,7.562698,80.578361
1364,17,Akuressa,6.0964,80.4808
1365,17,Alapaladeniya,6.2833,80.45
1366,17,Aparekka,6.008083,80.621556
1367,17,Athuraliya,6.069724,80.497879
1368,17,Bengamuwa,6.253417,80.59808
1369,17,Bopagoda,6.1561,80.4903
1370,17,Dampahala,6.259631,80.633081
1371,17,Deegala Lenama,6.2333,80.45
1372,17,Deiyandara,6.152388,80.604696
1373,17,Denagama,6.11481,80.642749
1374,17,Denipitiya,5.9667,80.45
1375,17,Deniyaya,6.339732,80.548055
1376,17,Derangala,6.229572,80.445492
1377,17,Devinuwara (Dondra),5.9319,80.6069
1378,17,Dikwella,5.9667,80.6833
1379,17,Diyagaha,5.9833,80.5667
1380,17,Diyalape,6.121802,80.447911
1381,17,Gandara,5.933629,80.61575
1382,17,Godapitiya,6.121801,80.480996
1383,17,Gomilamawarala,6.1833,80.5667
1384,17,Hawpe,6.129973,80.489743
1385,17,Horapawita,6.1167,80.5833
1386,17,Kalubowitiyana,6.3167,80.4
1387,17,Kamburugamuwa,5.940612,80.496449
1388,17,Kamburupitiya,6.069847,80.56473
1389,17,Karagoda Uyangoda,6.0715,80.5193
1390,17,Karaputugala,6.07377,80.603484
1391,17,Karatota,6.0667,80.6667
1392,17,Kekanadurra,6.0715,80.5193
1393,17,Kiriweldola,6.372272,80.533507
1394,17,Kiriwelkele,6.249957,80.451047
1395,17,Kolawenigama,6.321671,80.500227
1396,17,Kotapola,6.292393,80.533957
1397,17,Lankagama,6.35,80.4667
1398,17,Makandura,6.137036,80.571982
1399,17,Maliduwa,6.1333,80.4167
1400,17,Maramba,6.1614,80.5035
1401,17,Matara,5.9486,80.5428
1402,17,Mediripitiya,6.35,80.4667
1403,17,Miella,6.1167,80.6833
1404,17,Mirissa,5.94679,80.452288
1405,17,Morawaka,6.25,80.4833
1406,17,Mulatiyana Junction,6.1833,80.5667
1407,17,Nadugala,5.975464,80.548935
1408,17,Naimana,6.0715,80.5193
1409,17,Palatuwa,5.984516,80.518656
1410,17,Parapamulla,6.150219,80.61675
1411,17,Pasgoda,6.242998,80.616175
1412,17,Penetiyana,6.034813,80.450626
1413,17,Pitabeddara,6.2167,80.45
1414,17,Puhulwella,6.045752,80.619203
1415,17,Radawela,6.124672,80.60726
1416,17,Ransegoda,6.0715,80.5193
1417,17,Rotumba,6.229142,80.571151
1418,17,Sultanagoda,5.9667,80.5
1419,17,Telijjawila,6.0715,80.5193
1420,17,Thihagoda,6.011602,80.561851
1421,17,Urubokka,6.302863,80.631175
1422,17,Urugamuwa,6.0116,80.6437
1423,17,Urumutta,6.150181,80.519582
1424,17,Viharahena,6.379073,80.598006
1425,17,Walakanda,6.01655,80.649889
1426,17,Walasgala,5.981913,80.693678
1427,17,Waralla,6.277439,80.522519
1428,17,Weligama,5.9667,80.4167
1429,17,Wilpita,6.1,80.5167
1430,17,Yatiyana,6.028888,80.603158
1431,18,Ayiwela,7.1,81.2333
1432,18,Badalkumbura,6.893287,81.234346
1433,18,Baduluwela,7.11307,81.435299
1434,18,Bakinigahawela,6.9333,81.2833
1435,18,Balaharuwa,6.520177,81.058519
1436,18,Bibile,7.1667,81.2167
1437,18,Buddama,7.046413,81.486844
1438,18,Buttala,6.75,81.2333
1439,18,Dambagalla,6.955743,81.375946
1440,18,Diyakobala,7.1056,81.2222
1441,18,Dombagahawela,6.898197,81.441375
1442,18,Ethimalewewa,6.9216,81.3833
1443,18,Ettiliwewa,6.73,81.12
1444,18,Galabedda,6.9167,81.3833
1445,18,Gamewela,6.9167,81.2
1446,18,Hambegamuwa,6.503718,80.874695
1447,18,Hingurukaduwa,6.817257,81.153429
1448,18,Hulandawa,6.868479,81.333215
1449,18,Inginiyagala,7.198617,81.494496
1450,18,Kandaudapanguwa,6.9667,81.5167
1451,18,Kandawinna,6.9333,81.2833
1452,18,Kataragama,6.4167,81.3333
1453,18,Kotagama,7.116448,81.17788
1454,18,Kotamuduna,6.892542,81.177651
1455,18,Kotawehera Mankada,6.4636,81.053
1456,18,Kudawewa,6.4167,81.0333
1457,18,Kumbukkana,6.814795,81.274913
1458,18,Marawa,6.805944,81.381458
1459,18,Mariarawa,6.975969,81.481047
1460,18,Medagana,6.9333,81.2833
1461,18,Medawelagama,6.9167,81.2
1462,18,Miyanakandura,6.869169,81.152967
1463,18,Monaragala,6.8667,81.35
1464,18,Moretuwegama,6.75,81.2333
1465,18,Nakkala,6.887816,81.306082
1466,18,Namunukula,6.8667,81.1167
1467,18,Nannapurawa,7.0833,81.25
1468,18,Nelliyadda,7.389929,81.408141
1469,18,Nilgala,7.215945,81.312806
1470,18,Obbegoda,6.8786,81.3476
1471,18,Okkampitiya,6.753201,81.29752
1472,18,Pangura,6.9833,81.3167
1473,18,Pitakumbura,7.191575,81.27524
1474,18,Randeniya,6.803474,81.1119
1475,18,Ruwalwela,7.017476,81.386203
1476,18,Sella Kataragama,6.4167,81.3333
1477,18,Siyambalagune,6.8,81.1333
1478,18,Siyambalanduwa,6.910581,81.552112
1479,18,Suriara,6.4636,81.053
1480,18,Tanamalwila,6.4333,81.1333
1481,18,Uva Gangodagama,7.0056,81.4222
1482,18,Uva Kudaoya,6.75,81.2
1483,18,Uva Pelwatta,6.75,81.2333
1484,18,Warunagama,6.75,81.2333
1485,18,Wedikumbura,6.8333,81.3833
1486,18,Weherayaya Handapanagala,6.7778,81.1167
1487,18,Wellawaya,6.719458,81.106295
1488,18,Wilaoya,6.9216,81.3833
1489,18,Yudaganawa,6.776882,81.229725
1490,19,Mullativu,9.266667,80.816667
1491,20,Agarapathana,6.824224,80.709671
1492,20,Ambatalawa,7.05,80.6667
1493,20,Ambewela,6.899935,80.783603
1494,20,Bogawantalawa,6.8,80.6833
1495,20,Bopattalawa,6.9011,80.6694
1496,20,Dagampitiya,6.977604,80.466144
1497,20,Dayagama Bazaar,6.9011,80.6694
1498,20,Dikoya,6.8786,80.6272
1499,20,Doragala,7.0731,80.5892
1500,20,Dunukedeniya,6.982643,80.632911
1501,20,Egodawela,7.024081,80.662636
1502,20,Ekiriya,7.148834,80.757167
1503,20,Elamulla,7.0833,80.8
1504,20,Ginigathena,6.9864,80.4894
1505,20,Gonakele,6.9917,80.8194
1506,20,Haggala,6.9697,80.77
1507,20,Halgranoya,7.0417,80.8917
1508,20,Hangarapitiya,6.932637,80.464959
1509,20,Hapugastalawa,7.0667,80.5667
1510,20,Harasbedda,7.04738,80.876477
1511,20,Hatton,6.899356,80.599855
1512,20,Hewaheta,7.1108,80.7547
1513,20,Hitigegama,6.947521,80.457154
1514,20,Jangulla,7.0333,80.8917
1515,20,Kalaganwatta,7.104232,80.902715
1516,20,Kandapola,6.981495,80.802798
1517,20,Karandagolla,7.057024,80.899844
1518,20,Keerthi Bandarapura,7.1108,80.8581
1519,20,Kiribathkumbura,7.1108,80.7547
1520,20,Kotiyagala,6.784171,80.68557
1521,20,Kotmale,7.0214,80.5942
1522,20,Kottellena,6.893287,80.50215
1523,20,Kumbalgamuwa,7.109883,80.853852
1524,20,Kumbukwela,7.055729,80.887479
1525,20,Kurupanawela,7.01894,80.920981
1526,20,Labukele,7.0442,80.6919
1527,20,Laxapana,6.8952,80.5088
1528,20,Lindula,6.920326,80.684129
1529,20,Madulla,7.047667,80.918204
1530,20,Mandaram Nuwara,7.0833,80.8
1531,20,Maskeliya,6.831379,80.568585
1532,20,Maswela,7.072503,80.6439
1533,20,Maturata,7.0833,80.8
1534,20,Mipanawa,7.0333,80.9167
1535,20,Mipilimana,6.8667,80.8167
1536,20,Morahenagama,6.942625,80.478482
1537,20,Munwatta,7.11534,80.809403
1538,20,Nayapana Janapadaya,7.0731,80.5892
1539,20,Nildandahinna,7.0833,80.8833
1540,20,Nissanka Uyana,6.8358,80.5703
1541,20,Norwood,6.835736,80.602181
1542,20,Nuwara Eliya,6.9697,80.77
1543,20,Padiyapelella,7.092506,80.798544
1544,20,Pallebowala,7.1151,80.8108
1545,20,Panvila,7.0667,80.6833
1546,20,Pitawala,6.998608,80.452257
1547,20,Pundaluoya,7.018255,80.676081
1548,20,Ramboda,7.060427,80.69534
1549,20,Rikillagaskada,7.145849,80.78095
1550,20,Rozella,6.9306,80.5531
1551,20,Rupaha,7.0333,80.9
1552,20,Ruwaneliya,6.93721,80.772258
1553,20,Santhipura,6.9697,80.77
1554,20,Talawakele,6.9367,80.6611
1555,20,Tawalantenna,7.0667,80.6833
1556,20,Teripeha,7.1189,80.9244
1557,20,Udamadura,7.094106,80.914817
1558,20,Udapussallawa,7.0333,80.9111
1559,20,Uva Deegalla,7.0333,80.8917
1560,20,Uva Uduwara,7.0333,80.8917
1561,20,Uvaparanagama,6.8832,80.7912
1562,20,Walapane,7.091924,80.860522
1563,20,Watawala,6.951339,80.533199
1564,20,Widulipura,6.8952,80.5088
1565,20,Wijebahukanda,7.0167,80.6167
1566,21,Attanakadawala,7.903734,80.828104
1567,21,Bakamuna,7.7833,80.8167
1568,21,Diyabeduma,7.89851,80.898332
1569,21,Elahera,7.7244,80.7883
1570,21,Giritale,7.9833,80.9333
1571,21,Hingurakdamana,8.055896,81.011875
1572,21,Hingurakgoda,8.036505,80.948686
1573,21,Jayanthipura,8,81
1574,21,Kalingaela,7.9583,81.0417
1575,21,Lakshauyana,7.9583,81.0417
1576,21,Mankemi,7.9833,81.25
1577,21,Minneriya,8.036343,80.903215
1578,21,Onegama,7.992203,81.090758
1579,21,Orubendi Siyambalawa,7.751972,80.812093
1580,21,Palugasdamana,8.0167,81.0833
1581,21,Panichankemi,7.9833,81.25
1582,21,Polonnaruwa,7.940295,81.007138
1583,21,Talpotha,8.0167,81.0833
1584,21,Tambala,8.0167,81.0833
1585,21,Unagalavehera,8.001006,80.995549
1586,21,Wijayabapura,8.0167,81.0833
1587,22,Adippala,7.5833,79.8417
1588,22,Alutgama,7.7667,79.9333
1589,22,Alutwewa,7.8667,79.95
1590,22,Ambakandawila,7.5333,79.8
1591,22,Anamaduwa,7.881625,80.00353
1592,22,Andigama,7.7775,79.9528
1593,22,Angunawila,7.7667,79.85
1594,22,Attawilluwa,7.4167,79.8833
1595,22,Bangadeniya,7.619471,79.809055
1596,22,Baranankattuwa,7.803253,79.872624
1597,22,Battuluoya,7.734655,79.817455
1598,22,Bujjampola,7.3333,79.9
1599,22,Chilaw,7.5758,79.7953
1600,22,Dalukana,7.3167,79.85
1601,22,Dankotuwa,7.300443,79.88505
1602,22,Dewagala,7.3167,79.85
1603,22,Dummalasuriya,7.4833,79.9
1604,22,Dunkannawa,7.4167,79.9
1605,22,Eluwankulama,8.332832,79.859928
1606,22,Ettale,8.097416,79.717306
1607,22,Galamuna,7.464661,79.872371
1608,22,Galmuruwa,7.501718,79.895774
1609,22,Hansayapalama,7.3167,79.85
1610,22,Ihala Kottaramulla,7.383069,79.871755
1611,22,Ilippadeniya,7.567036,79.826233
1612,22,Inginimitiya,7.964099,80.112055
1613,22,Ismailpuram,8.0333,79.8167
1614,22,Jayasiripura,7.6333,79.8167
1615,22,Kakkapalliya,7.5333,79.8267
1616,22,Kalkudah,8.1167,79.7167
1617,22,Kalladiya,7.95,79.9333
1618,22,Kandakuliya,7.98,79.9569
1619,22,Karathivu,8.192511,79.832662
1620,22,Karawitagara,7.572417,79.86173
1621,22,Karuwalagaswewa,8.037625,79.94267
1622,22,Katuneriya,7.3667,79.8333
1623,22,Koswatta,7.3667,79.9
1624,22,Kottantivu,7.85,79.7833
1625,22,Kottapitiya,7.63568,79.815394
1626,22,Kottukachchiya,7.938617,79.954577
1627,22,Kumarakattuwa,7.661964,79.886873
1628,22,Kurinjanpitiya,7.98,79.9569
1629,22,Kuruketiyawa,8.0167,80.05
1630,22,Lunuwila,7.350819,79.85725
1631,22,Madampe,7.5,79.8333
1632,22,Madurankuliya,7.896391,79.836449
1633,22,Mahakumbukkadawala,7.85,79.9
1634,22,Mahauswewa,7.9575,80.0683
1635,22,Mampitiya,7.3167,79.85
1636,22,Mampuri,7.9964,79.7411
1637,22,Mangalaeliya,7.775,79.85
1638,22,Marawila,7.4094,79.8322
1639,22,Mudalakkuliya,7.799533,79.977428
1640,22,Mugunuwatawana,7.58487,79.854684
1641,22,Mukkutoduwawa,7.928236,79.75648
1642,22,Mundel,7.7958,79.8283
1643,22,Muttibendiwila,7.45,79.8833
1644,22,Nainamadama,7.3714,79.8837
1645,22,Nalladarankattuwa,7.689152,79.844243
1646,22,Nattandiya,7.4086,79.8683
1647,22,Nawagattegama,8,80.1167
1648,22,Nelumwewa,7.3167,79.85
1649,22,Norachcholai,7.9964,79.7411
1650,22,Pallama,7.681225,79.918239
1651,22,Palliwasalturai,7.98,79.9569
1652,22,Panirendawa,7.542426,79.886377
1653,22,Parakramasamudraya,7.8667,79.95
1654,22,Pothuwatawana,7.4833,79.9
1655,22,Puttalam,8.043613,79.841209
1656,22,Puttalam Cement Factory,7.4167,79.8833
1657,22,Rajakadaluwa,7.650515,79.828283
1658,22,Saliyawewa Junction,7.4167,79.8833
1659,22,Serukele,7.7333,79.9167
1660,22,Siyambalagashene,7.8239,79.978
1661,22,Tabbowa,7.4167,79.8833
1662,22,Talawila Church,7.9964,79.7411
1663,22,Toduwawa,7.4861,79.8022
1664,22,Udappuwa,7.5758,79.7953
1665,22,Uridyawa,7.8239,79.978
1666,22,Vanathawilluwa,8.17001,79.8461
1667,22,Waikkal,7.2833,79.85
1668,22,Watugahamulla,7.4667,79.9
1669,22,Wennappuwa,7.35048,79.850112
1670,22,Wijeyakatupotha,7.5758,79.7953
1671,22,Wilpotha,7.5758,79.7953
1672,22,Yodaela,7.5833,79.8667
1673,22,Yogiyana,7.286035,79.924213
1674,23,Akarella,6.59053,80.644197
1675,23,Amunumulla,6.7333,80.75
1676,23,Atakalanpanna,6.5333,80.6
1677,23,Ayagama,6.63662,80.317329
1678,23,Balangoda,6.661743,80.69371
1679,23,Batatota,6.8333,80.3667
1680,23,Beralapanathara,6.4521,80.4894
1681,23,Bogahakumbura,6.6833,80.7667
1682,23,Bolthumbe,6.739114,80.664956
1683,23,Bomluwageaina,6.4,80.6333
1684,23,Bowalagama,6.3917,80.6833
1685,23,Bulutota,6.4333,80.65
1686,23,Dambuluwana,6.7167,80.3333
1687,23,Daugala,6.4901,80.4248
1688,23,Dela,6.6258,80.4486
1689,23,Delwala,6.513055,80.473993
1690,23,Dodampe,6.73603,80.301105
1691,23,Doloswalakanda,6.55133,80.470258
1692,23,Dumbara Manana,6.680322,80.247485
1693,23,Eheliyagoda,6.85,80.2667
1694,23,Ekamutugama,6.3406,80.7804
1695,23,Elapatha,6.66081,80.366828
1696,23,Ellagawa,6.5687,80.363
1697,23,Ellaulla,6.8583,80.3083
1698,23,Ellawala,6.809945,80.259547
1699,23,Embilipitiya,6.3439,80.8489
1700,23,Eratna,6.7986,80.3784
1701,23,Erepola,6.804277,80.242773
1702,23,Gabbela,6.7167,80.35
1703,23,Gangeyaya,6.7516,80.5927
1704,23,Gawaragiriya,6.6422,80.2667
1705,23,Gillimale,6.729,80.4415
1706,23,Godakawela,6.505599,80.647268
1707,23,Gurubewilagama,6.7,80.5667
1708,23,Halwinna,6.6833,80.7167
1709,23,Handagiriya,6.562839,80.780347
1710,23,Hatangala,6.532527,80.739407
1711,23,Hatarabage,6.65,80.75
1712,23,Hewanakumbura,6.6833,80.7667
1713,23,Hidellana,6.7192,80.3842
1714,23,Hiramadagama,6.533544,80.60045
1715,23,Horewelagoda,6.3917,80.6833
1716,23,Ittakanda,6.403532,80.636458
1717,23,Kahangama,6.704217,80.362927
1718,23,Kahawatta,6.708145,80.303805
1719,23,Kalawana,6.531595,80.407285
1720,23,Kaltota,6.6833,80.6833
1721,23,Kalubululanda,6.6833,80.7667
1722,23,Kananke Bazaar,6.7361,80.4354
1723,23,Kandepuhulpola,6.6833,80.7667
1724,23,Karandana,6.77254,80.206883
1725,23,Karangoda,6.677224,80.368723
1726,23,Kella Junction,6.4,80.6833
1727,23,Keppetipola,6.6833,80.7667
1728,23,Kiriella,6.753583,80.265838
1729,23,Kiriibbanwewa,6.3406,80.7804
1730,23,Kolambageara,6.7516,80.5927
1731,23,Kolombugama,6.5667,80.4833
1732,23,Kolonna,6.404095,80.681552
1733,23,Kudawa,6.757336,80.504485
1734,23,Kuruwita,6.7792,80.3686
1735,23,Lellopitiya,6.655172,80.471348
1736,23,lmaduwa,6.7361,80.4354
1737,23,lmbulpe,6.7159,80.6375
1738,23,Mahagama Colony,6.3406,80.7804
1739,23,Mahawalatenna,6.5833,80.75
1740,23,Makandura Sabara,6.5333,80.6
1741,23,Malwala Junction,6.7,80.4333
1742,23,Malwatta,6.65,80.4167
1743,23,Matuwagalagama,6.7667,80.2333
1744,23,Medagalatur,6.6414,80.2882
1745,23,Meddekanda,6.6833,80.6833
1746,23,Minipura Dumbara,6.5687,80.363
1747,23,Mitipola,6.836923,80.221949
1748,23,Moragala Kirillapone,6.8333,80.3
1749,23,Morahela,6.679967,80.691531
1750,23,Mulendiyawala,6.291657,80.760239
1751,23,Mulgama,6.645942,80.817832
1752,23,Nawalakanda,6.5167,80.3333
1753,23,NawinnaPinnakanda,6.7168,80.4999
1754,23,Niralagama,6.65,80.3667
1755,23,Nivitigala,6.6,80.4553
1756,23,Omalpe,6.327391,80.694691
1757,23,Opanayaka,6.608359,80.625134
1758,23,Padalangala,6.244961,80.916029
1759,23,Pallebedda,6.45,80.7333
1760,23,Pallekanda,6.6333,80.6667
1761,23,Pambagolla,6.7333,80.6833
1762,23,Panamura,6.351417,80.776404
1763,23,Panapola,6.425337,80.445421
1764,23,Paragala,6.601317,80.343575
1765,23,Parakaduwa,6.825482,80.299049
1766,23,Pebotuwa,6.540192,80.452191
1767,23,Pelmadulla,6.620071,80.542243
1768,23,Pinnawala,6.731251,80.672146
1769,23,Pothdeniya,6.8333,80.3
1770,23,Rajawaka,6.609347,80.797987
1771,23,Ranwala,6.553121,80.665495
1772,23,Rassagala,6.695227,80.617304
1773,23,Ratgama,6.7333,80.4833
1774,23,Ratna Hangamuwa,6.65,80.3667
1775,23,Ratnapura,6.677603,80.405592
1776,23,Sewanagala,6.3406,80.7804
1777,23,Sri Palabaddala,6.800198,80.476202
1778,23,Sudagala,6.7833,80.4
1779,23,Talakolahinna,6.5844,80.7332
1780,23,Tanjantenna,6.6361,80.8536
1781,23,Teppanawa,6.75,80.3167
1782,23,Tunkama,6.2833,80.8833
1783,23,Udakarawita,6.7317,80.4287
1784,23,Udaniriella,6.65,80.3667
1785,23,Udawalawe,6.7516,80.5927
1786,23,Ullinduwawa,6.367322,80.631196
1787,23,Veddagala,6.45,80.4333
1788,23,Vijeriya,6.4,80.6333
1789,23,Waleboda,6.726367,80.64106
1790,23,Watapotha,6.577958,80.510709
1791,23,Waturawa,6.4833,80.4333
1792,23,Weligepola,6.567212,80.707078
1793,23,Welipathayaya,6.6833,80.6833
1794,23,Wikiliya,6.6203,80.7467
1795,24,Agbopura,8.330575,80.97191
1796,24,Buckmigama,8.6667,80.95
1797,24,China Bay,8.561664,81.187386
1798,24,Dehiwatte,8.4458,81.2875
1799,24,Echchilampattai,8.4458,81.2875
1800,24,Galmetiyawa,8.3683,81.0281
1801,24,Gomarankadawala,8.677731,80.960417
1802,24,Kaddaiparichchan,8.459198,81.278164
1803,24,Kallar,8.2833,81.2667
1804,24,Kanniya,8.6333,81.0167
1805,24,Kantalai,8.365483,80.966897
1806,24,Kantalai Sugar Factory,8.3683,81.0281
1807,24,Kiliveddy,8.354092,81.275605
1808,24,Kinniya,8.497717,81.179214
1809,24,Kuchchaveli,8.792709,81.036113
1810,24,Kumburupiddy,8.7333,81.15
1811,24,Kurinchakemy,8.4989,81.1897
1812,24,Lankapatuna,8.4458,81.2875
1813,24,Mahadivulwewa,8.613863,80.9518
1814,24,Maharugiramam,8.4989,81.1897
1815,24,Mallikativu,8.4458,81.2875
1816,24,Mawadichenai,8.4458,81.2875
1817,24,Mullipothana,8.3683,81.0281
1818,24,Mutur,8.45,81.2667
1819,24,Neelapola,8.4458,81.2875
1820,24,Nilaveli,8.658756,81.148516
1821,24,Pankulam,8.6333,81.0167
1822,24,Pulmoddai,8.9333,80.9833
1823,24,Rottawewa,8.6333,81.0167
1824,24,Sampaltivu,8.6167,81.2
1825,24,Sampoor,8.493354,81.284828
1826,24,Serunuwara,8.4458,81.2875
1827,24,Seruwila,8.4458,81.2875
1828,24,Sirajnagar,8.3683,81.0281
1829,24,Somapura,8.4458,81.2875
1830,24,Tampalakamam,8.4925,81.0964
1831,24,Thuraineelavanai,8.2833,81.2667
1832,24,Tiriyayi,8.7444,81.15
1833,24,Toppur,8.4,81.3167
1834,24,Trincomalee,8.5667,81.2333
1835,24,Wanela,8.3683,81.0281
1836,25,Vavuniya,8.758818,80.493461
1837,5,Colombo 1,6.925833,79.841667
1838,5,Colombo 3,6.900556,79.853333
1839,5,Colombo 4,6.888889,79.856667
1840,5,Colombo 5,6.879444,79.865278
1841,5,Colombo 7,6.906667,79.863333
1842,5,Colombo 9,6.93,79.877778
1843,5,Colombo 10,6.928333,79.864167
1844,5,Colombo 11,6.936667,79.849722
1845,5,Colombo 12,6.9425,79.858333
1846,5,Colombo 14,6.9475,79.874722
