city_id,district_id,name_en,name_si,name_ta,sub_name_en,sub_name_si,sub_name_ta,postcode,latitude,longitude
1,1,Akkaraipattu,අක්කරපත්තුව,அக்கரைப்பற்று, NULL, NULL, NULL,32400,7.2184279,81.8541161
2,1,Ambagahawatta,අඹගහවත්ත,அம்பகஹவத்த, NULL, NULL, NULL,90326,7.3017563,81.6747295
3,1,Ampara,අම්පාර,அம்பாறை, NULL, NULL, NULL,32000,7.3017563,81.6747295
4,1,Bakmitiyawa,බක්මිටියාව,பக்மிடியாவ, NULL, NULL, NULL,32024,7.0296318,81.6802054
5,1,Deegawapiya,දීඝවාපිය,தீகவாபி, NULL, NULL, NULL,32006,7.3017563,81.6747295
6,1,Devalahinda,දෙවලහිඳ,தேவாலஹிந்தா, NULL, NULL, NULL,32038,7.3017563,81.6747295
7,1,Digamadulla Weeragoda,දිගාමඩුල්ල වීරගොඩ,திகாமடுள்ள வீரகொட, NULL, NULL, NULL,32008,7.3901254,81.6965876
8,1,Dorakumbura,දොරකුඹුර,டோரகும்புரா, NULL, NULL, NULL,32104,7.3588697,81.3014284
9,1,Gonagolla,ගොනගොල්ල,கோனாகொல்லா, NULL, NULL, NULL,32064,7.4303735,81.5589252
10,1,Hulannuge,හුලංනුගේ,ஹுலனுகே, NULL, NULL, NULL,32514,6.9284717,81.6546714
11,1,Kalmunai,කල්මුණේ,கல்முனை, NULL, NULL, NULL,32300,7.3956781,81.8333656
12,1,Kannakipuram,කන්නකිපුරම්,கண்ணகிபுரம், NULL, NULL, NULL,32405,7.4935021,81.7957888
13,1,Karativu,කරතිව්,காரைதீவு, NULL, NULL, NULL,32250,7.3770282,81.8415065
14,1,Kekirihena,කැකිරිහේන,கெகிரிஹேன, NULL, NULL, NULL,32074,7.5074545,81.3351284
15,1,Koknahara,කොක්නහර,கோக்னஹாரா, NULL, NULL, NULL,32035,7.2239081,81.5623474
16,1,Kolamanthalawa,කෝලමන්තලාව,கொலமந்தலாவ, NULL, NULL, NULL,32102,7.2942916,81.2794123
17,1,Komari,කෝමාරි,கோமாரி, NULL, NULL, NULL,32418,6.9862603,81.8647787
18,1,Lahugala,ලාහුගල,லாஹுகல, NULL, NULL, NULL,32512,6.8720872,81.7226298
19,1,Irakkamam,ඉරක්කමම්,இறக்காமம், NULL, NULL, NULL,32450,7.2442442,81.7458845
20,1,Mahaoya,මහඔය,மகா ஓயா, NULL, NULL, NULL,32070,7.531216,81.3560952
21,1,Marathamune,මාරත්මුනේ,மருதமுனை, NULL, NULL, NULL,32314,7.3017563,81.6747295
22,1,Namaloya,නාමල්ඔය,நாமல் ஓய, NULL, NULL, NULL,32037,7.3311927,81.5322149
23,1,Navithanveli,නාවිදන්වෙලි,நாவிதன்வெளி, NULL, NULL, NULL,32308,7.4257726,81.7745699
24,1,Nintavur,නින්දවූර්,நிந்தவூர், NULL, NULL, NULL,32340,7.321168,81.8578523
25,1,Oluvil,ඔළුවිල,ஒலுவில், NULL, NULL, NULL,32360,7.2944473,81.8606821
26,1,Padiyatalawa,පදියතලාව,பதியதலாவ, NULL, NULL, NULL,32100,7.3925126,81.2436227
27,1,Pahalalanda,පහලලන්ද,பஹலாலண்ட, NULL, NULL, NULL,32034,7.2226881,81.5898016
28,1,Panama,පානම,பாணம, NULL, NULL, NULL,32508,6.7580589,81.8087721
29,1,Pannalagama,පන්නලගම,பன்னலகம, NULL, NULL, NULL,32022,7.3017563,81.6747295
30,1,Paragahakele,පරගහකැලේ,பரகஹகலே, NULL, NULL, NULL,32031,7.2577705,81.6089873
31,1,Periyaneelavanai,පෙරියනීලවන්නි,பெரியநீலாவணை, NULL, NULL, NULL,32316,7.451606,81.814238
32,1,Polwaga Janapadaya,පොල්වග ජනපදය,போல்வக ஜனபதய, NULL, NULL, NULL,32032,7.243447,81.5569003
33,1,Pottuvil,පොතුවිල්,பொத்துவில், NULL, NULL, NULL,32500,6.8752706,81.8306334
34,1,Sainthamaruthu,සායින්දමරුදු,சாய்ந்தமருது, NULL, NULL, NULL,32280,7.3930492,81.8360977
35,1,Samanthurai,සමන්තුරේ,சம்மாந்துறை, NULL, NULL, NULL,32200,7.3574841,81.7951054
36,1,Serankada,සේරන්කද,சேரன்காடா, NULL, NULL, NULL,32101,7.4567753,81.2787242
37,1,Tempitiya,ටැම්පිටිය,தெம்பிட்டிய, NULL, NULL, NULL,32072,7.6228935,81.3729372
38,1,Thambiluvil,තම්බිලුවිල්,தம்பிலுவில், NULL, NULL, NULL,32415,7.1285122,81.8486164
39,1,Tirukovil,තිරුකෝවිල,திருக்கோவில், NULL, NULL, NULL,32420,7.1153122,81.8524882
40,1,Uhana,උහන,உஹன, NULL, NULL, NULL,32060,7.363036,81.635277
41,1,Wadinagala,වඩිනාගල,வடினாகல, NULL, NULL, NULL,32039,7.1263147,81.5733528
42,1,Wanagamuwa,වනගමුව,வணகமுவ, NULL, NULL, NULL,32454,7.3017563,81.6747295
43,2,Angamuwa,අංගමුව,அங்கமுவா, NULL, NULL, NULL,50248,8.1813311,80.2070328
44,2,Anuradhapura,අනුරාධපුරය,அநுராதபுரம், NULL, NULL, NULL,50000,8.3113518,80.4036508
45,2,Awukana,අව්කන,அவுகனா, NULL, NULL, NULL,50169,8.010142,80.5131156
46,2,Bogahawewa,බෝගහවැව,போகஹவெவ, NULL, NULL, NULL,50566,8.325545,80.2488596
47,2,Dematawewa,දෙමටවැව,தெமடவெவ, NULL, NULL, NULL,50356,8.283333,80.583333
48,2,Dimbulagala,දිඹුලාගල,திம்புலாகல, NULL, NULL, NULL,51031,7.8593413,81.1030573
49,2,Dutuwewa,දුටුවැව,டுடுவெவ, NULL, NULL, NULL,50393,8.6279802,80.8654534
50,2,Elayapattuwa,ඇලයාපත්තුව,எலயபத்துவ, NULL, NULL, NULL,50014,8.3553447,80.3964751
51,2,Ellewewa,ඇල්ලේවැව,எல்லேவெவ, NULL, NULL, NULL,51034,7.780777,81.0782253
52,2,Eppawala,එප්පාවල,எப்பாவெல, NULL, NULL, NULL,50260,8.144095,80.4118721
53,2,Etawatunuwewa,ඇතාවැටුනවැව,எடவதுனுவெவ, NULL, NULL, NULL,50584,8.3113518,80.4036508
54,2,Etaweeragollewa,ඇතාවීරගොලෑව,எடவீரகொல்லேவ, NULL, NULL, NULL,50518,8.6146048,80.5382889
55,2,Galapitagala,ගලපිටගල,கலபிட்டிகல, NULL, NULL, NULL,32066,8.0980899,80.6826254
56,2,Galenbindunuwewa,ගලෙන්බිඳුනුවැව,கலன்பிந்துனுவெவை, NULL, NULL, NULL,50390,8.2921338,80.7172837
57,2,Galkadawala,ගල්කඩවල,கல்கடவல, NULL, NULL, NULL,50006,8.2594462,80.144254
58,2,Galkiriyagama,ගල්කිරියාගම,கல்கிரியாகம, NULL, NULL, NULL,50120,7.9263493,80.5718772
59,2,Galkulama,ගල්කුලම,கல்குலமா, NULL, NULL, NULL,50064,8.3061295,80.4503723
60,2,Galnewa,ගල්නෑව,கல்னேவை, NULL, NULL, NULL,50170,8.0369211,80.4725346
61,2,Gambirigaswewa,ගම්බිරිගස්වැව,கம்பீரிகஸ்வெவ, NULL, NULL, NULL,50057,8.4807571,80.3936994
62,2,Ganewalpola,ගනේවල්පොල,கணேவல்பொல, NULL, NULL, NULL,50142,8.0876104,80.6279175
63,2,Gemunupura,ගැමුණුපුර,கெமுனுபுர, NULL, NULL, NULL,50224,8.1965729,80.1679758
64,2,Getalawa,ගෙතලාව,கெட்டலாவா, NULL, NULL, NULL,50392,8.318262,80.7740608
65,2,Gnanikulama,ඝාණිකුළම,ஞானிகுலம, NULL, NULL, NULL,50036,8.2990166,80.4368245
66,2,Gonahaddenawa,ගෝනහද්දෙනෑව,கோனஹத்தேனாவ, NULL, NULL, NULL,50554,8.3113518,80.4036508
67,2,Habarana,හබරන,ஹபரணை, NULL, NULL, NULL,50150,8.0322147,80.7519272
68,2,Halmillawa Dambulla,හල්මිලෑව දඹුල්ල,ஹல்மில்லாவ தம்புள்ளை, NULL, NULL, NULL,50124,8.1718555,80.7534207
69,2,Halmillawetiya,හල්මිල්ලවැටිය,ஹல்மில்லவெட்டிய, NULL, NULL, NULL,50552,8.7319778,80.6659842
70,2,Hidogama,හිද්දෝගම,ஹிடோகாமா, NULL, NULL, NULL,50044,8.2619434,80.413178
71,2,Horawpatana,හොරොව්පතාන,ஹோரவ்பதானா, NULL, NULL, NULL,50350,8.5569763,80.8312911
72,2,Horiwila,හොරිවිල,ஹோரிவில, NULL, NULL, NULL,50222,7.866667,81.083333
73,2,Hurigaswewa,හුරිගස්වැව,ஹுரிகஸ்வெவ, NULL, NULL, NULL,50176,8.0948635,80.3700407
74,2,Hurulunikawewa,හුරුලුනිකවැව,ஹுருலுனிகாவெவ, NULL, NULL, NULL,50394,8.2708614,80.7591814
75,2,Ihala Puliyankulama,ඉහල පුලියන්කුලම,இஹல புளியங்குளம, NULL, NULL, NULL,61316,8.1520238,80.5632884
76,2,Kagama,කගම,ககம, NULL, NULL, NULL,50282,8.0422633,80.5072321
77,2,Kahatagasdigiliya,කහටගස්දිගිලිය,ககட்டகஸ்திகிலியை, NULL, NULL, NULL,50320,8.425981,80.687253
78,2,Kahatagollewa,කහටගොල්ලෑව,கஹடகொல்லேவ, NULL, NULL, NULL,50562,8.7352357,80.7990185
79,2,Kalakarambewa,කලකරඹෑව,கலகரம்பேவா, NULL, NULL, NULL,50288,8.3113518,80.4036508
80,2,Kalaoya,කලාඔය,கலா ஓய, NULL, NULL, NULL,50226,8.2100191,80.1075439
81,2,Kalawedi Ulpotha,කලාවැදි උල්පොත,கலாவெடி உல்பொத, NULL, NULL, NULL,50556,7.906691,80.375305
82,2,Kallanchiya,කලංචිය,கல்லஞ்சியா, NULL, NULL, NULL,50454,8.4634119,80.5716199
83,2,Kalpitiya,කල්පිටිය,கல்பிட்டி, NULL, NULL, NULL,61360,8.3227405,80.4086119
84,2,Kalukele Badanagala,කළුකැලේ බදනාගල,களுகேலே படனகல, NULL, NULL, NULL,51037,7.7830591,81.058906
85,2,Kapugallawa,කපුගල්ලව,கபுகல்லாவ, NULL, NULL, NULL,50370,8.3113518,80.4036508
86,2,Karagahawewa,කරගහවැව,கரகஹவெவ, NULL, NULL, NULL,50232,8.3369264,80.4154586
87,2,Kashyapapura,කාශ්‍යපපුර,காஷ்யபபுரா, NULL, NULL, NULL,51032,8.3113518,80.4036508
88,2,Kebithigollewa,කැබිතිගොල්ලෑව,கெப்பிட்டிக்கொல்லாவை, NULL, NULL, NULL,50500,8.6411229,80.6696999
89,2,Kekirawa,කැකිරාව,கெக்கிராவ, NULL, NULL, NULL,50100,8.042103,80.593833
90,2,Kendewa,කේන්දෑව,கெண்டேவா, NULL, NULL, NULL,50452,8.4910127,80.6042024
91,2,Kiralogama,කිරළෝගම,கிரலோகம, NULL, NULL, NULL,50259,8.1906287,80.3686488
92,2,Kirigalwewa,කිරිගල්වැව,கிரிகல்வெவ, NULL, NULL, NULL,50511,8.536327,80.5577336
93,2,Kirimundalama,කිරිමුන්ඩලම,கிரிமுண்டலம, NULL, NULL, NULL,61362,8.3113518,80.4036508
94,2,Kitulhitiyawa,කිතුල්හිටියාව,கிதுல்ஹிட்டியாவ, NULL, NULL, NULL,50132,8.3113518,80.4036508
95,2,Kurundankulama,කුරුන්දන්කුලම,குருந்தன்குளம், NULL, NULL, NULL,50062,8.3548567,80.4521216
96,2,Labunoruwa,ලබුනෝරුව,லாபுனோருவா, NULL, NULL, NULL,50088,8.1649851,80.5979973
97,2,Ihalagama,ඉහලගම,இஹலகம, NULL, NULL, NULL,50304,8.3318305,80.4029017
98,2,Ipologama,ඉපොලොගම,இப்பலோகம, NULL, NULL, NULL,50280,8.065027,80.5355107
99,2,Madatugama,මාදතුගම,மடடுகம, NULL, NULL, NULL,50130,7.9458576,80.6271415
100,2,Maha Elagamuwa,මහ ඇලගමුව,மஹா எலகமுவா, NULL, NULL, NULL,50126,7.9914613,80.6188156
101,2,Mahabulankulama,මහබුලංකුලම,மஹாபுலன்குளம, NULL, NULL, NULL,50196,8.3448106,80.3972391
102,2,Mahailluppallama,මහඉලුප්පල්ලම,மகைல்லுப்பல்லம, NULL, NULL, NULL,50270,8.1037364,80.4604643
103,2,Mahakanadarawa,මහකනදරාව,மகாகனதரவ, NULL, NULL, NULL,50306,8.3500293,80.3963687
104,2,Mahapothana,මහපොතාන,மஹாபோதனா, NULL, NULL, NULL,50327,8.3878743,80.7612064
105,2,Mahasenpura,මහසෙන්පුර,மகாசென்புரா, NULL, NULL, NULL,50574,8.8618261,80.8488498
106,2,Mahawilachchiya,මහවිලච්චිය,மஹாவிலச்சியா, NULL, NULL, NULL,50022,8.4707551,80.2098219
107,2,Mailagaswewa,මයිලගස්වැව,மைலகஸ்வெவ, NULL, NULL, NULL,50384,8.2818529,80.6826254
108,2,Malwanagama,මල්වනගම,மல்வானகம, NULL, NULL, NULL,50236,8.3113518,80.4036508
109,2,Maneruwa,මනේරුව,மானேருவா, NULL, NULL, NULL,50182,7.9021403,80.4799273
110,2,Maradankadawala,මරදන්කඩවල,மரதன்கடவல, NULL, NULL, NULL,50080,8.1168652,80.5605111
111,2,Maradankalla,මරදන්කල්ල,மரதன்கல்ல, NULL, NULL, NULL,50308,8.1168652,80.5605111
112,2,Medawachchiya,මැදවච්චිය,மதவாச்சி, NULL, NULL, NULL,50500,8.5374813,80.4909806
113,2,Megodawewa,මීගොඩවැව,மெகொடவெவ, NULL, NULL, NULL,50334,8.2157061,80.7023799
114,2,Mihintale,මිහින්තලේ,மிஹிந்தலை, NULL, NULL, NULL,50300,8.3534232,80.5049445
115,2,Morakewa,මොරකෑව,மொரகேவா, NULL, NULL, NULL,50349,8.5092277,80.785171
116,2,Mulkiriyawa,මුල්කිරියාව,முல்கிரியாவா, NULL, NULL, NULL,50324,8.3113518,80.4036508
117,2,Muriyakadawala,මුරියකඩවල,முறியகடவல, NULL, NULL, NULL,50344,8.1446453,80.5884156
118,5,Colombo 15,කොළඹ 15,கொழும்பு 15, 'Modara', 'මෝදර', 'முகத்துவாரம்',1500,6.9654765,79.8708395
119,2,Nachchaduwa,නච්චදූව,நாச்சதுவ, NULL, NULL, NULL,50046,8.2554964,80.4827074
120,2,Namalpura,නාමල්පුර,நாமல்புர, NULL, NULL, NULL,50339,8.143962,80.747319
121,2,Negampaha,නෑගම්පහ,நெகம்பஹா, NULL, NULL, NULL,50180,7.9578559,80.5112238
122,2,Nochchiyagama,නොච්චියාගම,நொச்சியாகம, NULL, NULL, NULL,50200,8.2925501,80.2265545
123,2,Nuwaragala,නුවරගල,நுவரகல, NULL, NULL, NULL,51039,7.7926466,81.0036821
124,2,Padavi Maithripura,පදවි මෛත්‍රීපුර,பதவிமைத்ரிபுர, NULL, NULL, NULL,50572,8.3448106,80.3972391
125,2,Padavi Parakramapura,පදවි පරාක්‍රමපුර,பதவிபராக்ரமபுர, NULL, NULL, NULL,50582,8.9034422,80.7757984
126,2,Padavi Sripura,පදවි ශ්‍රීපුර,பதவி சிரபுர, NULL, NULL, NULL,50587,8.919506,80.8087103
127,2,Padavi Sritissapura,පදවි ශ්‍රීතිස්සපුර,பதவி ஸ்ரீதிஸ்ஸபுர, NULL, NULL, NULL,50588,8.3113518,80.4036508
128,2,Padaviya,පදවිය,பதவிய, NULL, NULL, NULL,50570,8.8340998,80.7607389
129,2,Padikaramaduwa,පඩිකරමඩුව,படிகாரமடுவ, NULL, NULL, NULL,50338,8.2358572,80.7473475
130,2,Pahala Halmillewa,පහල හල්මිල්ලෑව,பஹல ஹல்மில்லேவா, NULL, NULL, NULL,50206,8.3046182,80.6179952
131,2,Pahala Maragahawe,පහල මරගහවෙ,பஹல மரகஹவே, NULL, NULL, NULL,50220,8.2428601,80.1531951
132,2,Pahalagama,පහලගම,பஹலகம, NULL, NULL, NULL,50244,8.1858538,80.2823063
133,2,Palugaswewa,පලුගස්වැව,பலுகஸ்வெவ, NULL, NULL, NULL,50144,8.0604407,80.6881718
134,2,Pandukabayapura,පන්ඩුකාබයපුර,பாண்டுகபயபுர, NULL, NULL, NULL,50448,8.3113518,80.4036508
135,2,Pandulagama,පන්ඩුලගම,பந்துலகம, NULL, NULL, NULL,50029,8.327516,80.3611091
136,2,Parakumpura,පරාක්‍රමපුර,பரகும்புரா, NULL, NULL, NULL,50326,8.3113518,80.4036508
137,2,Parangiyawadiya,පරංගියාවාඩිය,பரங்கியவாடியா, NULL, NULL, NULL,50354,8.487985,80.9207737
138,2,Parasangahawewa,පරසන්ගහවැව,பரசங்கஹவெவ, NULL, NULL, NULL,50055,8.3553447,80.3964751
139,2,Pelatiyawa,පැලටියාව,பெலட்டியவா, NULL, NULL, NULL,51033,7.81604,81.0920218
140,2,Pemaduwa,පෙමදූව,பேமதுவ, NULL, NULL, NULL,50020,8.4953668,80.191511
141,2,Perimiyankulama,පෙරිමියන්කුලම,பெரிமியங்குளம, NULL, NULL, NULL,50004,8.3553447,80.3964751
142,2,Pihimbiyagolewa,පිහිඹියගොල්ලෑව,பிஹிம்பியகோலேவா, NULL, NULL, NULL,50512,8.3113518,80.4036508
143,2,Pubbogama,පුබ්බෝගම,புப்போகம, NULL, NULL, NULL,50122,7.9280797,80.5968189
144,2,Punewa,පූනෑව,புனேவா, NULL, NULL, NULL,50506,8.6101671,80.4688061
145,2,Rajanganaya,රාජාංගනය,ராஜநாயகை, NULL, NULL, NULL,50246,8.1657207,80.1964443
146,2,Rambewa,රම්බෑව්,ரம்பேவ, NULL, NULL, NULL,50450,8.4401074,80.5049445
147,2,Rampathwila,රම්පත්විල,ரம்பத்வில, NULL, NULL, NULL,50386,8.4025946,80.6354665
148,2,Rathmalgahawewa,රත්මල්ගහවැව,ரத்மல்கஹவெவ, NULL, NULL, NULL,50514,8.5233992,80.6964905
149,2,Saliyapura,සාලියපුර,சாலியபுர, NULL, NULL, NULL,50008,8.4054262,80.4159603
150,2,Seeppukulama,සීප්පුකුලම,சீப்புக்குளம, NULL, NULL, NULL,50380,8.3816127,80.5890579
151,2,Senapura,සේනාපුර,சேனாபுர, NULL, NULL, NULL,50284,8.0006817,81.1582112
152,2,Sivalakulama,සිවලකුලම,சீவலக்குளம, NULL, NULL, NULL,50068,8.2564361,80.6360478
153,2,Siyambalewa,සියඹලෑව,சியம்பலேவா, NULL, NULL, NULL,50184,8.0166861,80.4270885
154,2,Sravasthipura,ස්‍රාවස්තිපුර,ஸ்ரவஸ்திபுரா, NULL, NULL, NULL,50042,8.2988197,80.3770216
155,2,Talawa,තලාව,தலாவ, NULL, NULL, NULL,50230,8.2365189,80.350773
156,2,Tambuttegama,තඹුත්තේගම,தம்புத்தேகம, NULL, NULL, NULL,50240,8.1540015,80.3045967
157,2,Tammennawa,තම්මැන්නාව,தம்மென்னாவா, NULL, NULL, NULL,50104,8.3500293,80.3963687
158,2,Tantirimale,තන්තිරිමලේ,தந்திரிமலை, NULL, NULL, NULL,50016,8.5722802,80.2572225
159,2,Telhiriyawa,තෙල්හිරියාව,தெல்ஹிரியாவ, NULL, NULL, NULL,50242,8.1431293,80.3141349
160,2,Tirappane,තිරප්පනේ,திரப்பனே, NULL, NULL, NULL,50072,8.2133046,80.5271756
161,2,Tittagonewa,තිත්තගෝනෑව,திட்டகோனேவா, NULL, NULL, NULL,50558,8.6964504,80.771321
162,2,Udunuwara Colony,උඩුනුවර කොළණිය,உடுநுவர காலனி, NULL, NULL, NULL,50207,7.2319726,80.5660657
163,2,Upuldeniya,උපුල්දෙනිය,உபுல்தெனிய, NULL, NULL, NULL,50382,8.3138084,80.6604364
164,2,Uttimaduwa,උට්ටිමඩුව,உத்திமடுவ, NULL, NULL, NULL,50067,8.4245753,80.2583325
165,2,Vellamanal,වෙල්ලමනල්,வெல்லமணல், NULL, NULL, NULL,31053,8.3113518,80.4036508
166,2,Viharapalugama,විහාරපාළුගම,விஹாரபாலுகம, NULL, NULL, NULL,50012,8.3630486,80.4054227
167,2,Wahalkada,වාහල්කඩ,வஹல்கடா, NULL, NULL, NULL,50564,8.7224936,80.8350109
168,2,Wahamalgollewa,වහමල්ගොල්ලෑව,வஹமல்கொல்லேவ, NULL, NULL, NULL,50492,8.4807079,80.5021652
169,2,Walagambahuwa,වලගම්බාහුව,வலகம்பஹுவ, NULL, NULL, NULL,50086,8.1558622,80.4966062
170,2,Walahaviddawewa,වලහාවිද්දෑව,வலஹவித்தவெவ, NULL, NULL, NULL,50516,8.4588719,80.8659969
171,2,Welimuwapotana,වැලිමුවපතාන,வெலிமுவபொதன, NULL, NULL, NULL,50358,8.5592976,80.8350109
172,2,Welioya Project,වැලිඔය ව්‍යාපෘතිය,வெலிஓயா திட்டம், NULL, NULL, NULL,50586,8.9640414,80.7879407
173,3,Akkarasiyaya,අක්කරසියය,அக்கரசியாய, NULL, NULL, NULL,90166,6.9934009,81.0549815
174,3,Aluketiyawa,අලුකෙටියාව,அலுகெட்டியவா, NULL, NULL, NULL,90736,7.3,81.116667
175,3,Aluttaramma,අළුත්තරම,அழுதாரம்மா, NULL, NULL, NULL,90722,6.9934009,81.0549815
176,3,Ambadandegama,අඹදන්ඩෙගම,அம்பதண்டேகம, NULL, NULL, NULL,90108,6.8190052,81.0561458
177,3,Ambagasdowa,අඹගස්දූව,அம்பகஸ்டோவா, NULL, NULL, NULL,90300,6.928071,80.8965758
178,3,Arawa,අරාව,அரவா, NULL, NULL, NULL,90017,7.166667,81.083333
179,3,Arawakumbura,අරාවකුඹුර,அரவகும்புரா, NULL, NULL, NULL,90532,7.0873862,81.1995511
180,3,Arawatta,අරාවත්ත,அரவத்தா, NULL, NULL, NULL,90712,7.3433013,81.0371662
181,3,Atakiriya,අටකිරියාව,அடகிரியா, NULL, NULL, NULL,90542,6.9818952,81.076283
182,3,Badulla,බදුල්ල,பதுளை, NULL, NULL, NULL,90000,6.9934009,81.0549815
183,3,Baduluoya,බදුලුඔය,பதுலுஓயா, NULL, NULL, NULL,90019,7.1248255,81.0302639
184,3,Ballaketuwa,බල්ලකැටුව,பதுலு ஓய, NULL, NULL, NULL,90092,6.8622569,81.1002985
185,3,Bambarapana,බඹරපාන,பம்பரபான, NULL, NULL, NULL,90322,6.9815696,80.9511835
186,3,Bandarawela,බණ්ඩාරවෙල,பண்டாரவளை, NULL, NULL, NULL,90100,6.825878,80.9981576
187,3,Beramada,බෙරමඩ,பெரமடா, NULL, NULL, NULL,90066,6.9212506,79.8477852
188,3,Bibilegama,බිබිලේගම,பிபிலேகம, NULL, NULL, NULL,90502,6.896173,81.1402905
189,3,Boragas,බොරගස්,போரகஸ், NULL, NULL, NULL,90362,6.899901,80.8460822
190,3,Boralanda,බොරලන්ද,பொரலண்டா, NULL, NULL, NULL,90170,6.8279044,80.8945014
191,3,Bowela,බෝවෙල,போவேலா, NULL, NULL, NULL,90302,6.9818952,81.076283
192,3,Central Camp,මධ්‍යම කඳවුර,மத்திய முகாம், NULL, NULL, NULL,32050,6.9934009,81.0549815
193,3,Damanewela,දමනෙවෙල,தமனேவல, NULL, NULL, NULL,32126,6.9934009,81.0549815
194,3,Dambana,දඹාන,தம்பானை, NULL, NULL, NULL,90714,7.4136229,81.1083483
195,3,Dehiattakandiya,දෙහිඅත්තකන්ඩිය,தெகியத்தகண்டிய, NULL, NULL, NULL,32150,7.6712796,81.046484
196,3,Demodara,දෙමෝදර,தெமோதர, NULL, NULL, NULL,90080,6.8992829,81.0581776
197,3,Diganatenna,දිගනතැන්න,திகனதென்ன, NULL, NULL, NULL,90132,6.8558849,80.9652617
198,3,Dikkapitiya,දික්කපිටිය,திக்கபிட்டிய, NULL, NULL, NULL,90214,6.8936862,80.9373623
199,3,Dimbulana,දිඹුලාන,டிம்புலான, NULL, NULL, NULL,90324,7.0152778,80.94
200,3,Divulapelessa,දිවුලපැලැස්ස,திவுலபெலஸ்ஸ, NULL, NULL, NULL,90726,7.5778255,81.0036821
201,3,Diyatalawa,දියතලාව,தியத்தலாவை, NULL, NULL, NULL,90150,6.806951,80.9572021
202,3,Dulgolla,දුල්ගොල්ල,துல்கொல்லா, NULL, NULL, NULL,90104,6.8568541,80.8834367
203,3,Ekiriyankumbura,ඇකිරියන්කුඹුර,எகிரியன்கும்புர, NULL, NULL, NULL,91502,7.2988884,81.2408689
204,3,Ella,ඇල්ල,எல்ல, NULL, NULL, NULL,90090,6.8666988,81.046553
205,3,Ettampitiya,ඇට්ටම්පිටිය,எட்டம்பிட்டிய, NULL, NULL, NULL,90140,6.9364506,80.987798
206,3,Galauda,ගලඋඩ,கல உட, NULL, NULL, NULL,90065,6.9934009,81.0549815
207,3,Galporuyaya,ගල්පොරුයාය,கல்போருயாய, NULL, NULL, NULL,90752,7.4285203,81.0368211
208,3,Gawarawela,ගවරවෙල,கவரவெல, NULL, NULL, NULL,90082,6.9028497,81.0713261
209,3,Girandurukotte,ගිරාඳුරුකෝට්ටෙ,கிரந்துருகோட்டே, NULL, NULL, NULL,90750,7.4629169,81.0174917
210,3,Godunna,ගොඩුන්න,கோடுன்னா, NULL, NULL, NULL,90067,7.0668238,80.974884
211,3,Gurutalawa,ගුරුතලාව,குருத்தலாவை, NULL, NULL, NULL,90208,6.843509,80.9000223
212,3,Haldummulla,හල්දුම්මුල්ල,ஹல்துமுல்ல, NULL, NULL, NULL,90180,6.7689228,80.8926681
213,3,Hali Ela,හාලි ඇල,ஆலி-எலை, NULL, NULL, NULL,90060,6.9555254,81.0314384
214,3,Hangunnawa,හඟුන්නෑව,ஹங்குன்னாவ, NULL, NULL, NULL,90224,6.9495073,80.8723705
215,3,Haputale,හපුතලේ,அப்புத்தளை, NULL, NULL, NULL,90160,6.7654136,80.9525655
216,3,Hebarawa,හබරාව,ஹெபராவா, NULL, NULL, NULL,90724,7.5319777,80.9898701
217,3,Heeloya,හීලොය,ஹீல் ஓய, NULL, NULL, NULL,90112,6.8666988,81.046553
218,3,Helahalpe,හෙලහල්පේ,ஹெலஹல்பே, NULL, NULL, NULL,90122,6.8892883,81.0345068
219,3,Helapupula,හෙලපුපුළ,ஹெலபுபுலா, NULL, NULL, NULL,90094,6.9818952,81.076283
220,3,Hopton,හෝප්ටන්,ஹொப்டன், NULL, NULL, NULL,90524,6.9882322,81.1974846
221,3,Idalgashinna,ඉදල්ගස්ඉන්න,இதல்கஸ்ஹின்ன, NULL, NULL, NULL,96167,6.782969,80.9000331
222,3,Kahataruppa,කහටරුප්ප,கஹடருப்பா, NULL, NULL, NULL,90052,6.9818952,81.076283
223,3,Kalugahakandura,කළුගහකණ්ඳුර,களுகஹகந்துர, NULL, NULL, NULL,90546,7.1226683,81.0947808
224,3,Kalupahana,කළුපහණ,களுபஹன, NULL, NULL, NULL,90186,6.7910055,80.8453771
225,3,Kebillawela,කොබිල්ලවෙල,கெபில்லவெல, NULL, NULL, NULL,90102,6.8349605,80.9932836
226,3,Kendagolla,කන්දෙගොල්ල,கெந்தகொல்ல, NULL, NULL, NULL,90048,6.9927553,81.1084634
227,3,Keselpotha,කෙසෙල්පොත,கெசல்பொத, NULL, NULL, NULL,90738,7.3283407,81.0942132
228,3,Ketawatta,කේතවත්ත,கெட்டவத்த, NULL, NULL, NULL,90016,6.9818952,81.076283
229,3,Kiriwanagama,කිරිවනගම,கிரிவணகம, NULL, NULL, NULL,90184,6.7733517,80.8312138
230,3,Koslanda,කොස්ලන්ද,கொஸ்லாந்தை, NULL, NULL, NULL,90190,6.7431234,81.0178369
231,3,Kuruwitenna,කුරුවිතැන්න,குருவிட்டென்ன, NULL, NULL, NULL,90728,6.9818952,81.076283
232,3,Kuttiyagolla,කුට්ටියාගොල්ල,குட்டியகொல்ல, NULL, NULL, NULL,90046,7.0268486,81.0947808
233,3,Landewela,ලන්දේවෙල,லண்டேவெலா, NULL, NULL, NULL,90068,7.0051402,81.002301
234,3,Liyangahawela,ලියන්ගහවෙල,லியங்கஹவெல, NULL, NULL, NULL,90106,6.8118913,81.0299183
235,3,Lunugala,ලුණුගල,லுணுகல, NULL, NULL, NULL,90530,7.0403676,81.2016737
236,3,Lunuwatta,ලුණුවත්ත,லுனுவத்த, NULL, NULL, NULL,90310,6.9557235,80.9193912
237,3,Madulsima,මඩොල්සිම,மடுல்சீம, NULL, NULL, NULL,90535,7.0466748,81.1582112
238,3,Mahiyanganaya,මහියංගනය,மஹியங்கனை, NULL, NULL, NULL,90700,7.3316102,81.0036821
239,3,Makulella,මකුලැල්ල,மகுலெல்லா, NULL, NULL, NULL,90114,6.8291991,81.0340601
240,3,Malgoda,මල්ගොඩ,மல்கொட, NULL, NULL, NULL,90754,6.9818952,81.076283
241,3,Mapakadawewa,මාපාකඩවැව,மபகடவெவ, NULL, NULL, NULL,90730,7.2893212,81.0257763
242,3,Maspanna,මස්පන්න,மஸ்பன்னா, NULL, NULL, NULL,90328,7.0279493,80.9442732
243,3,Maussagolla,මාඋස්සාගොල්ල,மவுஸ்ஸாகொல்ல, NULL, NULL, NULL,90582,6.9124028,81.1385671
244,3,Mawanagama,මාවනගම,மவனகம, NULL, NULL, NULL,32158,7.5969789,81.1526976
245,3,Medawela Udukinda,මැදවෙල උඩුකිඳ,மெதவெல உடுகிந்த, NULL, NULL, NULL,90218,6.8625699,80.857763
246,3,Meegahakiula,මීගහකිවුල,மீகஹகியுலா, NULL, NULL, NULL,90015,7.0186462,81.056398
247,3,Metigahatenna,මැටිගහතැන්න,மெட்டிகஹதென்ன, NULL, NULL, NULL,90540,7.0772039,81.154076
248,3,Mirahawatta,මිරහවත්ත,மிராஹவத்த, NULL, NULL, NULL,90134,6.875154,80.9339792
249,3,Miriyabedda,මිරියාබැද්ද,மிரியபெத்த, NULL, NULL, NULL,90504,6.9934009,81.0549815
250,3,Nawamedagama,නවමැදගම,நவமேதகம, NULL, NULL, NULL,32120,7.5253561,81.058906
251,3,Nelumgama,නෙළුම්ගම,நெலும்கம, NULL, NULL, NULL,90042,6.994173,81.070005
252,3,Nikapotha,නිකපොතගම,நிகபோத, NULL, NULL, NULL,90165,6.7452717,80.972989
253,3,Nugatalawa,නුගතලාව,நுகத்தலாவை, NULL, NULL, NULL,90216,6.9019146,80.9077079
254,3,Ohiya,ඔහිය,ஒஹிய, NULL, NULL, NULL,90168,6.8190103,80.8446984
255,3,Pahalarathkinda,පහළරත්කිඳ,பஹலரத்கிந்தா, NULL, NULL, NULL,90756,6.9934009,81.0549815
256,3,Pallekiruwa,පල්ලේකිරුව,பல்லேகிருவ, NULL, NULL, NULL,90534,7.0159939,81.2243444
257,3,Passara,පස්සර,பசறை, NULL, NULL, NULL,90500,6.9349088,81.1526976
258,3,Pattiyagedara,පට්ටියගෙදර,பட்டியகெதர, NULL, NULL, NULL,90138,6.9043354,80.974387
259,3,Pelagahatenna,පල්ලෙගහතැන්න,பெலகஹதென்ன, NULL, NULL, NULL,90522,6.9609604,81.1251235
260,3,Perawella,පේරවැල්ල,பெரவெல்ல, NULL, NULL, NULL,90222,6.9473752,80.8307886
261,3,Pitamaruwa,පිටමාරුව,பிடமருவா, NULL, NULL, NULL,90544,7.1101522,81.159168
262,3,Pitapola,පිටපොළ,பிடபொல, NULL, NULL, NULL,90171,6.8093028,80.8917353
263,3,Puhulpola,පුහුපොළ,புழுல்பொல, NULL, NULL, NULL,90212,6.9818952,81.076283
264,3,Rajagalatenna,රජගලතැන්න,ராஜகலதென்ன, NULL, NULL, NULL,32068,6.9818952,81.076283
265,3,Rathkarawwa,රත්කරව්ව,ரத்கரவ்வா, NULL, NULL, NULL,90164,6.806914,80.9055645
266,3,Ridimaliyadda,රිදීමල්දෙණිය,ரிதிமாலியத்த, NULL, NULL, NULL,90704,7.21816,81.1205068
267,3,Silmiyapura,සිල්මියාපුර,சில்மியாபுரா, NULL, NULL, NULL,90364,6.9144139,80.8419307
268,3,Sirimalgoda,සිරිමල්ගොඩ,சிறிமல்கொட, NULL, NULL, NULL,90044,6.9818952,81.076283
269,3,Siripura,සිරිපුර,சிரிபுர, NULL, NULL, NULL,32155,6.9685299,80.9108268
270,3,Sorabora Colony,සොරබොර කොලනිය,சொரபோரா காலனி, NULL, NULL, NULL,90718,7.3606125,80.9843446
271,3,Soragune,සොරගුනේ,சொரகுனே, NULL, NULL, NULL,90183,6.744918,80.8927972
272,3,Soranathota,සොරණාතොට,சொரணாதோட்டை, NULL, NULL, NULL,90008,7.0228496,81.0449518
273,3,Taldena,තල්දෙන,டால்டேனா, NULL, NULL, NULL,90014,7.0919913,81.0483583
274,3,Timbirigaspitiya,තිඹිරිගස්පිටිය,திம்பிரிகஸ்பிட்டிய, NULL, NULL, NULL,90012,6.9934009,81.0549815
275,3,Uduhawara,උඩුහාවර,உடுஹவர, NULL, NULL, NULL,90226,6.9479928,80.8626864
276,3,Uraniya,උරණිය,ஊரணியா, NULL, NULL, NULL,90702,7.2605443,81.0852318
277,3,Uva Karandagolla,ඌව කරඳගොල්ල,ஊவா கரந்தகொல்ல, NULL, NULL, NULL,90091,6.9818952,81.076283
278,3,Uva Mawelagama,ඌව මාවැල්ගම,ஊவா மாவெலகம, NULL, NULL, NULL,90192,6.9818952,81.076283
279,3,Uva Tenna,ඌව තැන්න,ஊவா தென்ன, NULL, NULL, NULL,90188,6.9818952,81.076283
280,3,Uva Tissapura,ඌව තිස්සපුර,ஊவா திஸ்ஸபுர, NULL, NULL, NULL,90734,6.9818952,81.076283
281,3,Welimada,වැලිමඩ,வெளிமடை, NULL, NULL, NULL,90200,6.9019072,80.9079245
282,3,Weranketagoda,වෑරැන්කැටගොඩ,வெரன்கெட்டகொட, NULL, NULL, NULL,32062,6.9818952,81.076283
283,3,Wewatta,වෑවත්ත,வெவட்ட, NULL, NULL, NULL,90716,7.3862682,81.1644136
284,3,Wineethagama,විනීතගම,வினீதகம, NULL, NULL, NULL,90034,6.9808805,81.0769642
285,3,Yalagamuwa,යාලගමුව,யலகமுவ, NULL, NULL, NULL,90329,6.9818952,81.076283
286,3,Yalwela,යල්වෙල,யல்வெல, NULL, NULL, NULL,90706,7.2642068,81.1567626
287,4,Addalaichenai,අඩ්ඩාලච්චේන,அட்டாளைச்சேனை, NULL, NULL, NULL,32350,7.2442579,81.8548071
288,4,Ampilanthurai,අම්පිලන්තුරෙයි,அம்பிளாந்துறை, NULL, NULL, NULL,30162,7.7165561,81.6988172
289,4,Araipattai,අරෙයිපට්ටායි,அரைப்பட்டை, NULL, NULL, NULL,30150,7.7309971,81.6747295
290,4,Ayithiyamalai,අයිතියමලෙයි,ஆயித்தியமலை, NULL, NULL, NULL,30362,7.6736198,81.5703065
291,4,Bakiella,බකිඇල්ල,பாக்கியெல்லா, NULL, NULL, NULL,30206,7.7309971,81.6747295
292,4,Batticaloa,මඩකලපුව,மட்டக்களப்பு, NULL, NULL, NULL,30000,7.7309971,81.6747295
293,4,Cheddipalayam,චෙඩ්ඩිපලයම්,செட்டிபாளையம், NULL, NULL, NULL,30194,7.5795708,81.7849301
294,4,Chenkaladi,චෙන්කලඩි,செங்கலடி, NULL, NULL, NULL,30350,7.7858571,81.5898016
295,4,Eravur,එරාවූර්,ஏறாவூர், NULL, NULL, NULL,30300,7.7768972,81.6042028
296,4,Kaluwanchikudi,කළුවංචිකුඩි,களுவாஞ்சிக்குடி, NULL, NULL, NULL,30200,7.5293725,81.7946092
297,4,Kaluwankemy,කළුවන්කෙමි,களுவங்கேணி, NULL, NULL, NULL,30372,7.5293725,81.7946092
298,4,Kannankudah,කන්නන්කුඩා,கன்னங்குடா, NULL, NULL, NULL,30016,7.6788698,81.6725022
299,4,Karadiyanaru,කරදියනාරු,கரடியனாறு, NULL, NULL, NULL,30354,7.7007466,81.538387
300,4,Kathiraveli,කදිරවේලි,கதிரவெளி, NULL, NULL, NULL,30456,8.222881,81.4038577
301,4,Kattankudi,කාත්තන්කුඩි,காத்தான்குடி, NULL, NULL, NULL,30100,7.6853695,81.7260123
302,4,Kiran,කිරාන්,கிரான், 'கிரான்', NULL, NULL,30394,7.8677797,81.5102655
303,4,Kirankulam,කිරාන්කුලම්,கிரான்குளம், NULL, NULL, NULL,30159,7.6053206,81.7683828
304,4,Koddaikallar,කොඩ්ඩෙයිකල්ලාර්,கோட்டைக்கல்லாறு, NULL, NULL, NULL,30249,7.483879,81.8079853
305,4,Kokkaddicholai,කොක්කඩිචෝලෙයි,கொக்கட்டிச்சோலை, NULL, NULL, NULL,30160,7.616057,81.7103155
306,4,Kurukkalmadam,කුරුක්කල්මඩම්,குருக்கள்மடம், NULL, NULL, NULL,30192,7.587995,81.780415
307,4,Mandur,මන්දූර්,மண்டூர், NULL, NULL, NULL,30220,7.4826649,81.7540902
308,4,Miravodai,මිරවෝඞායි,மீராவோடை, NULL, NULL, NULL,30426,7.8893464,81.5102655
309,4,Murakottanchanai,මුරකොට්ටන්චනෛ,முருகண்டிச்சேனை, NULL, NULL, NULL,30392,7.7309971,81.6747295
310,4,Navagirinagar,නවගිරිනගර්,நவகிரிநகர், NULL, NULL, NULL,30238,7.7309971,81.6747295
311,4,Navatkadu,නවත්කදු,நாவற்குடா, NULL, NULL, NULL,30018,7.2045267,81.8401957
312,4,Oddamavadi,ඔට්ටමාවඩ්,ஓட்டமாவடி, NULL, NULL, NULL,30420,7.9031076,81.5239846
313,4,Palamunai,පාලමුන,பாலமுனை, NULL, NULL, NULL,32354,7.6611143,81.7472522
314,4,Pankudavely,පාන්කුඩාවේලි,பான்குடாவெளி, NULL, NULL, NULL,30352,7.7309971,81.6747295
315,4,Periyaporativu,පෙරියපෝරතිවු,பெரியபோரைதீவு, NULL, NULL, NULL,30230,7.519163,81.7691318
316,4,Periyapullumalai,පෙරියපුල්ලුමලෙයි,பெரியபுல்லுமலை, NULL, NULL, NULL,30358,7.5816799,81.460856
317,4,Pillaiyaradi,පිල්ලියරදී,பிள்ளையாரடி, NULL, NULL, NULL,30022,7.7309971,81.6747295
318,4,Punanai,පූනානයි,புணாணை, NULL, NULL, NULL,30428,7.9650074,81.3889748
319,4,Thannamunai,තන්නමුනෛ,தன்னாமுனை, NULL, NULL, NULL,30024,7.753103,81.6378019
320,4,Thettativu,තෙටිටතිවු,தேத்தாத்தீவு, NULL, NULL, NULL,30196,7.5558103,81.7967011
321,4,Thikkodai,තික්කොඞයි,திக்கோடை, NULL, NULL, NULL,30236,7.5243486,81.6884184
322,4,Thirupalugamam,තිරුපලුගාමම්,திருப்பழுகாமம், NULL, NULL, NULL,30234,7.7309971,81.6747295
323,4,Unnichchai,උන්නිච්චේ,உன்னிச்சை, NULL, NULL, NULL,30364,7.618288,81.5488207
324,4,Vakaneri,වාගනේරි,வாகனேரி, NULL, NULL, NULL,30424,7.9265434,81.4828198
325,4,Vakarai,වාකරෙයි,வாகரை, NULL, NULL, NULL,30450,8.1369099,81.434079
326,4,Valaichenai,වාලච්චේන,வாழைச்சேனை, NULL, NULL, NULL,30400,7.9213276,81.5246705
327,4,Vantharumoolai,වන්තරුමූලෙයි,வந்தாறுமூலை, NULL, NULL, NULL,30376,7.7905882,81.5569003
328,4,Vellavely,වේල්ලාවෙලි,வெல்லாவெளி, NULL, NULL, NULL,30204,7.4956136,81.7294702
329,5,Akarawita,අකරවිට,அகரவிட்ட, NULL, NULL, NULL,10732,6.8422116,80.0030257
330,5,Ambalangoda,අම්බලන්ගොඩ,அம்பலாங்கொடை, NULL, NULL, NULL,80300,6.7750847,79.9654324
331,5,Athurugiriya,අතුරුගිරිය,அத்துருகிரிய, NULL, NULL, NULL,10150,6.8723185,80.0003875
332,5,Avissawella,අවිස්සාවේල්ල,அவிசாவளை, NULL, NULL, NULL,10700,6.9543289,80.2045768
333,5,Batawala,බටවැල,படவாலா, NULL, NULL, NULL,10513,6.877427,80.0548894
334,5,Battaramulla,බත්තරමුල්ල,பத்தரமுல்லை, NULL, NULL, NULL,10120,6.8983819,79.9178413
335,5,Biyagama,බියගම,பியகம, NULL, NULL, NULL,11650,6.9462153,79.9892034
336,5,Bope,බෝපෙ,போபே, NULL, NULL, NULL,10522,6.8248895,80.1372757
337,5,Boralesgamuwa,බොරලැස්ගමුව,பொரலெஸ்கமுவ, NULL, NULL, NULL,10290,6.823355,79.9090246
338,5,Colombo 8,කොළඹ 8,கொழும்பு 8, 'Borella', 'බොරැල්ල', 'பொறளை',800,6.9121796,79.8828828
339,5,Dedigamuwa,දැඩිගමුව,தெடிகமுவ, NULL, NULL, NULL,10656,6.898019,80.026944
340,5,Dehiwala,දෙහිවල,தெஹிவளை, NULL, NULL, NULL,10350,6.8301185,79.8800832
341,5,Deltara,දෙල්තර,டெல்டாரா, NULL, NULL, NULL,10302,6.7851328,79.9137125
342,5,Habarakada,හබරකඩ,ஹபரகட, NULL, NULL, NULL,10204,6.8659667,80.0129679
343,5,Hanwella,හන්වැල්ල,ஹங்வெல்ல, NULL, NULL, NULL,10650,6.8978344,80.0814292
344,5,Hiripitya,හිරිපිටිය,ஹிரிபிட்டிய, NULL, NULL, NULL,10232,6.8334657,79.9766195
345,5,Hokandara,හොකන්දර,ஹோகந்தர, NULL, NULL, NULL,10118,6.8743192,79.9696277
346,5,Homagama,හෝමාගම,ஹோமாகம, NULL, NULL, NULL,10200,6.8432762,80.0031833
347,5,Horagala,හොරගල,ஹொரகல, NULL, NULL, NULL,10502,6.8148295,80.0723673
348,5,Kaduwela,කඩුවෙල,கடுவெல, NULL, NULL, NULL,10640,6.9405862,79.9522686
349,5,Kaluaggala,කළුගල්ල,கலுஅகல, NULL, NULL, NULL,11224,6.9327899,80.1065646
350,5,Kapugoda,කපුගොඩ,கப்புகொட, NULL, NULL, NULL,10662,6.9449825,80.0746628
351,5,Kehelwatta,කොහල්වත්ත,கெஹல்வத்த, NULL, NULL, NULL,12550,6.9335258,79.8597831
352,5,Kiriwattuduwa,කිරිවත්තුඩුව,கிரிவத்துடுவ, NULL, NULL, NULL,10208,6.8023797,80.0073768
353,5,Kolonnawa,කොලොන්නාව,கொலன்னாவ, NULL, NULL, NULL,10600,6.9280156,79.8908308
354,5,Kosgama,කොස්ගම,கொஸ்கம, NULL, NULL, NULL,10730,6.9397165,80.1369268
355,5,Madapatha,මඩපාත,மடபத, NULL, NULL, NULL,10306,6.7690465,79.9290642
356,5,Maharagama,මහරගම,மகரகம, NULL, NULL, NULL,10280,6.8478004,79.9217615
357,5,Malabe,මාළඹේ,மாலபே, NULL, NULL, NULL,10115,6.9078483,79.9474087
358,5,Moratuwa,මොරටුව,மொரட்டுவ, NULL, NULL, NULL,10400,6.7880706,79.8912813
359,5,Mount Lavinia,ගල්කිස්ස,கல்கிசை, NULL, NULL, NULL,10370,6.8221588,79.8731774
360,5,Mullegama,මුල්ලේගම,முல்லேகம, NULL, NULL, NULL,10202,6.8845281,80.0128562
361,5,Napawela,නාපාවෙල,நாபாவெல, NULL, NULL, NULL,10704,6.8964191,79.8884819
362,5,Nugegoda,නුගේගොඩ,நுகேகொட, NULL, NULL, NULL,10250,6.8649081,79.8996789
363,5,Padukka,පාදුක්ක,பாதுக்கை, NULL, NULL, NULL,10500,6.8453634,80.1037721
364,5,Pannipitiya,පන්නිපිටිය,பன்னிப்பிட்டிய, NULL, NULL, NULL,10230,6.8463993,79.9484346
365,5,Piliyandala,පිළියන්දල,பிலியந்தலை, NULL, NULL, NULL,10300,6.8017575,79.9227313
366,5,Pitipana Homagama,පිටිපාන හෝමාගම,பிடிபன ஹோமாகம, NULL, NULL, NULL,10206,6.8444425,80.0206203
367,5,Polgasowita,පොල්ගස්ඕවිට,பொல்கஸ்சோவிட, NULL, NULL, NULL,10320,6.7899358,79.9808143
368,5,Pugoda,පූගොඩ,பூகொடை, NULL, NULL, NULL,10660,6.9590342,80.1317203
369,5,Ranala,රණාල,ரணால, NULL, NULL, NULL,10654,6.9153759,80.0339312
370,5,Siddamulla,සිද්ධමුල්ල,சித்தமுல்ல, NULL, NULL, NULL,10304,6.8172516,79.9598383
371,5,Siyambalagoda,සියඹලාගොඩ,சியம்பலாகொட, NULL, NULL, NULL,81462,6.7922881,79.9668308
372,5,Sri Jayawardenepura,ශ්‍රී ජයවර්ධනපුර,ஸ்ரீ ஜயவர்தனபுரக் கோட்டை, NULL, NULL, NULL,10100,6.8792756,79.9008074
373,5,Talawatugoda,තලවතුගොඩ,தலவத்துகொட, NULL, NULL, NULL,10116,6.8758648,79.9391936
374,5,Tummodara,තුම්මෝදර,தும்மோதர, NULL, NULL, NULL,10682,6.865895,80.1690642
375,5,Waga,වග,வாகா, NULL, NULL, NULL,10680,6.8805187,80.1400671
376,5,Colombo 6,කොළඹ 6,கொழும்பு 6, 'Wellawatta', 'වැල්ලවත්ත', 'வெள்ளவத்தை',600,6.8746579,79.8604831
377,6,Agaliya,අගලිය,அகலியா, NULL, NULL, NULL,80212,6.0085463,80.2422383
378,6,Ahangama,අහංගම,அஹங்கம, NULL, NULL, NULL,80650,5.9739747,80.3621595
379,6,Ahungalla,අහුන්ගල්ල,அஹுங்கல்லா, NULL, NULL, NULL,80562,6.3132776,80.0409178
380,6,Akmeemana,අක්මීමාන,அக்மீமான, NULL, NULL, NULL,80090,6.0836306,80.2962385
381,6,Alawatugoda,අලවතුගොඩ,அலவதுகொட, NULL, NULL, NULL,20140,7.4089934,80.6187942
382,6,Aluthwala,අළුත්වල,அலுத்வாலா, NULL, NULL, NULL,80332,6.1801958,80.1400671
383,6,Ampegama,අම්පෙගම,அம்பேகம, NULL, NULL, NULL,80204,6.1946744,80.144254
384,6,Amugoda,අමුගොඩ,அமுகொட, NULL, NULL, NULL,80422,6.3212557,80.2188858
385,6,Anangoda,අනන්ගොඩ,அனங்கோடா, NULL, NULL, NULL,80044,6.0475642,80.2530412
386,6,Angulugaha,අඟුලුගහ,அங்குலுகாஹா, NULL, NULL, NULL,80122,6.0318525,80.324096
387,6,Ankokkawala,අංකොක්කාවල,அங்கொக்காவல, NULL, NULL, NULL,80048,6.0532918,80.2809129
388,6,Aselapura,ඇසලපුර,அசேலபுர, NULL, NULL, NULL,51072,6.0535185,80.2209773
389,6,Baddegama,බද්දේගම,பத்தேகம, NULL, NULL, NULL,80200,6.1688292,80.1793976
390,6,Balapitiya,බලපිටිය,பலபிட்டிய, NULL, NULL, NULL,80550,6.2783546,80.0403047
391,6,Banagala,බනගල,பனகல, NULL, NULL, NULL,80143,6.2815361,80.4259053
392,6,Batapola,බටපොල,படபொல, NULL, NULL, NULL,80320,6.2241821,80.1138369
393,6,Bentota,බෙන්තොට,பெந்தோட்டை, NULL, NULL, NULL,80500,6.4189175,80.005979
394,6,Boossa,බූස්ස,பூஸ்ஸ, NULL, NULL, NULL,80270,6.0889494,80.1560648
395,6,Dellawa,දෙල්ලව,டெல்லாவா, NULL, NULL, NULL,81477,6.3248959,80.4493405
396,6,Dikkumbura,දික්කුඹුර,திக்கும்புர, NULL, NULL, NULL,80654,6.0183476,80.3728245
397,6,Dodanduwa,දොඩන්දූව,தொடந்துவ, NULL, NULL, NULL,80250,6.1028347,80.1302969
398,6,Ella Tanabaddegama,ඇල්ල තනබද්දේගම,எல்ல தனபத்தேகம, NULL, NULL, NULL,80402,6.057749,80.2175572
399,6,Elpitiya,ඇල්පිටිය,எல்பிட்டிய, NULL, NULL, NULL,80400,6.2879969,80.1596041
400,6,Galle,ගාල්ල,காலி, NULL, NULL, NULL,80000,6.0481918,80.2153998
401,6,Ginimellagaha,ගිනිමෙල්ලගහ,கினிமெல்லகஹா, NULL, NULL, NULL,80220,6.1297064,80.169371
402,6,Gintota,ගින්තොට,கிந்தொட, NULL, NULL, NULL,80280,6.0600121,80.1800221
403,6,Godahena,ගොඩහේන,கொடஹேன, NULL, NULL, NULL,80302,6.2345862,80.0745627
404,6,Gonamulla Junction,ගෝනමුල්ල හංදිය,கோணமுல்ல சந்தி, NULL, NULL, NULL,80054,6.082083,80.290911
405,6,Gonapinuwala,ගොනාපිනූවල,கோனாபினுவல, NULL, NULL, NULL,80230,6.1434518,80.1344842
406,6,Habaraduwa,හබරාදූව,ஹபரதுவ, NULL, NULL, NULL,80630,5.998359,80.3078202
407,6,Haburugala,හබුරුගල,ஹபுருகல, NULL, NULL, NULL,80506,6.4037013,80.0339312
408,6,Hikkaduwa,හික්කඩුව,ஹிக்கடுவ, NULL, NULL, NULL,80240,6.1394676,80.1062861
409,6,Hiniduma,හිනිදුම,ஹினிடும, NULL, NULL, NULL,80080,6.3094482,80.324096
410,6,Hiyare,හියාරෙ,ஹியாரே, NULL, NULL, NULL,80056,6.0720114,80.3425801
411,6,Kahaduwa,කහදූව,கஹதுவா, NULL, NULL, NULL,80460,6.2234515,80.2126109
412,6,Kahawa,කහව,கஹாவா, NULL, NULL, NULL,80312,6.1881852,80.0772392
413,6,Karagoda,කරාගොඩ,கரகோடா, NULL, NULL, NULL,80151,6.0352435,80.210495
414,6,Karandeniya,කරන්දෙණිය,கரந்தெனிய, NULL, NULL, NULL,80360,6.2683217,80.0898085
415,6,Kosgoda,කොස්ගොඩ,கொஸ்கொட, NULL, NULL, NULL,80570,6.3354424,80.0339312
416,6,Kottawagama,කොට්ටාවගම,கொட்டவாகம, NULL, NULL, NULL,80062,6.1078139,80.3035884
417,6,Kottegoda,කෝට්ටේගොඩ,கொட்டேகொட, NULL, NULL, NULL,81180,6.9615244,80.9361023
418,6,Kuleegoda,කුලීගොඩ,குலீகொட, NULL, NULL, NULL,80328,6.2138206,80.0703308
419,6,Magedara,මාගෙදර,மகேதரா, NULL, NULL, NULL,80152,6.0999399,80.4034393
420,6,Mahawela Sinhapura,මහවෙල සිංහපුර,மஹாவெல சிங்கபுர, NULL, NULL, NULL,51076,6.6819241,80.4058741
421,6,Mapalagama,මාපලගම,மபலகம, NULL, NULL, NULL,80112,6.2235607,80.2892727
422,6,Mapalagama Central,මාපලගම මධ්‍යම,மாபலகம மத்திய, NULL, NULL, NULL,80116,6.2235607,80.2892727
423,6,Mattaka,මට්ටක,மட்டக்கா, NULL, NULL, NULL,80424,6.3029501,80.2572225
424,6,Meda-Keembiya,මැද කීඹිය,மெத கீம்பிய, NULL, NULL, NULL,80092,6.114005,80.2404959
425,6,Meetiyagoda,මීටියාගොඩ,மீடியாகொட, NULL, NULL, NULL,80330,6.1898343,80.0953942
426,6,Nagoda,නාගොඩ,நாகொட, NULL, NULL, NULL,80110,6.197978,80.2746547
427,6,Nakiyadeniya,නාකියාදෙණිය,நாகியதெனிய, NULL, NULL, NULL,80064,6.1433285,80.3421984
428,6,Nawandagala,නවඳගල,நவந்தகல, NULL, NULL, NULL,80416,6.3112355,80.1400671
429,6,Neluwa,නෙළුව,நெலுவ, NULL, NULL, NULL,80082,6.3731028,80.3575128
430,6,Nindana,නින්දාන,நிந்தனா, NULL, NULL, NULL,80318,6.20709,80.1079608
431,6,Pahala Millawa,පහළ මිල්ලෑව,பஹல மில்லவா, NULL, NULL, NULL,81472,6.2937958,80.4715866
432,6,Panangala,පනංගල,பனங்கலா, NULL, NULL, NULL,80075,6.2629096,80.3237043
433,6,Pannimulla Panagoda,පැණිමුල්ල පනාගොඩ,பன்னிமுல்ல பனாகொட, NULL, NULL, NULL,80086,6.3537914,80.4086995
434,6,Parana Thanayamgoda,පරණ තානායම්ගොඩ,பரண தனயம்கொட, NULL, NULL, NULL,80114,6.2305499,80.3129541
435,6,Patana,පතාන,பதான, NULL, NULL, NULL,22012,6.0535185,80.2209773
436,6,Pitigala,පිටිගල,பிட்டிகல, NULL, NULL, NULL,80420,6.3419553,80.2377078
437,6,Poddala,පෝද්දල,போத்தலா, NULL, NULL, NULL,80170,6.1084688,80.223766
438,6,Polgampola,පොල්ගම්පොල,பொல்கம்பொல, NULL, NULL, NULL,12136,6.4651893,80.1961205
439,6,Porawagama,පොරවගම,பொறவகம, NULL, NULL, NULL,80408,6.2872078,80.2249426
440,6,Rantotuwila,රන්තොටුවිල,ரந்தொடுவில, NULL, NULL, NULL,80354,6.0535185,80.2209773
441,6,Talagampola,තලගම්පොල,தலகம்பொல, NULL, NULL, NULL,80058,6.0870628,80.3035418
442,6,Talgaspe,තල්ගස්පෙ,டல்காஸ்பே, NULL, NULL, NULL,80406,6.0542348,80.2244631
443,6,Talpe,තල්පෙ,தல்பே, NULL, NULL, NULL,80615,6.0009954,80.2781262
444,6,Tawalama,තවලම,தவலம, NULL, NULL, NULL,80148,6.3347269,80.3421984
445,6,Tiranagama,තිරණගම,திரணகம, NULL, NULL, NULL,80244,6.1285798,80.1112155
446,6,Udalamatta,උඩලමත්ත,உடலமட்டா, NULL, NULL, NULL,80108,6.1835935,80.2982507
447,6,Udugama,උඩුගම,உடுகம, NULL, NULL, NULL,80070,6.2179047,80.3380213
448,6,Uluvitike,උලුවිටිකේ,உலுவிதிகே, NULL, NULL, NULL,80168,6.0833989,80.2112164
449,6,Unawatuna,උණවටුන,உணவட்டுன, NULL, NULL, NULL,80600,6.0174469,80.2488596
450,6,Unawitiya,උනවිටිය,உனவிட்டிய, NULL, NULL, NULL,80214,6.0535185,80.2209773
451,6,Uragaha,ඌරගහ,உரகஹா, NULL, NULL, NULL,80352,6.349044,80.0978637
452,6,Uragasmanhandiya,ඌරගස්මන්හන්දිය,ஊரகஸ்மண்டிய, NULL, NULL, NULL,80350,6.349044,80.0978637
453,6,Wakwella,වක්වැල්ල,வக்வெள்ள, NULL, NULL, NULL,80042,6.0921684,80.1902963
454,6,Walahanduwa,වලහන්දූව,வலஹந்துவா, NULL, NULL, NULL,80046,6.0515591,80.2572225
455,6,Wanchawela,වංචාවල,வஞ்சாவெல, NULL, NULL, NULL,80120,6.0357108,80.2685967
456,6,Wanduramba,වඳුරඹ,வந்துரம்ப, NULL, NULL, NULL,80100,6.1324713,80.2488596
457,6,Warukandeniya,වාරුකන්දෙනිය,வாருகந்தெனிய, NULL, NULL, NULL,80084,6.3661038,80.4048306
458,6,Watugedara,වටුගෙදර,வடுகெதர, NULL, NULL, NULL,80340,6.2612121,80.0604774
459,6,Weihena,වැයිහේන,வெய்ஹேனா, NULL, NULL, NULL,80216,6.3077798,80.2349196
460,6,Welikanda,වැලිකන්ද,வெலிகந்ந, NULL, NULL, NULL,51070,7.9459654,81.2491298
461,6,Wilanagama,විලනගම,விலானகம, NULL, NULL, NULL,20142,6.0041796,80.4138113
462,6,Yakkalamulla,යක්කලමුල්ල,யக்கலமுல்ல, NULL, NULL, NULL,80150,6.1013495,80.3591002
463,6,Yatalamatta,යටලමත්ත,யாதலமட்டா, NULL, NULL, NULL,80107,6.1737333,80.2864862
464,7,Akaragama,අකරගම,அகரகம, NULL, NULL, NULL,11536,7.2734803,79.9570411
465,7,Ambagaspitiya,අඹගස්පිටිය,அம்பகஸ்பிட்டிய, NULL, NULL, NULL,11052,7.0844509,80.0653366
466,7,Ambepussa,අඹේපුස්ස,அம்பேபுசா, NULL, NULL, NULL,11212,7.2561036,80.1693285
467,7,Andiambalama,ආඬිඅම්බලම,ஆண்டிஅம்பலமா, NULL, NULL, NULL,11558,7.1788127,79.9068534
468,7,Attanagalla,අත්තනගල්ල,அத்தனகல்ல, NULL, NULL, NULL,11120,7.1137427,80.1355005
469,7,Badalgama,බඩල්ගම,படல்கம, NULL, NULL, NULL,11538,7.2886523,79.9808143
470,7,Banduragoda,බඳුරගොඩ,பாண்டுராகொட, NULL, NULL, NULL,11244,7.2277935,80.0576834
471,7,Batuwatta,බටුවත්ත,படுவத்த, NULL, NULL, NULL,11011,7.062254,79.9412368
472,7,Bemmulla,බෙම්මුල්ල,பெம்முல்லா, NULL, NULL, NULL,11040,7.1131318,80.0271893
473,7,Biyagama IPZ,බියගම IPZ,பியகம IPZ, NULL, NULL, NULL,11672,6.962284,80.0090367
474,7,Bokalagama,බොකලගම,பொகலகம, NULL, NULL, NULL,11216,7.2153207,80.102926
475,7,Bollete (WP),බොල්ලතේ,பொல்லட் (WP), NULL, NULL, NULL,11024,7.0840484,80.0098314
476,7,Bopagama,බෝපගම,போபகம, NULL, NULL, NULL,11134,7.0713069,80.163696
477,7,Buthpitiya,බුත්පිටිය,புத்பிட்டிய, NULL, NULL, NULL,11720,7.0547003,80.0532264
478,7,Dagonna,දාගොන්න,டகோன்ன, NULL, NULL, NULL,11524,7.2100549,79.9164717
479,7,Danowita,දංඕවිට,தனோவிட்ட, NULL, NULL, NULL,11896,7.2208777,80.1679758
480,7,Debahera,දෙබහැර,டெபஹேரா, NULL, NULL, NULL,11889,7.1579747,80.1498362
481,7,Dekatana,දෙකටන,தெகடன, NULL, NULL, NULL,11690,6.9702324,80.0424192
482,7,Delgoda,දෙල්ගොඩ,தெல்கொட, NULL, NULL, NULL,11700,6.9892885,80.0143766
483,7,Delwagura,දෙල්වගුර,தெல்வகுரா, NULL, NULL, NULL,11228,7.2652482,80.005979
484,7,Demalagama,දෙමළගම,தெமலகம, NULL, NULL, NULL,11692,6.9912763,80.0520952
485,7,Demanhandiya,දෙමන්හන්දිය,தேமன்ஹந்தியா, NULL, NULL, NULL,11270,7.2243879,79.8845135
486,7,Dewalapola,දේවාලපොල,தெவலபொல, NULL, NULL, NULL,11102,7.1612037,79.9919995
487,7,Divulapitiya,දිවුලපිටිය,திவுலபிட்டிய, NULL, NULL, NULL,11250,7.2303143,80.016474
488,7,Divuldeniya,දිවුල්දෙණිය,திவுல்தெனிய, NULL, NULL, NULL,11208,7.2807254,80.0437123
489,7,Dompe,දොම්පෙ,தொம்பே, NULL, NULL, NULL,11680,6.9403947,80.0771962
490,7,Dunagaha,දුනගහ,துணகஹா, NULL, NULL, NULL,11264,7.2220533,79.9780178
491,7,Ekala,ඒකල,எக்கலை, NULL, NULL, NULL,11380,7.1022913,79.9094751
492,7,Ellakkala,ඇල්ලක්කල,எல்லக்கல, NULL, NULL, NULL,11116,7.141665,80.1330885
493,7,Essella,එස්සැල්ල,எஸ்செல்லா, NULL, NULL, NULL,11108,7.1765135,80.0254696
494,7,Galedanda,ගලේදණ්ඩ,கலேடாண்டா, NULL, NULL, NULL,90206,6.9648642,79.9318623
495,7,Gampaha,ගම්පහ,கம்பஹா, NULL, NULL, NULL,11000,7.0840484,80.0098314
496,7,Ganemulla,ගණේමුල්ල,கணேமுல்லை, NULL, NULL, NULL,11020,7.082719,79.9482548
497,7,Giriulla,ගිරිවුල්ල,கிரியுள்ளை, NULL, NULL, NULL,60140,7.3486749,80.1380195
498,7,Gonawala,ගෝනවල,கோனவளை, NULL, NULL, NULL,11630,6.9541703,79.9366187
499,7,Halpe,හල්පෙ,ஹல்பே, NULL, NULL, NULL,70145,7.2622107,79.9290642
500,7,Hapugastenna,හපුගස්තැන්න,ஹப்புகஸ்தென்ன, NULL, NULL, NULL,70164,6.740544,80.1888173
501,7,Heiyanthuduwa,හෙයියන්තුඩුව,ஹெய்யந்துடுவ, NULL, NULL, NULL,11618,6.9718768,79.9737642
502,7,Hinatiyana Madawala,හීනටියන මඩවල,ஹினாட்டியான மடவல, NULL, NULL, NULL,11568,7.1501572,79.9122738
503,7,Hiswella,හිස්වැල්ල,ஹிஸ்வெல்லா, NULL, NULL, NULL,11734,7.0201574,80.1637901
504,7,Horampella,හොරම්පැල්ල,ஹோரம்பெல்ல, NULL, NULL, NULL,11564,7.1702315,79.9794161
505,7,Hunumulla,හුණුමුල්ල,ஹுனுமுல்லா, NULL, NULL, NULL,11262,7.233651,79.989309
506,7,Hunupola,හුණුපොල,ஹுனுபொல, NULL, NULL, NULL,60582,7.6142188,80.3895248
507,7,Ihala Madampella,ඉහල මදම්පෙල්ල,இஹல மடம்பெல்லா, NULL, NULL, NULL,11265,7.2489535,79.9537193
508,7,Imbulgoda,ඉඹුල්ගොඩ,இம்புல்கொட, NULL, NULL, NULL,11856,7.087046,80.0175104
509,7,Ja-Ela,ජා-ඇල,ஜா-எல, NULL, NULL, NULL,11350,7.0857596,79.9254445
510,7,Kadawatha,කඩවත,கடவதை, NULL, NULL, NULL,11850,7.0046719,79.9542002
511,7,Kahatowita,කහටෝවිට,கஹடோவிட்ட, NULL, NULL, NULL,11144,7.0974551,80.112239
512,7,Kalagedihena,කලගෙඩිහේන,கலகெடிஹேன, NULL, NULL, NULL,11875,7.1201435,80.0590804
513,7,Kaleliya,කල්එළිය,கலேலியா, NULL, NULL, NULL,11160,7.1970231,80.1107531
514,7,Kandana,කඳාන,கந்தான, NULL, NULL, NULL,11320,7.0477897,79.8970348
515,7,Katana,කටාන,கட்டான, NULL, NULL, NULL,11534,7.2480284,79.8993665
516,7,Katudeniya,කටුදෙණිය,கட்டுதெனிய, NULL, NULL, NULL,21016,7.438319,80.6415452
517,7,Katunayake,කටුනායක,கட்டுநாயக்க, NULL, NULL, NULL,11450,7.1724849,79.8853484
518,7,Katunayake Air Force Camp,කටුනායක ගුවන් හමුදා කඳවුර,கட்டுநாயக்க விமானப் படை முகாம், NULL, NULL, NULL,11440,7.1828293,79.867739
519,7,Katunayake(FTZ),කටුනායක නිදහස් වෙළඳ කලාපය,கட்டுநாயக்க FTZ, NULL, NULL, NULL,11420,7.1736603,79.8868861
520,7,Katuwellegama,කටුවෙල්ලගම,கட்டுவெல்லேகம, NULL, NULL, NULL,11526,7.1997133,79.9497668
521,7,Kelaniya,කැළණිය,களனி, NULL, NULL, NULL,11600,6.9782137,79.9115522
522,7,Kimbulapitiya,කිඹුලාපිටිය,கிம்புலாபிட்டிய, NULL, NULL, NULL,11522,7.2042407,79.8940806
523,7,Kirindiwela,කිරිඳිවෙල,கிரிந்திவெல, NULL, NULL, NULL,11730,7.0411825,80.1289324
524,7,Kitalawalana,කිතලවලාන,கிடலவலன, NULL, NULL, NULL,11206,7.2909333,80.1142434
525,7,Kochchikade,කොච්චිකඩේ,கொச்சிக்கடை, NULL, NULL, NULL,11540,7.2657063,79.8591235
526,7,Kotadeniyawa,කොටදෙණියාව,கொட்டதெனியாவ, NULL, NULL, NULL,11232,7.2838813,80.066065
527,7,Kotugoda,කොටුගොඩ,கொட்டுகொட, NULL, NULL, NULL,11390,7.123191,79.9241673
528,7,Kumbaloluwa,කුඹල්ඔළුව,கும்பலோலுவ, NULL, NULL, NULL,11105,7.1771057,80.1121493
529,7,Loluwagoda,ලොළුවගොඩ,லொலுவாகொட, NULL, NULL, NULL,11204,7.2921006,80.135035
530,7,Mabodale,මබෝදලේ,மபோடலே, NULL, NULL, NULL,11114,7.2024369,80.0187213
531,7,Madelgamuwa,මැදැල්ගමුව,மடல்கமுவ, NULL, NULL, NULL,11033,7.1084613,79.9598696
532,7,Makewita,මාකවිට,மகேவிதா, NULL, NULL, NULL,11358,7.10095,79.9633262
533,7,Makola,මාකොල,மாகொல, NULL, NULL, NULL,11640,6.9718989,79.9466398
534,7,Malwana,මල්වාන,மல்வான, NULL, NULL, NULL,11670,6.9507844,80.0157449
535,7,Mandawala,මන්දාවල,மண்டவாலா, NULL, NULL, NULL,11061,7.0001178,80.0939978
536,7,Marandagahamula,මරඳගහමුල,மரந்தகஹமுல, NULL, NULL, NULL,11260,7.2289814,79.9906015
537,7,Mellawagedara,මෙල්ලවගෙදර,மெல்லவகெதர, NULL, NULL, NULL,11234,7.2856809,80.026944
538,7,Minuwangoda,මිනුවන්ගොඩ,மினுவன்கொட, NULL, NULL, NULL,11550,7.1842076,79.9500477
539,7,Mirigama,මීරිගම,மீரிகம, NULL, NULL, NULL,11200,7.2271109,80.1567664
540,7,Miriswatta,මිරිස්වත්ත,மிரிஸ்வத்த, NULL, NULL, NULL,80508,7.0727394,80.0157633
541,7,Mithirigala,මිතිරිගල,மிதிரிகல, NULL, NULL, NULL,11742,6.9962236,80.1609995
542,7,Muddaragama,මුද්දරගම,முத்தாரகம, NULL, NULL, NULL,11112,7.2085995,80.0550033
543,7,Mudungoda,මුදුන්ගොඩ,முடுங்கோடா, NULL, NULL, NULL,11056,7.0666922,80.012269
544,7,Mulleriyawa New Town,මුල්ලේරියාව නව නගරය,முல்லேரியா புதிய நகரம், NULL, NULL, NULL,10620,7.0840484,80.0098314
545,7,Naranwala,නාරංවල,நாரங்வல, NULL, NULL, NULL,11063,7.0118957,80.0241489
546,7,Nawana,නාවන,நவானா, NULL, NULL, NULL,11222,7.0840484,80.0098314
547,7,Nedungamuwa,නැදුන්ගමුව,நெதுன்கமுவ, NULL, NULL, NULL,11066,7.0489741,80.0213538
548,7,Negombo,මීගමුව,நீர்கொழும்பு, NULL, NULL, NULL,11500,7.1955474,79.8573384
549,7,Nikadalupotha,නිකදළුපොත,நிகடலுபோத, NULL, NULL, NULL,60580,7.6540965,80.3756081
550,7,Nikahetikanda,නිකහැටිකන්ද,நிகஹெதிகந்த, NULL, NULL, NULL,11128,7.0988024,80.1791368
551,7,Nittambuwa,නිට්ටඹුව,நிட்டம்புவ, NULL, NULL, NULL,11880,7.1423639,80.1037721
552,7,Niwandama,නිවන්දම,நிவந்தமா, NULL, NULL, NULL,11354,7.0734533,79.9277763
553,7,Opatha,ඕපාත,ஓப்பாத்த, NULL, NULL, NULL,80142,7.1320576,79.9263427
554,7,Pamunugama,පමුණුගම,பமுனுகம, NULL, NULL, NULL,11370,7.0864986,79.8548823
555,7,Pamunuwatta,පමුණුවත්ත,பமுனுவத்த, NULL, NULL, NULL,11214,7.2163123,80.1414627
556,7,Panawala,පනාවල,பனாவல, NULL, NULL, NULL,70612,7.1674068,80.0939978
557,7,Pasyala,පස්යාල,பஸ்யால, NULL, NULL, NULL,11890,7.1667103,80.1233175
558,7,Peliyagoda,පෑලියගොඩ,பேலியகொட, NULL, NULL, NULL,11830,6.9584915,79.9055819
559,7,Pepiliyawala,පැපිලියාවල,பெபிலியவல, NULL, NULL, NULL,11741,7.00218,80.128901
560,7,Pethiyagoda,පෙතියාගොඩ,பெத்தியகொட, NULL, NULL, NULL,11043,7.1380617,79.9951044
561,7,Polpithimukulana,පොල්පිතිමූකලාන,பொல்பிதிமுகுலான, NULL, NULL, NULL,11324,7.0840484,80.0098314
562,7,Puwakpitiya,පුවක්පිටිය,புவக்பிட்டிய, NULL, NULL, NULL,10712,7.0380187,80.0674619
563,7,Radawadunna,රදාවඩුන්න,ராதவடுன்னா, NULL, NULL, NULL,11892,7.1843873,80.1414627
564,7,Radawana,රදාවාන,ராதாவானா, NULL, NULL, NULL,11725,7.0319495,80.0939978
565,7,Raddolugama,රද්දොළුගම,இரத்தொளுகம, NULL, NULL, NULL,11400,7.1406334,79.9013603
566,7,Ragama,රාගම,ராகம, NULL, NULL, NULL,11010,7.0231768,79.9077723
567,7,Ruggahawila,රුග්ගහවිල,ருக்கஹாவில, NULL, NULL, NULL,11142,7.1100379,80.1142434
568,7,Seeduwa,සීදුව,சீதுவை, NULL, NULL, NULL,11410,7.1406784,79.8869732
569,7,Siyambalape,සියඹලාපේ,சியம்பலாபே, NULL, NULL, NULL,11607,6.9674112,79.9892034
570,7,Talahena,තලාහේන,தலஹேன, NULL, NULL, NULL,11504,7.0840484,80.0098314
571,7,Thambagalla,තඹගල්ල,தம்பகல்ல, NULL, NULL, NULL,60584,7.0840484,80.0098314
572,7,Thimbirigaskatuwa,තිඹිරිගස්කටුව,திம்பிரிகஸ்கடுவ, NULL, NULL, NULL,11532,7.1354242,79.8885102
573,7,Tittapattara,තිත්තපත්තර,திட்டபட்டரா, NULL, NULL, NULL,10664,6.9135615,80.0597213
574,7,Udathuthiripitiya,උඩතුත්තිරිපිටිය,உடதுதிரிபிட்டிய, NULL, NULL, NULL,11054,7.0840484,80.0098314
575,7,Udugampola,උඩුගම්පල,உடுகம்பளை, NULL, NULL, NULL,11030,7.1263574,79.9780178
576,7,Uggalboda,උග්ගල්බොඩ,உக்கல்போடா, NULL, NULL, NULL,11034,7.1324802,79.9542438
577,7,Urapola,ඌරාපොල,ஊரபோல, NULL, NULL, NULL,11126,7.0980424,80.1449906
578,7,Uswetakeiyawa,උස්වැටකෙයියාව,உஸ்வெட்டிகேயவா, NULL, NULL, NULL,11328,7.0389911,79.8660836
579,7,Veyangoda,වෙයන්ගොඩ,வேயங்கொடை, NULL, NULL, NULL,11100,7.1662139,80.0558695
580,7,Walgammulla,වල්ගම්මුල්ල,வலகம்முல்ல, NULL, NULL, NULL,11146,7.0709392,80.1177335
581,7,Walpita,වල්පිට,வல்பிட, NULL, NULL, NULL,11226,7.2612667,80.045913
582,7,Walpola (WP),වල්පොල,வல்பொல (WP), NULL, NULL, NULL,11012,7.1943487,79.9276651
583,7,Wathurugama,වතුරුගම,வத்துருகம, NULL, NULL, NULL,11724,7.0546548,80.1009796
584,7,Watinapaha,වටිනාපහ,வட்டினபஹா, NULL, NULL, NULL,11104,7.1853118,80.0003875
585,7,Wattala,වත්තල,வத்தளை, NULL, NULL, NULL,11104,6.9906677,79.8931709
586,7,Weboda,වෙිබොඩ,வெபோடா, NULL, NULL, NULL,11858,7.0251175,79.9913005
587,7,Wegowwa,වෑගොව්ව,வேகவ்வா, NULL, NULL, NULL,11562,7.1716032,79.9746299
588,7,Weweldeniya,වේවැල්දෙණිය,வெவெல்தெனிய, NULL, NULL, NULL,11894,7.1979285,80.1526271
589,7,Yakkala,යක්කල,யக்கல, NULL, NULL, NULL,11870,7.0864153,80.0335107
590,7,Yatiyana,යටියන,யதியான, NULL, NULL, NULL,11566,7.1867708,79.9260548
591,8,Ambalantota,අම්බලන්තොට,அம்பலாந்தோட்டை, NULL, NULL, NULL,82100,6.1225999,81.0237594
592,8,Angunakolapelessa,අඟුණකොළපැලැස්ස,அங்குனுகொலபெலஸ்ஸ, NULL, NULL, NULL,82220,6.1655689,80.9031172
593,8,Angunakolawewa,අඟුණකොලවැව,அங்குனகொலவெவ, NULL, NULL, NULL,91302,6.4115488,81.0859235
594,8,Bandagiriya Colony,බන්ඩගිරිය කොලොනි,பண்டகிரிய காலனி, NULL, NULL, NULL,82005,6.2408604,81.1448479
595,8,Barawakumbuka,බරවකුඹුර,பரவகும்புகா, NULL, NULL, NULL,82110,6.2257854,80.9290685
596,8,Beliatta,බෙලිඅත්ත,பெலியத்த, NULL, NULL, NULL,82400,6.0481573,80.7339144
597,8,Beragama,බෙරගම,பெரகம, NULL, NULL, NULL,82102,6.1421255,81.0318169
598,8,Beralihela,බෙරලිහෙල,பெரலிஹெல, NULL, NULL, NULL,82618,6.321587,81.2981673
599,8,Bundala,බූන්දල,பண்டாலா, NULL, NULL, NULL,82002,6.1942487,81.1873141
600,8,Ellagala,ඇල්ලගල,எல்லகல, NULL, NULL, NULL,82619,6.333333,81.25
601,8,Gangulandeniya,ගඟුලදෙණිය,கங்குலந்தெனிய, NULL, NULL, NULL,82586,6.2956299,80.7186697
602,8,Getamanna,ගැටමාන්න,கெட்டமன்னா, NULL, NULL, NULL,82420,6.0395499,80.6895583
603,8,Goda Koggalla,ගොඩ කොග්ගල්ල,கொட கொக்கல்ல, NULL, NULL, NULL,82401,6.183333,81.016667
604,8,Gonagamuwa Uduwila,ගොනාගමුව උඩුවිල,கோனகமுவ உடுவில, NULL, NULL, NULL,82602,6.2472394,81.265649
605,8,Gonnoruwa,ගොන්නොරුව,கொன்னொருவா, NULL, NULL, NULL,82006,6.233333,81.1
606,8,Hakuruwela,හකුරුවෙල,ஹகுருவெல, NULL, NULL, NULL,82248,6.1493333,80.8308587
607,8,Hambantota,හම්බන්තොට,ஹம்பாந்தோட்டை, NULL, NULL, NULL,82000,6.1428829,81.1212308
608,8,Handugala,හඳගුල,ஹண்டுகல, NULL, NULL, NULL,81326,6.1903211,80.6257539
609,8,Hungama,හුංගම,ஹங்காமா, NULL, NULL, NULL,82120,6.115626,80.9290685
610,8,Ihala Beligalla,ඉහල බෙලිගල්ල,இஹல பெலிகல்ல, NULL, NULL, NULL,82412,6.1535816,81.127149
611,8,Iththa Demaliya,ඉත්ත දෙමලිය,இத்தா தெமாலியா, NULL, NULL, NULL,82462,6.1678463,80.7459337
612,8,Julampitiya,ජුලම්පිටිය,ஜுலம்பிட்டிய, NULL, NULL, NULL,82252,6.2355232,80.7354311
613,8,Kahandamodara,කහඳමෝදර,கஹந்தமோதர, NULL, NULL, NULL,82126,6.0698824,80.891511
614,8,Kariyamaditta,කරියමදිත්ත,காரியமடித்தா, NULL, NULL, NULL,82274,6.2552733,80.8128636
615,8,Katuwana,කටුවන,கடுவன, NULL, NULL, NULL,82500,6.2636238,80.6909448
616,8,Kawantissapura,කාවන්තිස්සපුර,கவுந்திஸ்ஸபுர, NULL, NULL, NULL,82622,6.3518712,81.3129795
617,8,Kirama,කිරම,கிரம, NULL, NULL, NULL,82550,6.2066921,80.6618234
618,8,Kirinda,කිරින්ද,கிரிந்த, NULL, NULL, NULL,82614,6.235236,81.3344408
619,8,Lunama,ලුනම,லுனாமா, NULL, NULL, NULL,82108,6.0953167,80.9677658
620,8,Lunugamwehera,ලුණුගම්වෙහෙර,லுணுகம் வெஹர, NULL, NULL, NULL,82634,6.3383515,81.1442093
621,8,Magama,මාගම,மகம, NULL, NULL, NULL,82608,6.2058366,81.30418
622,8,Mahagalwewa,මහගල්වැව,மகாகல்வெவ, NULL, NULL, NULL,82016,6.3854382,81.0395821
623,8,Mamadala,මාමඩල,மாமடல, NULL, NULL, NULL,82109,6.1596539,80.974674
624,8,Medamulana,මැදමුලන,மெதமுலன, NULL, NULL, NULL,82254,6.1810279,80.7685508
625,8,Middeniya,මිද්දෙණිය,மித்தெனிய, NULL, NULL, NULL,82270,6.2513579,80.7641653
626,8,Meegahajandura,මිගහජන්දුරැ,மீகஹஜந்துர, NULL, NULL, NULL,82014,6.1592853,81.1273013
627,8,Modarawana,මොදරවාන,மோதரவன, NULL, NULL, NULL,82416,6.1173609,80.7242136
628,8,Mulkirigala,මුල්කිරිගල,முல்கிரிகல, NULL, NULL, NULL,82242,6.1087918,80.7588541
629,8,Nakulugamuwa,නාකුළුගමුව,நகுலுகமுவ, NULL, NULL, NULL,82300,5.9954309,80.7089671
630,8,Netolpitiya,නෙටොල්පිටිය,நெடோல்பிட்டிய, NULL, NULL, NULL,82135,6.0656506,80.8391628
631,8,Nihiluwa,නිහිලුව,நிஹிலுவா, NULL, NULL, NULL,82414,6.0713577,80.7062933
632,8,Padawkema,පදව්කෙම,படவ்கேமா, NULL, NULL, NULL,82636,6.1428829,81.1212308
633,8,Pahala Andarawewa,පහල අන්දරවැව,பஹல அந்தரவெவ, NULL, NULL, NULL,82008,6.299588,81.0856327
634,8,Rammalawarapitiya,රම්මලවරපිටිය,ரம்மலவரபிட்டிய, NULL, NULL, NULL,82554,6.2219871,80.6368539
635,8,Ranakeliya,රණකෙලිය,ரணகெலிய, NULL, NULL, NULL,82612,6.1428829,81.1212308
636,8,Ranmuduwewa,රන්මුඩුවැව,ரன்முதுவெவ, NULL, NULL, NULL,82018,6.3462942,81.058906
637,8,Ranna,රන්න,ரன்னா, NULL, NULL, NULL,82125,6.0935429,80.8626864
638,8,Ratmalwala,රත්මල්වල,ரத்மல்வல, NULL, NULL, NULL,82276,6.1428829,81.1212308
639,8,Ruhunu Ridiyagama,රුහුණු රිදියගම,ருஹுனு ரிதியகம, NULL, NULL, NULL,82106,6.2468436,80.9824649
640,8,Sooriyawewa Town,සූරියවැව නගරය,சூரியவெவ நகரம், NULL, NULL, NULL,82010,6.3110025,80.9953952
641,8,Tangalla,තංගල්ල,தங்காலை, NULL, NULL, NULL,82200,6.0243383,80.7940726
642,8,Tissamaharama,තිස්සමහාරාම,திஸ்ஸமஹராமை, NULL, NULL, NULL,82600,6.2791538,81.2876691
643,8,Uda Gomadiya,උඩ ගෝමදිය,உட கோமதியா, NULL, NULL, NULL,82504,6.2956159,80.6693375
644,8,Udamattala,උඩමත්තල,உடமத்தல, NULL, NULL, NULL,82638,6.2913906,81.1213571
645,8,Uswewa,උස්වැව,உஸ்வேவா, NULL, NULL, NULL,82278,6.2420622,80.8834367
646,8,Vitharandeniya,විතාරන්දෙණිය,விதாரந்தெனிய, NULL, NULL, NULL,82232,6.0243383,80.7940726
647,8,Walasmulla,වළස්මුල්ල,வலஸ்முல்ல, NULL, NULL, NULL,82450,6.1508888,80.6937177
648,8,Weeraketiya,වීරකැටිය,வீரகெட்டிய, NULL, NULL, NULL,82240,6.1476081,80.7633743
649,8,Weerawila,වීරවිල,வீரவில, NULL, NULL, NULL,82632,6.2421494,81.229209
650,8,Weerawila NewTown,වීරවිල නව නගරය,வீரவில நியூடவுன், NULL, NULL, NULL,82615,6.2421494,81.229209
651,8,Wekandawela,වෑකඳවෙල,வெகந்தவெல, NULL, NULL, NULL,82246,6.1428829,81.1212308
652,8,Weligatta,වැලිගත්ත,வெலிகட்டா, NULL, NULL, NULL,82004,6.2385761,81.2188355
653,8,Yatigala,යටිගල,யடிகல, NULL, NULL, NULL,82418,6.1134196,80.6947365
654,9,Jaffna,යාපනය,யாழ்ப்பாணம், NULL, NULL, NULL,40000,9.669013,80.0269528
655,10,Agalawatta,අගලවත්ත,அகலவத்தை, NULL, NULL, NULL,12200,6.5422794,80.157504
656,10,Alubomulla,අලුබෝමුල්ල,அலுபோமுல்லா, NULL, NULL, NULL,12524,6.7113091,79.9458514
657,10,Anguruwatota,අංගුරුවතොට,அங்குறுவதோட்ட, NULL, NULL, NULL,12320,6.6446971,80.0745954
658,10,Atale,අටලේ,ஒரு கதை, NULL, NULL, NULL,71363,6.45,80.266667
659,10,Baduraliya,බදුරලීය,பதுரலியா, NULL, NULL, NULL,12230,6.5171221,80.2311801
660,10,Bandaragama,බණ්ඩාරගම,பண்டாரகம, NULL, NULL, NULL,12530,6.7144073,79.9890604
661,10,Batugampola,බටුගම්පොල,படுகம்பொல, NULL, NULL, NULL,10526,6.7739817,80.1396721
662,10,Bellana,බෙල්ලන,பெல்லானா, NULL, NULL, NULL,12224,6.522136,80.1735565
663,10,Beruwala,බේරුවල,பேருவளை, NULL, NULL, NULL,12070,6.4632038,79.9747124
664,10,Bolossagama,බොලොස්සගම,பொலொஸ்ஸகம, NULL, NULL, NULL,12008,6.6230589,80.0157633
665,10,Bombuwala,බොඹුවල,போம்புவல, NULL, NULL, NULL,12024,6.5754072,80.0142805
666,10,Boralugoda,බොරළුගොඩ,பொரலுகொட, NULL, NULL, NULL,12142,6.4347185,80.2795195
667,10,Bulathsinhala,බුලත්සිංහල,புலத்சிங்கள, NULL, NULL, NULL,12300,6.6487471,80.1791368
668,10,Danawala Thiniyawala,දනවල තිනියවල,தனவல தினியாவல, NULL, NULL, NULL,12148,6.415104,80.3286273
669,10,Delmella,දෙල්මෙල්ල,டெல்மெல்லா, NULL, NULL, NULL,12304,6.6796219,80.2056382
670,10,Dharga Town,දර්ගා නගරය,தர்கா நகரம், NULL, NULL, NULL,12090,6.4447452,80.0168602
671,10,Diwalakada,දිවාලකද,திவலகட, NULL, NULL, NULL,12308,6.5711153,80.0608753
672,10,Dodangoda,දොඩන්ගොඩ,தொடங்கொட, NULL, NULL, NULL,12020,6.5528675,80.0232923
673,10,Dombagoda,දොඹගොඩ,தொம்பகொட, NULL, NULL, NULL,12416,6.6461737,80.0506981
674,10,Ethkandura,ඇත්කඳුර,எத்கந்துரா, NULL, NULL, NULL,80458,6.2328918,80.1568134
675,10,Galpatha,ගල්පාත,கல்பதா, NULL, NULL, NULL,12005,6.629145,80.0234502
676,10,Gamagoda,ගමගොඩ,கமகொட, NULL, NULL, NULL,12016,6.5839412,79.9953597
677,10,Gonagalpura,ගොනාගල්පුර,கோனகல்புரா, NULL, NULL, NULL,80502,6.5853948,79.96074
678,10,Gonapola Junction,ගෝනපොල හංදිය,கோனபொலை சந்தி, NULL, NULL, NULL,12410,6.7563403,80.0171609
679,10,Govinna,ගෝවින්න,கோவின்ன, NULL, NULL, NULL,12310,6.6752389,80.1183488
680,10,Gurulubadda,ගුරුලුබැද්ද,குருலுபத்தா, NULL, NULL, NULL,12236,6.0482692,80.1960396
681,10,Halkandawila,හල්කන්දවිල,ஹல்கண்டவில, NULL, NULL, NULL,12055,6.5,80.0166667
682,10,Haltota,හල්තොට,ஹல்தொட, NULL, NULL, NULL,12538,6.6942555,80.030861
683,10,Halvitigala Colony,හල්විටගල ජනපදය,ஹல்விட்டிகல காலனி, NULL, NULL, NULL,80146,6.311722,80.3651035
684,10,Halwala,හල්වල,ஹல்வாலா, NULL, NULL, NULL,12118,6.4208769,80.1065646
685,10,Halwatura,හල්වතුර,ஹல்வதுரா, NULL, NULL, NULL,12306,6.7175993,80.1902963
686,10,Handapangoda,හඳපාන්ගොඩ,ஹண்டபாங்கொட, NULL, NULL, NULL,10524,6.7905692,80.1400671
687,10,Hedigalla Colony,හැඩිගල්ල ජනපදය,ஹெடிகல்ல காலனி, NULL, NULL, NULL,12234,6.466391,80.2850929
688,10,Henegama,හේනෙගම,ஹெனேகம, NULL, NULL, NULL,11715,6.4838722,80.1009796
689,10,Hettimulla,හෙට්ටිමුල්ල,ஹெட்டிமுல்ல, NULL, NULL, NULL,71210,6.4580766,79.9908006
690,10,Horana,හොරණ,ஹொரன, NULL, NULL, NULL,12400,6.7246534,80.0399464
691,10,Ittapana,ඉත්තෑපාන,இட்டபன, NULL, NULL, NULL,12116,6.4366484,80.095523
692,10,Kahawala,කහවල,கஹவாலா, NULL, NULL, NULL,10508,6.7794255,80.1121493
693,10,Kalawila Kiranthidiya,කලවිල කිරන්තිඩිය,கலாவில கிரந்திடியா, NULL, NULL, NULL,12078,6.4545693,80.0103861
694,10,Kalutara,කළුතර,களுத்துறை, NULL, NULL, NULL,12000,6.5853948,79.96074
695,10,Kananwila,කනන්විල,கானன்வில, NULL, NULL, NULL,12418,6.7542378,80.0622815
696,10,Kandanagama,කඳනාගම,கந்தனாகம, NULL, NULL, NULL,12428,6.7144073,79.9890604
697,10,Kelinkanda,කෙලින්කන්ද,கெலிங்கந்த, NULL, NULL, NULL,12218,6.5745254,80.2934522
698,10,Kitulgoda,කිතුල්ගොඩ,கித்துல்கொட, NULL, NULL, NULL,12222,6.5064502,80.1791368
699,10,Koholana,කොහොලාන,கொஹோலனா, NULL, NULL, NULL,12007,6.6172796,79.9906015
700,10,Kuda Uduwa,කුඩා උඩුව,குடா உடுவா, NULL, NULL, NULL,12426,6.7662085,80.0778931
701,10,Labbala,ලබ්බල,லப்பலா, NULL, NULL, NULL,60162,7.3396077,80.0784613
702,10,Ihalahewessa,ඉහළහේවැස්ස,இஹலஹெவெஸ்ஸ, NULL, NULL, NULL,80432,6.5853948,79.96074
703,10,Induruwa,ඉඳුරුව,இந்துருவா, NULL, NULL, NULL,80510,6.3758511,80.0093105
704,10,Ingiriya,ඉංගිරිය,இங்கிரிய, NULL, NULL, NULL,12440,6.7403769,80.1624543
705,10,Maggona,මග්ගොන,மக்கொன, NULL, NULL, NULL,12060,6.5095799,79.995717
706,10,Mahagama,මහගම,மஹகம, NULL, NULL, NULL,12210,6.6035286,80.1596041
707,10,Mahakalupahana,මහාකළුපහන,மஹாகலுபஹானா, NULL, NULL, NULL,12126,6.5853948,79.96074
708,10,Maharangalla,මහරංගල්ල,மகரங்கல்ல, NULL, NULL, NULL,71211,6.6015528,79.9753241
709,10,Malgalla Talangalla,මල්ගල්ල තලංගල්ල,மல்கல்லா தலங்கல்ல, NULL, NULL, NULL,80144,6.3074148,80.3660715
710,10,Matugama,මතුගම,மத்துகம, NULL, NULL, NULL,12100,6.5219432,80.1136852
711,10,Meegahatenna,මීගහතැන්න,மீகஹதென்ன, NULL, NULL, NULL,12130,6.433116,80.1958755
712,10,Meegama,මීගම,மீகம, NULL, NULL, NULL,12094,6.4213498,80.0632713
713,10,Meegoda,මීගොඩ,மீகொட, NULL, NULL, NULL,10504,6.5893613,79.9636673
714,10,Millaniya,මිල්ලණිය,மில்லானியா, NULL, NULL, NULL,12412,6.6805151,80.020655
715,10,Millewa,මිල්ලෑව,மில்லேவா, NULL, NULL, NULL,12422,6.7812105,80.0702555
716,10,Miwanapalana,මිවනපලාන,மிவனபாலன, NULL, NULL, NULL,12424,6.7433848,80.0939978
717,10,Molkawa,මෝල්කාව,மோல்காவா, NULL, NULL, NULL,12216,6.6050701,80.2377078
718,10,Morapitiya,මොරපිටිය,மொரப்பிட்டிய, NULL, NULL, NULL,12232,6.5305266,80.2736514
719,10,Morontuduwa,මොරොන්තුඩුව,மொரோந்துடுவ, NULL, NULL, NULL,12564,6.6623451,79.9703269
720,10,Nawattuduwa,නවත්තුඩුව,நவத்துடுவ, NULL, NULL, NULL,12106,6.484951,80.063822
721,10,Neboda,නෑබොඩ,நேபொட, NULL, NULL, NULL,12030,6.5916551,80.0926014
722,10,Padagoda,පාදාගොඩ,படகோடா, NULL, NULL, NULL,12074,6.5657686,79.9836108
723,10,Pahalahewessa,පහළහේවැස්ස,பஹலஹெவெஸ்ஸ, NULL, NULL, NULL,12144,6.5853948,79.96074
724,10,Paiyagala,පයාගල,பையகல, NULL, NULL, NULL,12050,6.5186103,79.9947956
725,10,Panadura,පානදුර,பாணந்துறை, NULL, NULL, NULL,12500,6.7527994,79.8949309
726,10,Pannala,පන්නල,பன்னல, NULL, NULL, NULL,60160,6.5660074,79.9625419
727,10,Paragastota,පරගස්තොට,பரகஸ்தோட்டா, NULL, NULL, NULL,12414,6.6728765,80.0017854
728,10,Paragoda,පරගොඩ,பரகோடா, NULL, NULL, NULL,12302,6.6122074,80.2266847
729,10,Paraigama,පරයිගම,பரைகம, NULL, NULL, NULL,12122,6.5853948,79.96074
730,10,Pelanda,පෙලන්ඩ,பெலண்டா, NULL, NULL, NULL,12214,6.5853948,79.96074
731,10,Pelawatta,පැලවත්ත,பெலவத்த, NULL, NULL, NULL,12138,6.40053,80.2120618
732,10,Pimbura,පිඹුර,பிம்புரா, NULL, NULL, NULL,70472,6.5586762,80.1568134
733,10,Pitagaldeniya,පිටගල්දෙණිය,பிடகல்தெனிய, NULL, NULL, NULL,71360,7.1926678,80.3001581
734,10,Pokunuwita,පොකුණුවිට,பொக்குனுவிட்ட, NULL, NULL, NULL,12404,6.7288686,80.0297389
735,10,Poruwedanda,පෝරුවදණ්ඩ,பொருவேதண்டா, NULL, NULL, NULL,12432,6.7363193,80.1335559
736,10,Ratmale,රත්මලේ,ரத்மலே, NULL, NULL, NULL,81030,6.4611781,80.1980844
737,10,Remunagoda,රෙමුණගොඩ,ரெமுனகொட, NULL, NULL, NULL,12009,6.6079079,80.0252719
738,10,Talgaswela,තල්ගස්වෙල,தல்கஸ்வெல, NULL, NULL, NULL,80470,6.2441026,80.2708957
739,10,Tebuwana,තෙඹුවන,தெபுவானா, NULL, NULL, NULL,12025,6.5922759,80.0576834
740,10,Uduwara,උඩුවර,உடுவார, NULL, NULL, NULL,12322,6.6230195,80.0672436
741,10,Utumgama,උතුම්ගම,உதும்கம, NULL, NULL, NULL,12127,6.4269977,80.1512317
742,10,Veyangalla,වේයන්ගල්ල,வெயங்கல்ல, NULL, NULL, NULL,12204,6.5823581,80.1473613
743,10,Wadduwa,වාද්දුව,வாதுவை, NULL, NULL, NULL,12560,6.6362823,79.9528451
744,10,Walagedara,වලගෙදර,வலகெதர, NULL, NULL, NULL,12112,6.4499184,80.0793342
745,10,Walallawita,වළල්ලාවිට,வலல்லாவிட்ட, NULL, NULL, NULL,12134,6.380555,80.1958755
746,10,Waskaduwa,වස්කඩුව,வஸ்கடுவ, NULL, NULL, NULL,12580,6.626858,79.9430537
747,10,Welipenna,වැලිපැන්න,வெலிப்பன, NULL, NULL, NULL,12108,6.4681994,80.1065646
748,10,Weliveriya,වැලිවේරිය,வெலிவேரிய, NULL, NULL, NULL,11710,7.0313407,80.0287514
749,10,Welmilla Junction,වැල්මිල්ල හංදිය,வல்மில்ல சந்தி, NULL, NULL, NULL,12534,6.7484326,79.9714847
750,10,Weragala,වේරගල,வெரகல, NULL, NULL, NULL,71622,6.5293595,80.005979
751,10,Yagirala,යගිරාල,யகிரல, NULL, NULL, NULL,12124,6.3694091,80.1623948
752,10,Yatadolawatta,යටදොලවත්ත,யதடோலவத்த, NULL, NULL, NULL,12104,6.5201615,80.0730491
753,10,Yatawara Junction,යටවර හන්දිය,யாதவார சந்திப்பு, NULL, NULL, NULL,12006,6.6003243,80.0368488
754,11,Aludeniya,අලුදෙණිය,அலுதெனிய, NULL, NULL, NULL,20062,7.330693,80.5688428
755,11,Ambagahapelessa,අඹගහපැලැස්ස,அம்பகஹாபெலஸ்ஸ, NULL, NULL, NULL,20986,7.243567,81.0064442
756,11,Ambagamuwa Udabulathgama,අඹගමුව උඩබුලත්ගම,அம்பகமுவ உடபுலத்கம, NULL, NULL, NULL,20678,7.113249,80.6188156
757,11,Ambatenna,අඹතැන්න,அம்பத்தன்ன, NULL, NULL, NULL,20136,7.3529789,80.6132646
758,11,Ampitiya,අම්පිටිය,அம்பிட்டிய, NULL, NULL, NULL,20160,7.2686359,80.6632103
759,11,Ankumbura,අංකුඹුර,அங்கும்புரா, NULL, NULL, NULL,20150,7.4375189,80.5688428
760,11,Atabage,අටබාගෙ,அட்டாபேஜ், NULL, NULL, NULL,20574,7.1377326,80.6110631
761,11,Balana,බලන,பாலனா, NULL, NULL, NULL,20308,7.2722453,80.4882266
762,11,Bambaragahaela,බඹරගහඇල,பம்பரகஹேல, NULL, NULL, NULL,20644,7.2891461,80.7607589
763,11,Batagolladeniya,බටගොල්ලදෙණිය,படகொல்லதெனிய, NULL, NULL, NULL,20154,7.4150107,80.5785621
764,11,Batugoda,බටුගොඩ,படுகொட, NULL, NULL, NULL,20132,7.3656832,80.6054355
765,11,Batumulla,බටුමුල්ල,பத்துமுல்லா, NULL, NULL, NULL,20966,7.2644742,80.9843446
766,11,Bawlana,බව්ලන,பவுலானா, NULL, NULL, NULL,20218,7.2098227,80.7200557
767,11,Bopana,බෝපන,போபனா, NULL, NULL, NULL,20932,7.3068248,80.9000331
768,11,Danture,දංතුරේ,டான்ச்சர், NULL, NULL, NULL,20465,7.2820957,80.541067
769,11,Dedunupitiya,දේදුනුපිටිය,தெதுனுபிட்டிய, NULL, NULL, NULL,20068,7.326624,80.439606
770,11,Dekinda,දෙකිඳ,தேகிந்தா, NULL, NULL, NULL,20658,7.0161138,80.5166709
771,11,Deltota,දෙල්තොට,தெல்தொட்ட, NULL, NULL, NULL,20430,7.1726745,80.701571
772,11,Divulankadawala,දිවුලන්කදවල,திவுலன்கடவெல, NULL, NULL, NULL,51428,8.1117576,80.9290685
773,11,Dolapihilla,දොලපිහිල්ල,டோலாபிஹில்லா, NULL, NULL, NULL,20126,7.3950036,80.5799505
774,11,Dolosbage,දොලොස්බාගෙ,டோலோஸ்பேஜ், NULL, NULL, NULL,20510,7.0860812,80.4604643
775,11,Dunuwila,දුනුවිල,துனுவில, NULL, NULL, NULL,20824,7.3790749,80.6479524
776,11,Etulgama,ඇතුල්ගම,எதுல்கம, NULL, NULL, NULL,20202,7.2514354,80.6645275
777,11,Galaboda,ගලබොඩ,கலபோடா, NULL, NULL, NULL,20664,6.9811952,80.5271756
778,11,Galagedara,ගලගෙදර,கலகெதர, NULL, NULL, NULL,20100,7.3699683,80.5327324
779,11,Galaha,ගලහ,கலஹா, NULL, NULL, NULL,20420,7.1968444,80.6715317
780,11,Galhinna,ගල්හින්න,கல்ஹின்னா, NULL, NULL, NULL,20152,7.416022,80.5632884
781,11,Gampola,ගම්පොල,கம்பளை, NULL, NULL, NULL,20500,7.126777,80.564677
782,11,Gelioya,ගෙලිඔය,கெலி ஓய, NULL, NULL, NULL,20620,7.2153151,80.5979973
783,11,Godamunna,ගොඩමුන්න,கொடமுன்னா, NULL, NULL, NULL,20214,7.2280819,80.7006496
784,11,Gomagoda,ගොමගොඩ,கோமகொட, NULL, NULL, NULL,20184,7.305057,80.6188156
785,11,Gonagantenna,ගොනාගන්තැන්න,கோனகந்தென்ன, NULL, NULL, NULL,20712,7.2905715,80.6337262
786,11,Gonawalapatana,ගෝනවලපතන,கோணவலபதன, NULL, NULL, NULL,20656,7.2905715,80.6337262
787,11,Gunnepana,ගුන්නෑපාන,குன்னெபன, NULL, NULL, NULL,20270,7.322861,80.6591326
788,11,Gurudeniya,ගුරුදෙණිය,குருதெனிய, NULL, NULL, NULL,20189,7.2631139,80.7181651
789,11,Hakmana,හක්මන,ஹக்மன, NULL, NULL, NULL,81300,7.3143395,80.8041635
790,11,Handaganawa,හඳගනාව,ஹண்டகனாவா, NULL, NULL, NULL,20984,7.2673078,80.9926327
791,11,Handawalapitiya,හඳවලපිටිය,ஹண்டவலப்பிட்டிய, NULL, NULL, NULL,20438,7.0447008,80.5160608
792,11,Handessa,හඳැස්ස,ஹதெச, NULL, NULL, NULL,20480,7.2303052,80.582033
793,20,Hanguranketha,හඟුරන්කෙත,ஹங்குரன்கெத, NULL, NULL, NULL,20710,7.2905715,80.6337262
794,11,Harangalagama,හරංගලගම,ஹரங்களகம, NULL, NULL, NULL,20669,7.2905715,80.6337262
795,11,Hataraliyadda,හතරලියද්ද,ஹதரலியத்த, NULL, NULL, NULL,20060,7.336886,80.4718143
796,11,Hindagala,හිඳගල,ஹிந்தகல, NULL, NULL, NULL,20414,7.2367463,80.6035494
797,11,Hondiyadeniya,හොඳයාදෙණිය,ஹொண்டியதெனிய, NULL, NULL, NULL,20524,7.3210214,80.6158405
798,11,Hunnasgiriya,හුන්නස්ගිරිය,ஹு ன்னஸ்கிரிய, NULL, NULL, NULL,20948,7.2991707,80.8516173
799,11,Inguruwatta,ඉඟුරුවත්ත,இங்குருவத்த, NULL, NULL, NULL,60064,7.1767821,80.6021614
800,11,Jambugahapitiya,ජම්බුගහපිටිය,ஜம்புகஹபிட்டிய, NULL, NULL, NULL,20822,7.3595244,80.638935
801,11,Kadugannawa,කඩුගන්නාව,கடுகண்ணாவ, NULL, NULL, NULL,20300,7.2549725,80.5188396
802,11,Kahataliyadda,කහටලියද්ද,கஹடலியத்த, NULL, NULL, NULL,20924,7.3357798,80.4711537
803,11,Kalugala,කළුගල,கலுகல, NULL, NULL, NULL,20926,7.3869083,80.8972673
804,11,Kandy,මහනුවර,கண்டி, NULL, NULL, NULL,20000,7.2797462,80.6202033
805,11,Kapuliyadde,කපුලියද්ද,கபுலியத்தே, NULL, NULL, NULL,20206,7.2391178,80.7107233
806,11,Katugastota,කටුගස්තොට,கடுகஸ்தோட்டை, NULL, NULL, NULL,20800,7.3359903,80.6214005
807,11,Katukitula,කටුකිතුල,கடுகிடுல, NULL, NULL, NULL,20588,7.0815528,80.6679485
808,11,Kelanigama,කැළණිගම,களனிகம, NULL, NULL, NULL,20688,6.9764837,80.4815114
809,11,Kengalla,කෙන්ගල්ල,கெங்கல்லா, NULL, NULL, NULL,20186,7.2925366,80.7228277
810,11,Ketaboola,කැටබූල,கேட்டபூலா, NULL, NULL, NULL,20660,7.0101649,80.5896226
811,11,Ketakumbura,කැටකුඹුර,கேடகும்புரா, NULL, NULL, NULL,20306,7.2832756,80.6618234
812,11,Kobonila,කොබෝනීල,கோபோனிலா, NULL, NULL, NULL,20928,7.2905715,80.6337262
813,11,Kolabissa,කොළඹිස්ස,கோலாபிஸ்ஸா, NULL, NULL, NULL,20212,7.1692843,80.7324646
814,11,Kolongoda,කොලොන්ගොඩ,கொலோங்கோடா, NULL, NULL, NULL,20971,7.4721541,80.9456553
815,11,Kulugammana,කුළුගම්මන,குலுகம்மன, NULL, NULL, NULL,20048,7.3182742,80.5958519
816,11,Kumbukkandura,කුඹුක්කඳුර,கும்புக்கந்துர, NULL, NULL, NULL,20902,7.3045941,80.742141
817,11,Kumburegama,කුඹුරේගම,கும்புரேகம, NULL, NULL, NULL,20086,7.3509119,80.5477687
818,11,Kundasale,කුණ්ඩසාලෙ,குண்டசாலை, NULL, NULL, NULL,20168,7.2821995,80.6942758
819,11,Leemagahakotuwa,ලීමගහකොටුව,லீமகஹகொடுவ, NULL, NULL, NULL,20482,7.2153626,80.5710555
820,11,Ihala Kobbekaduwa,ඉහල කොබ්බෑකඩුව,இஹல கொப்பேகடுவ, NULL, NULL, NULL,20042,7.3128888,80.5602795
821,11,Lunugama,ලුණුගම,லுனுகம, NULL, NULL, NULL,11062,7.1983089,80.5806447
822,11,Lunuketiya Maditta,ලුණුකැටිය මඩිත්ත,லுனுகெட்டிய மடிட்டா, NULL, NULL, NULL,20172,7.2905715,80.6337262
823,11,Madawala Bazaar,මඩවල බසාර්,மடவளை பஜார், NULL, NULL, NULL,20260,7.3275593,80.6743053
824,11,Madawalalanda,මඩවලලන්ද,மடவலலந்த, NULL, NULL, NULL,32016,7.1841903,81.6747295
825,11,Madugalla,මඩුගල්ල,மதுகல்ல, NULL, NULL, NULL,20938,7.2584531,80.8834367
826,11,Madulkele,මඩුල්කැලේ,மதுல்கெலே, NULL, NULL, NULL,20840,7.3929234,80.7238996
827,11,Mahadoraliyadda,මහදොරලියද්ද,மஹதோரலியத்தா, NULL, NULL, NULL,20945,7.3357798,80.4711537
828,11,Mahamedagama,මහමැදගම,மஹாமேதகம, NULL, NULL, NULL,20216,7.2216032,80.714128
829,11,Mahanagapura,මහානාගපුර,மகாநாகபுரா, NULL, NULL, NULL,32018,6.3252079,81.2105713
830,11,Mailapitiya,මයිලපිටිය,மைலபிட்டிய, NULL, NULL, NULL,20702,7.2277943,80.7519272
831,11,Makkanigama,මක්කානිගම,மக்கனிகம, NULL, NULL, NULL,20828,7.345516,80.7034222
832,11,Makuldeniya,මකුල්දෙණිය,மகுல்தெனிய, NULL, NULL, NULL,20921,7.3404154,80.7796313
833,11,Mangalagama,මංගලගම,மங்களகம, NULL, NULL, NULL,32069,7.292147,80.63451
834,11,Mapakanda,මාපාකන්ද,மாபகண்டா, NULL, NULL, NULL,20662,7.2301701,80.6077132
835,11,Marassana,මාරස්සන,மாரஸ்சன, NULL, NULL, NULL,20210,7.2063603,80.7463852
836,20,Marymount Colony,මේරිමවුන්ට් ජනපදය,மேரிமவுண்ட் காலனி, NULL, NULL, NULL,20714,7.2905715,80.6337262
837,11,Mawatura,මාවතුර,மாவடுரா, NULL, NULL, NULL,20564,7.0880927,80.5732879
838,11,Medamahanuwara,මැදමහනුවර,மேதமஹனுவர, NULL, NULL, NULL,20940,7.2864584,80.8170167
839,11,Medawala Harispattuwa,මැදවල හාරිස්පත්තුව,மெடவல ஹாரிஸ்பத்துவ, NULL, NULL, NULL,20120,7.3575007,80.5743969
840,11,Meetalawa,මීතලාව,மீதலாவா, NULL, NULL, NULL,20512,7.1371268,80.5260006
841,11,Megoda Kalugamuwa,මෙගොඩ කළුගමුව,மெகொட களுகமுவ, NULL, NULL, NULL,20409,7.2071915,80.6090733
842,11,Menikdiwela,මැණික්දිවෙල,மெனிக்திவெல, NULL, NULL, NULL,20470,7.1448971,80.5383836
843,11,Menikhinna,මැණික්හින්න,மெனிகின்ன, NULL, NULL, NULL,20170,7.3174581,80.7020359
844,11,Mimure,මීමුරේ,மிமுரே, NULL, NULL, NULL,20923,7.4326453,80.8460822
845,11,Minigamuwa,මිණිගමුව,மினிகமுவ, NULL, NULL, NULL,20109,7.3413231,80.5035548
846,11,Minipe,මිණිපේ,மினிபே, NULL, NULL, NULL,20983,7.2274523,81.0009199
847,11,Moragahapallama,මොරගහපල්ලම,மொரகஹபல்லம, NULL, NULL, NULL,32012,7.3026905,80.6292799
848,11,Murutalawa,මුරුතලාව,முருதலாவ, NULL, NULL, NULL,20232,7.2986783,80.5688428
849,11,Muruthagahamulla,මුරුතගහමුල්ල,முறுதகஹாமுல்ல, NULL, NULL, NULL,20526,7.2070942,80.5868921
850,11,Nanuoya,නානුඔය,நானுஓயா, NULL, NULL, NULL,22150,6.9403158,80.7408429
851,11,Naranpanawa,නාරම්පනාව,நாரன்பானவ, NULL, NULL, NULL,20176,7.3441309,80.7332216
852,11,Narawelpita,නරවැල්පිට,நரவெல்பிட்ட, NULL, NULL, NULL,81302,7.2905715,80.6337262
853,11,Nawalapitiya,නාවලපිටිය,நாவலப்பிட்டி, NULL, NULL, NULL,20650,7.0447008,80.5160608
854,11,Nawathispane,නවතිස්පනේ,நவதிஸ்பனே, NULL, NULL, NULL,20670,7.0398172,80.6038578
855,11,Nillambe,නිල්ලඹ,நிலாம்பே, NULL, NULL, NULL,20418,7.1995017,80.6130054
856,11,Nugaliyadda,නුගලියද්ද,நுகலியத்தா, NULL, NULL, NULL,20204,7.2375464,80.6956128
857,11,Ovilikanda,ඕවිලිකන්ද,ஓவிலிகண்டா, NULL, NULL, NULL,21020,7.4525466,80.5841155
858,11,Pallekotuwa,පල්ලෙකොටුව,பல்லேகொடுவ, NULL, NULL, NULL,20084,6.0250143,80.2180408
859,11,Panwilatenna,පන්විලතැන්න,பன்விலதென்ன, NULL, NULL, NULL,20544,7.1558233,80.6319329
860,11,Paradeka,පරදෙකා,பரதேகா, NULL, NULL, NULL,20578,7.1238905,80.6188156
861,11,Pasbage,පස්බාගේ,பாஸ்பேஜ், NULL, NULL, NULL,20654,7.0078547,80.5327324
862,11,Pattitalawa,පට්ටිතලාව,பட்டித்தலாவ, NULL, NULL, NULL,20511,7.1122455,80.4722817
863,11,Peradeniya,පේරාදෙණිය,பேராதனை, NULL, NULL, NULL,20400,7.2698653,80.593833
864,11,Pilimatalawa,පිළිමතලාව,பிலிமத்தலாவை, NULL, NULL, NULL,20450,7.258844,80.5402589
865,11,Poholiyadda,පොහොලියද්ද,பொஹோலியத்தா, NULL, NULL, NULL,20106,7.2490284,80.6506149
866,11,Pubbiliya,පුබ්බිලිය,பப்பிலியா, NULL, NULL, NULL,21502,7.3862878,80.4840974
867,11,Pupuressa,පුපුරැස්ස,புபுரெஸ்ஸா, NULL, NULL, NULL,20546,7.1435886,80.6715317
868,11,Pussellawa,පුස්සැල්ලාව,புசல்லாவை, NULL, NULL, NULL,20580,7.1109827,80.6382413
869,11,Putuhapuwa,පුටුහපුව,புதுஹபுவா, NULL, NULL, NULL,20906,7.3359253,80.7560834
870,11,Rajawella,රජවැල්ල,ராஜவெல்ல, NULL, NULL, NULL,20180,7.2963549,80.7301035
871,11,Rambukpitiya,රඹුක්පිටිය,ரம்புக்பிட்டிய, NULL, NULL, NULL,20676,8.5661111,80.2263889
872,11,Rambukwella,රඹුක්වැල්ල,ரம்புக்வெல்ல, NULL, NULL, NULL,20128,7.2910047,80.7782463
873,11,Rangala,රංගල,ரங்கலா, NULL, NULL, NULL,20922,7.3229753,80.7754763
874,11,Rantembe,රන්ටැඹේ,ராண்டெம்பே, NULL, NULL, NULL,20990,7.1996059,80.9496288
875,11,Sangarajapura,සංඝරාජපුර,சங்கராஜபுரம், NULL, NULL, NULL,20044,7.321727,80.5182535
876,11,Senarathwela,සෙනරත්වෙල,செனரத்வெல, NULL, NULL, NULL,20904,7.2827172,80.7643952
877,11,Talatuoya,තලාතුඔය,தலதுஓயா, NULL, NULL, NULL,20200,7.2477619,80.6853986
878,11,Teldeniya,තෙල්දෙණිය,தெல்தெனிய, NULL, NULL, NULL,20900,7.3153819,80.7449309
879,11,Tennekumbura,තැන්නෙකුඹුර,தென்னகும்புரா, NULL, NULL, NULL,20166,7.2832756,80.6618234
880,11,Uda Peradeniya,උඩ පේරාදෙණිය,உடா பேராதனை, NULL, NULL, NULL,20404,7.2639942,80.6038495
881,11,Udahentenna,උඩහතැන්න,உடஹென்தென்ன, NULL, NULL, NULL,20506,7.0959259,80.5227928
882,11,Udatalawinna,උඩුතලවින්න,உடதலவின்ன, NULL, NULL, NULL,20802,7.3417496,80.6507268
883,11,Udispattuwa,උඩිස්පත්තුව,உடிஸ்பத்துவ, NULL, NULL, NULL,20916,7.3141577,80.7848247
884,11,Ududumbara,උඩුදුම්බර,உடதும்பறை, NULL, NULL, NULL,20950,7.3143863,80.8779038
885,11,Uduwahinna,උඩුවාහින්න,உடுவஹின்ன, NULL, NULL, NULL,20934,7.2905715,80.6337262
886,11,Uduwela,උඩුවෙල,உடுவெல, NULL, NULL, NULL,20164,7.2625716,80.6330095
887,11,Ulapane,උලපනේ,உலப்பனே, NULL, NULL, NULL,20562,7.0987645,80.5605111
888,11,Unuwinna,උනුවින්න,உனுவின்னா, NULL, NULL, NULL,20708,7.2052276,80.7687914
889,11,Velamboda,වෙලම්බොඩ,வெலம்பொட, NULL, NULL, NULL,20640,7.2009637,80.5480118
890,11,Watagoda,වටගොඩ,வடகொட, NULL, NULL, NULL,22110,7.3952386,80.5910567
891,11,Watagoda Harispattuwa,වටගොඩ හාරිස්පත්තුව,வடகொட ஹாரிஸ்பத்துவ, NULL, NULL, NULL,20134,7.3952386,80.5910567
892,11,Wattappola,වට්ටප්පොල,வட்டப்பொல, NULL, NULL, NULL,20454,7.2341176,80.541067
893,11,Weligampola,වැලිගම්පොළ,வெலிகம்பொல, NULL, NULL, NULL,20666,7.0421007,80.5188396
894,11,Wendaruwa,වෙන්ඩරුව,வெந்தருவ, NULL, NULL, NULL,20914,7.2651146,80.8170167
895,11,Weragantota,වේරගංතොට,வெரகந்தோட்டை, NULL, NULL, NULL,20982,7.3299144,80.985726
896,11,Werapitya,වේරපිට්‍ය,வெரபித்யா, NULL, NULL, NULL,20908,7.3645478,80.751382
897,11,Werellagama,වැරැල්ලගම,வெரல்லகம, NULL, NULL, NULL,20080,7.3157789,80.579505
898,11,Wettawa,වෑත්තෑව,வெட்டவா, NULL, NULL, NULL,20108,7.3643741,80.5116078
899,11,Yahalatenna,යහලතැන්න,யஹலதென்ன, NULL, NULL, NULL,20234,7.31478,80.5710906
900,11,Yatihalagala,යටිහලගල,யதிஹலகல, NULL, NULL, NULL,20034,7.2944042,80.5967206
901,12,Alawala,අලවල,அலவாலா, NULL, NULL, NULL,11122,7.1981361,80.2864862
902,12,Alawatura,අලවතුර,அலவத்துரா, NULL, NULL, NULL,71204,7.133333,80.333333
903,12,Alawwa,අලව්ව,அலவ்வ, NULL, NULL, NULL,60280,7.2954302,80.2366261
904,12,Algama,අල්ගම,அல்காமா, NULL, NULL, NULL,71607,7.1563247,80.165883
905,12,Alutnuwara,අළුත්නුවර,அளுத்நுவர, NULL, NULL, NULL,71508,6.6861457,80.7463852
906,12,Ambalakanda,අම්බලකන්ද,அம்பலகண்டா, NULL, NULL, NULL,71546,7.137673,80.44795
907,12,Ambulugala,අම්බුළුගල,அம்புலுகல, NULL, NULL, NULL,71503,7.2367653,80.413178
908,12,Amitirigala,අමිතිරිගල,அமிதிரிகல, NULL, NULL, NULL,71320,7.0298848,80.1847167
909,12,Ampagala,අම්පාගල,அம்பகல, NULL, NULL, NULL,71232,7.0799005,80.2906659
910,12,Anhandiya,අංහන්දිය,அன்ஹந்தியா, NULL, NULL, NULL,60074,7.4617172,80.4820124
911,12,Anhettigama,අංහෙට්ටිගම,அன்ஹெட்டிகம, NULL, NULL, NULL,71403,6.9242541,80.3770334
912,12,Aranayaka,අරනායක,அரநாயக, NULL, NULL, NULL,71540,7.1496651,80.4649829
913,12,Aruggammana,අරුග්ගම්මන,அருகம்மனா, NULL, NULL, NULL,71041,7.1162474,80.3095584
914,12,Batuwita,බටුවිට,படுவிட்ட, NULL, NULL, NULL,71321,6.746234,80.0395205
915,12,Beligala(Sab),බෙලිගල,பெலிகல(சப்), NULL, NULL, NULL,71044,7.2784586,80.2909631
916,12,Belihuloya,බෙලිහුල්ඔය,பெலிஹுலோயா, NULL, NULL, NULL,70140,6.7145912,80.7872185
917,12,Berannawa,බෙරන්නව,பெரன்னாவா, NULL, NULL, NULL,71706,7.0662755,80.402048
918,12,Bopitiya,බෝපිටිය,போபிட்டிய, NULL, NULL, NULL,60155,7.3201227,80.0786359
919,12,Bopitiya (SAB),බෝපිටිය (සබර),போபிட்டிய (எஸ்ஏபி), NULL, NULL, NULL,71612,7.1682683,80.1958755
920,12,Boralankada,බොරලන්කද,போரலங்காட, NULL, NULL, NULL,71418,6.9773499,80.3380213
921,12,Bossella,බොස්සැල්ල,போசெல்லா, NULL, NULL, NULL,71208,7.1472707,80.3978738
922,12,Bulathkohupitiya,බුලත්කොහුපිටිය,புளத்கொஹுபிட்டிய, NULL, NULL, NULL,71230,7.1045281,80.336047
923,12,Damunupola,දමුනුපොල,தமுனுபொல, NULL, NULL, NULL,71034,7.192517,80.3352364
924,12,Debathgama,දෙබත්ගම,தேபத்கம, NULL, NULL, NULL,71037,7.1783054,80.4187425
925,12,Dedugala,දේදුගල,டெடுகல, NULL, NULL, NULL,71237,7.0955645,80.4048306
926,12,Deewala Pallegama,දීවල පල්ලෙගම,தீவல பல்லேகம, NULL, NULL, NULL,71022,7.1729253,80.3622046
927,12,Dehiowita,දෙහිඕවිට,தெஹிஓவிட, NULL, NULL, NULL,71400,6.9638948,80.264191
928,12,Deldeniya,දෙල්දෙණිය,டெல்தெனியா, NULL, NULL, NULL,71009,7.2823005,80.361689
929,12,Deloluwa,දෙලෝලුව,டெலோலுவா, NULL, NULL, NULL,71401,7.2513317,80.3463754
930,12,Deraniyagala,දැරණියගල,தெரணியகல, NULL, NULL, NULL,71430,6.9349198,80.3380213
931,12,Dewalegama,දේවාලේගම,தேவாலகம, NULL, NULL, NULL,71050,7.2773796,80.3185252
932,12,Dewanagala,දෙවනගල,தெவனகல, NULL, NULL, NULL,71527,7.2180452,80.4729768
933,12,Dombemada,දොඹේමද,தொம்பேமடா, NULL, NULL, NULL,71115,7.3840963,80.3512482
934,12,Dorawaka,දොරවක,தொரவாக்கா, NULL, NULL, NULL,71601,7.1891081,80.2242624
935,12,Dunumala,දුනුමල,துனுமாலா, NULL, NULL, NULL,71605,7.1473524,80.2126109
936,12,Galapitamada,ගලපිටමඩ,கலாபிடமடா, NULL, NULL, NULL,71603,7.1393484,80.2347453
937,12,Galatara,ගලතර,கலாட்டாரா, NULL, NULL, NULL,71505,7.2513317,80.3463754
938,12,Galigamuwa Town,ගලිගමුව නගරය,கலிகமுவ நகரம், NULL, NULL, NULL,71350,7.2359407,80.3115612
939,12,Gallella,ගල්ලෑල්ල,கல்லேல்ல, NULL, NULL, NULL,70062,6.7077985,80.4966062
940,12,Galpatha(Sab),ගල්පාත (සබරගමුව),கல்பதா(சப்), NULL, NULL, NULL,71312,7.0531074,80.2795195
941,12,Gantuna,ගන්තුන,கன்டுனா, NULL, NULL, NULL,71222,7.1274682,80.4048306
942,12,Getahetta,ගැටහැත්ත,கெட்டஹெட்டா, NULL, NULL, NULL,70620,6.9058496,80.2266312
943,12,Godagampola,ගොඩගම්පොල,கொடகம்பொல, NULL, NULL, NULL,70556,6.8809793,80.3172952
944,12,Gonagala,ගෝනාගල,கோனகல, NULL, NULL, NULL,71318,7.0181102,80.2093537
945,12,Hakahinna,හකහින්න,ஹகாஹின்னா, NULL, NULL, NULL,71352,7.2070497,80.3017042
946,12,Hakbellawaka,හක්බෙල්ලවක,ஹக்பெல்லாவகா, NULL, NULL, NULL,71715,6.9945504,80.3244362
947,12,Halloluwa,හල්ලෝලුව,ஹல்லோலுவா, NULL, NULL, NULL,20032,7.3018682,80.593833
948,12,Hedunuwewa,හැදුනුවැව,ஹெதுனுவெவ, NULL, NULL, NULL,22024,7.056778,80.6535011
949,12,Hemmatagama,හෙම්මාතගම,ஹெம்மாதகம, NULL, NULL, NULL,71530,7.1733601,80.5007755
950,12,Hewadiwela,හේවාදිවෙල,ஹெவடிவெல, NULL, NULL, NULL,71108,7.3706708,80.3783916
951,12,Hingula,හිඟුල,ஹிங்குலா, NULL, NULL, NULL,71520,7.2479128,80.468111
952,12,Hinguralakanda,හිඟුරලකන්ද,ஹிங்குரலகண்டா, NULL, NULL, NULL,71417,6.9132347,80.278303
953,12,Hingurana,හිඟුරාන,ஹிங்குரானா, NULL, NULL, NULL,32010,7.2269176,81.6747295
954,12,Hiriwadunna,හිරිවඩුන්න,ஹிரிவடுன்னா, NULL, NULL, NULL,71014,7.2874549,80.3846542
955,12,Ihala Walpola,ඉහල වල්පොල,இஹல வல்பொல, NULL, NULL, NULL,80134,7.3484975,80.402048
956,12,Ihalagama,ඉහළගම,இஹலகம, NULL, NULL, NULL,70144,7.222364,80.2772435
957,12,Imbulana,ඉඹුලාන,இம்புலானா, NULL, NULL, NULL,71313,7.0724127,80.2502535
958,12,Imbulgasdeniya,ඉඹුල්ගස්දෙණිය,இம்புல்கஸ்தெனிய, NULL, NULL, NULL,71055,7.30986,80.3183511
959,12,Kabagamuwa,කබගමුව,கபாகமுவ, NULL, NULL, NULL,71202,7.136413,80.3397618
960,12,Kahapathwala,කහපත්වල,கஹபத்வாலா, NULL, NULL, NULL,60062,7.393882,80.4646353
961,12,Kandaketya,කන්දකැටිය,கந்தகெட்டிய, NULL, NULL, NULL,90020,7.2508167,80.371457
962,12,Kannattota,කන්නත්තොට,கண்னத்தோட்ட, NULL, NULL, NULL,71372,7.0947226,80.2822811
963,12,Karagahinna,කරගහහින්න,கரகஹின்ன, NULL, NULL, NULL,21014,7.2070497,80.3017042
964,12,Kegalle,කෑගල්ල,கேகாலை, NULL, NULL, NULL,71000,7.2513317,80.3463754
965,12,Kehelpannala,කෙහෙල්පන්නල,கெஹெல்பன்னல, NULL, NULL, NULL,71533,7.166603,80.519245
966,12,Ketawala Leula,කැටවල ලෙව්ල,கேடவாலா லியூலா, NULL, NULL, NULL,20198,7.26166,80.6805455
967,12,Kitulgala,කිතුල්ගල,கிதுல்கல, NULL, NULL, NULL,71720,6.9897845,80.4270885
968,12,Kondeniya,කොන්ඩෙනිය,கொண்டெனிய, NULL, NULL, NULL,71501,7.2720556,80.3811751
969,12,Kotiyakumbura,කොටියාකුඹුර,கோடியாகும்புர, NULL, NULL, NULL,71370,7.1243401,80.2871828
970,12,Lewangama,ලෙවන්ගම,லெவங்கம, NULL, NULL, NULL,71315,7.1074358,80.2421672
971,12,Mahabage,මහබාගේ,மஹாபாகே, NULL, NULL, NULL,71722,7.0220934,80.4493405
972,12,Makehelwala,මාකෙහෙල්වල,மகேல்வல, NULL, NULL, NULL,71507,7.2819386,80.4701964
973,12,Malalpola,මලල්පොල,மலல்பொல, NULL, NULL, NULL,71704,7.0516692,80.3380213
974,12,Maldeniya,මල්දෙණිය,மல்தெனிய, NULL, NULL, NULL,22021,6.9359566,80.2760318
975,12,Maliboda,මාලිබොඩ,மலிபோடா, NULL, NULL, NULL,71411,6.8905922,80.439606
976,12,Maliyadda,මාලියද්ද,மாலியத்த, NULL, NULL, NULL,90022,6.9005123,79.8684227
977,12,Malmaduwa,මල්මඩුව,மல்மதுவ, NULL, NULL, NULL,71325,7.1367773,80.2781262
978,12,Marapana,මාරපන,மரபனா, NULL, NULL, NULL,70041,6.6589558,80.4298704
979,12,Mawanella,මාවනැල්ල,மாவனெல்ல, NULL, NULL, NULL,71500,7.2310305,80.4776714
980,12,Meetanwala,මීටන්වල,மீதன்வாலா, NULL, NULL, NULL,60066,7.2513317,80.3463754
981,12,Migastenna Sabara,මිගස්තැන්න සබර,மிகஸ்தென்னா சபரா, NULL, NULL, NULL,71716,7.2522704,80.3396385
982,12,Miyanawita,මියනවිට,மியானாவிட்ட, NULL, NULL, NULL,71432,6.8861302,80.361785
983,12,Molagoda,මොලගොඩ,மொலகொட, NULL, NULL, NULL,71016,7.2597954,80.398848
984,12,Morontota,මොරොන්තොට,மொறொன்தொட, NULL, NULL, NULL,71220,7.1757188,80.3589049
985,12,Narangala,නාරංගල,நாரங்கலா, NULL, NULL, NULL,90064,7.173944,80.434364
986,12,Narangoda,නාරංගොඩ,நாரங்கொட, NULL, NULL, NULL,60152,7.1970128,80.2962385
987,12,Nattarampotha,නට්ටාරම්පොත,நாட்டரம்பொத, NULL, NULL, NULL,20194,7.2808376,80.6729185
988,12,Nelundeniya,නෙලුන්දෙනිය,நெலுந்தெனிய, NULL, NULL, NULL,71060,7.2308443,80.26001
989,12,Niyadurupola,නියදුරුපොළ,நியதுருபொல, NULL, NULL, NULL,71602,7.1675189,80.2184025
990,12,Noori,නූරි,நூரி, NULL, NULL, NULL,71407,6.9448541,80.4027436
991,12,Pannila,පන්නිල,பன்னிலா, NULL, NULL, NULL,12114,6.8683966,80.324096
992,12,Pattampitiya,පට්ටම්පිටිය,பட்டம்பிட்டிய, NULL, NULL, NULL,71130,7.3118239,80.4353499
993,12,Pilawala,පිලවල,பிலாவல, NULL, NULL, NULL,20196,7.3014952,80.3867417
994,12,Pothukoladeniya,පොතුකොලදෙණිය,பொதுகொலதெனிய, NULL, NULL, NULL,71039,7.1674771,80.3150433
995,12,Puswelitenna,පුස්වැලිතැන්න,புஸ்வெலிதென்ன, NULL, NULL, NULL,60072,7.2508167,80.371457
996,12,Rambukkana,රඹුක්කන,ரம்புக்கன, NULL, NULL, NULL,71100,7.2792272,80.3833803
997,12,Rilpola,රිල්පොල,ரில்பொல, NULL, NULL, NULL,90026,6.9546193,81.064568
998,12,Rukmale,රුක්මලේ,ருக்மலே, NULL, NULL, NULL,11129,6.8524683,79.9803415
999,12,Ruwanwella,රුවන්වැල්ල,ருவன்வெல்ல, NULL, NULL, NULL,71300,7.0458735,80.2537063
1000,12,Samanalawewa,සමනලවැව,சமனலவெவ, NULL, NULL, NULL,70142,6.675005,80.7865558
1001,12,Seaforth Colony,සීෆෝර්ත් ජනපදය,சீஃபோர்த் காலனி, NULL, NULL, NULL,71708,7.2513317,80.3463754
1002,5,Colombo 2,කොළඹ 2,கொழும்பு 2, 'Slave Island', 'කොම්පඤ්ඤ වීදිය', 'கொம்பனித்தெரு',200,6.9199331,79.8540274
1003,12,Spring Valley,වසන්ත නිම්නය,வசந்த பள்ளத்தாக்கு, NULL, NULL, NULL,90028,7.2513317,80.3463754
1004,12,Talgaspitiya,තල්ගස්පිටිය,தல்கஸ்பிட்டிய, NULL, NULL, NULL,71541,7.1737956,80.4765543
1005,12,Teligama,තෙලිගම,தெலிகம, NULL, NULL, NULL,71724,7.2513317,80.3463754
1006,12,Tholangamuwa,තෝලංගමුව,தோலங்கமுவா, NULL, NULL, NULL,71619,7.2378107,80.2355468
1007,12,Thotawella,තොටවැල්ල,தொட்டவெல்ல, NULL, NULL, NULL,71106,7.236394,80.314955
1008,12,Udaha Hawupe,උඩහ හවුපේ,உடஹா ஹவுபே, NULL, NULL, NULL,70154,7.2513317,80.3463754
1009,12,Udapotha,උඩපොත,உடபோத, NULL, NULL, NULL,71236,7.0975869,80.3742163
1010,12,Uduwa,උඩුව,உடுவா, NULL, NULL, NULL,20052,7.1085668,80.3909164
1011,12,Undugoda,උඳුගොඩ,உண்டுகொட, NULL, NULL, NULL,71200,7.139777,80.3575128
1012,12,Ussapitiya,උස්සපිටිය,உஸ்ஸபிட்டிய, NULL, NULL, NULL,71510,7.2161602,80.4465594
1013,12,Wahakula,වහකුල,வஹாகுல, NULL, NULL, NULL,71303,7.0675198,80.2070328
1014,12,Waharaka,වහරක,வஹரக, NULL, NULL, NULL,71304,7.0794637,80.1988393
1015,12,Wanaluwewa,වනළුවැව,வானலுவெவ, NULL, NULL, NULL,11068,7.2513317,80.3463754
1016,12,Warakapola,වරකාපොල,வரகாபொல, NULL, NULL, NULL,71600,7.2268033,80.1958755
1017,12,Watura,වතුර,வடுரா, NULL, NULL, NULL,71035,7.2513317,80.3463754
1018,12,Weeoya,වී ඔය,வீோய, NULL, NULL, NULL,71702,7.0632213,80.3357139
1019,12,Wegalla,වෑගල්ල,வேகல்லா, NULL, NULL, NULL,71234,7.2513317,80.3463754
1020,12,Weligalla,වැලිගල්ල,வெலிகல்ல, NULL, NULL, NULL,20610,7.1888765,80.5914038
1021,12,Welihelatenna,වැලිහෙලතැන්න,வெலிஹெலதென்ன, NULL, NULL, NULL,71712,7.2831171,80.3845433
1022,12,Wewelwatta,වේවැල්වත්ත,வேவெல்வத்த, NULL, NULL, NULL,70066,6.7052659,80.4761054
1023,12,Yatagama,යටගම,யதகம, NULL, NULL, NULL,71116,7.3301056,80.3578492
1024,12,Yatapana,යටපාන,யதபன, NULL, NULL, NULL,71326,7.1315874,80.3075639
1025,12,Yatiyantota,යටියන්තොට,யாட்டியாந்தோட்டை, NULL, NULL, NULL,71700,7.0288824,80.2955419
1026,12,Yattogoda,යට්ටෝගොඩ,யட்டோகொட, NULL, NULL, NULL,71029,7.2443374,80.2683718
1027,13,Kandavalai,කණ්ඩාවලයි,கண்டாவளை, NULL, NULL, NULL,42508,9.4090998,80.5218661
1028,13,Karachchi,කරච්චි,கராச்சி, NULL, NULL, NULL,NULL,9.3835227,80.4084065
1029,13,Kilinochchi,කිළිනොච්චි,கிளிநொச்சி, NULL, NULL, NULL,42400,9.3802886,80.3769999
1030,13,Pachchilaipalli,පච්චිලෙයිපල්ලි,பச்சிலைப்பள்ளி, NULL, NULL, NULL,42550,9.5673228,80.3881333
1031,13,Poonakary,පූනකරි,பூநகரி, NULL, NULL, NULL,42600,9.5033109,80.2112164
1032,11,Akurana,අකුරණ,அக்குரணை, NULL, NULL, NULL,20850,7.3688959,80.6131225
1033,14,Alahengama,අලහෙන්ගම,அலஹெங்கம, NULL, NULL, NULL,60416,7.4817695,80.3608876
1034,14,Alahitiyawa,අලහිටියාව,அலஹிதியாவ, NULL, NULL, NULL,60182,7.4620509,80.0437123
1035,14,Ambakote,අඹකොටේ,அம்பாகோட், NULL, NULL, NULL,60036,7.4939428,80.4576835
1036,14,Ambanpola,අඹන්පොල,அம்பன்பொல, NULL, NULL, NULL,60650,7.9181144,80.2404959
1037,14,Andiyagala,ආඬියාගල,ஆண்டியகல, NULL, NULL, NULL,50112,7.4666671,80.1333329
1038,14,Anukkane,අනුක්කනේ,அனுக்கனே, NULL, NULL, NULL,60214,7.5025804,80.1233175
1039,14,Aragoda,අරංගොඩ,அரகோடா, NULL, NULL, NULL,60308,7.3646722,80.3477676
1040,14,Ataragalla,අටරගල්ල,அதரகல்ல, NULL, NULL, NULL,60706,7.9180416,80.2948453
1041,14,Awulegama,අවුලේගම,அவுலேகம, NULL, NULL, NULL,60462,7.4817695,80.3608876
1042,14,Balalla,බලල්ල,பலல்லா, NULL, NULL, NULL,60604,7.8070926,80.2542698
1043,14,Bamunukotuwa,බමුණකොටුව,பமுனாகொடுவ, NULL, NULL, NULL,60347,7.5708874,80.2474657
1044,14,Bandara Koswatta,බන්ඩාර කොස්වත්ත,பண்டார கொஸ்வத்த, NULL, NULL, NULL,60424,7.6120712,80.1749516
1045,14,Bingiriya,බින්ගිරිය,பிங்கிரிய, NULL, NULL, NULL,60450,7.5982234,79.937219
1046,14,Bogamulla,බෝගමුල්ල,போகமுல்ல, NULL, NULL, NULL,60107,7.4572247,80.1679799
1047,14,Boraluwewa,බොරළුවැව,பொரலுவெவ, NULL, NULL, NULL,60437,7.6850623,80.0447602
1048,14,Boyagane,බෝයගානෙ,போயாகனே, NULL, NULL, NULL,60027,7.449993,80.3421984
1049,14,Bujjomuwa,බුජ්ජෝමුව,புஜ்ஜோமுவா, NULL, NULL, NULL,60291,7.2736138,80.2056382
1050,14,Buluwala,බුලුවල,புலுவலா, NULL, NULL, NULL,60076,7.480418,80.4733029
1051,14,Dadayamtalawa,දඩයම්තලාව,ததயம்தலவ, NULL, NULL, NULL,32046,7.4817695,80.3608876
1052,14,Dambadeniya,දඹදෙණිය,தம்பதெனிய, NULL, NULL, NULL,60130,7.3697147,80.1512317
1053,14,Daraluwa,දරලුව,தரலுவ, NULL, NULL, NULL,60174,7.3553188,79.9836108
1054,14,Deegalla,දීගල්ල,டீகல்லா, NULL, NULL, NULL,60228,7.5112438,80.0339312
1055,14,Demataluwa,දෙමටලුව,தெமதலுவ, NULL, NULL, NULL,60024,7.5178665,80.2879756
1056,14,Demuwatha,දෙමුවත,தேமுவாத, NULL, NULL, NULL,70332,7.4868473,80.3651492
1057,14,Diddeniya,දෙණියාය,தித்தெனிய, NULL, NULL, NULL,60544,7.6990485,80.4605036
1058,14,Digannewa,දිගන්නෑව,திகன்னேவா, NULL, NULL, NULL,60485,7.8933155,80.1009796
1059,14,Divullegoda,දිවුලේගොඩ,திவுல்லேகொட, NULL, NULL, NULL,60472,7.7626649,80.2016335
1060,14,Diyasenpura,දියසෙන්පුර,தியசென்புர, NULL, NULL, NULL,51504,8.1323655,81.0205985
1061,14,Dodangaslanda,දොඩන්ගස්ලන්ද,தொடங்கஸ்லாண்டா, NULL, NULL, NULL,60530,7.5756774,80.524397
1062,14,Doluwa,දොළුව,டோலுவா, NULL, NULL, NULL,20532,7.6215647,80.4187425
1063,14,Doragamuwa,දොරගමුව,தொரகமுவா, NULL, NULL, NULL,20816,7.3658955,80.6562753
1064,14,Doratiyawa,දොරටියාව,தொரட்டியவா, NULL, NULL, NULL,60013,7.4534626,80.3940473
1065,14,Dunumadalawa,දුනුමඩවල,துனுமடலாவ, NULL, NULL, NULL,50214,7.2809096,80.6422239
1066,14,Dunuwilapitiya,දුනුවිලපිටිය,துனுவிலப்பிட்டிய, NULL, NULL, NULL,21538,7.4817695,80.3608876
1067,14,Ehetuwewa,ඇහැටුවැව,எஹடுவெவ, NULL, NULL, NULL,60716,7.9356761,80.3461876
1068,14,Elibichchiya,ඇලිබිච්චිය,எலிபிச்சியா, NULL, NULL, NULL,60156,7.3142991,80.0562864
1069,14,Embogama,එම්බෝගම,எம்போகம, NULL, NULL, NULL,60718,7.8233009,80.324096
1070,14,Etungahakotuwa,ඇතුන්ගහකොටුව,எதுங்கஹகொடுவ, NULL, NULL, NULL,60266,7.5122353,79.9677049
1071,14,Galadivulwewa,ගලදිවුල්වැව,கலாடிவுல்வெவ, NULL, NULL, NULL,50210,7.4817695,80.3608876
1072,14,Galgamuwa,ගල්ගමුව,கல்கமுவ, NULL, NULL, NULL,60700,7.9864944,80.2878794
1073,14,Gallellagama,ගල්ලෑල්ලගම,கல்லெல்லாகம, NULL, NULL, NULL,20095,7.4817695,80.3608876
1074,14,Gallewa,ගල්ලෑව,கல்லேவா, NULL, NULL, NULL,60712,7.8870117,80.0618743
1075,14,Ganegoda,ගණේගොඩ,கணேகொட, NULL, NULL, NULL,80440,7.633268,80.463245
1076,14,Girathalana,ගිරාතලන,கிராதலான, NULL, NULL, NULL,60752,8.0347611,80.4103776
1077,14,Gokaralla,ගොකරුල්ල,கோகரல்லா, NULL, NULL, NULL,60522,7.5988685,80.4827074
1078,14,Gonawila,ගොනාවිල,கோனாவில, NULL, NULL, NULL,60170,7.3988063,80.2000596
1079,14,Halmillawewa,හල්මිල්ලවැව,ஹல்மில்லவெவ, NULL, NULL, NULL,60441,7.7707563,80.4938267
1080,14,Handungamuwa,හඳුන්ගමුව,ஹந்துங்கமுவ, NULL, NULL, NULL,21536,7.4817695,80.3608876
1081,14,Harankahawa,හරන්කහව,ஹரன்காவா, NULL, NULL, NULL,20092,7.4817695,80.3608876
1082,14,Helamada,හෙළමඩය,ஹெலமடா, NULL, NULL, NULL,71046,7.4817695,80.3608876
1083,14,Hengamuwa,හේන්ගමුව,ஹெங்கமுவ, NULL, NULL, NULL,60414,7.7003578,80.1121493
1084,14,Hettipola,හෙට්ටිපොල,ஹெட்டிபொல, NULL, NULL, NULL,60430,7.5331124,80.9152434
1085,14,Hewainna,හේවායින්න,ஹெவைன்னா, NULL, NULL, NULL,10714,6.8975582,80.1958755
1086,14,Hilogama,හිලෝගම,ஹிலோகமா, NULL, NULL, NULL,60486,7.4817695,80.3608876
1087,14,Hindagolla,හිඳගොල්ල,ஹிந்தகொல்ல, NULL, NULL, NULL,60034,7.4866705,80.4160783
1088,14,Hiriyala Lenawa,හිරියාල ලේනාව,ஹிரியால லெனாவா, NULL, NULL, NULL,60546,7.6388737,80.4743669
1089,14,Hiruwalpola,හිරුවල්පොල,ஹிருவல்பொல, NULL, NULL, NULL,60458,7.5477803,79.9374582
1090,14,Horambawa,හොරඹාව,ஹொரம்பாவா, NULL, NULL, NULL,60181,7.4572247,80.1679799
1091,14,Hulogedara,හුලොගෙදර,ஹுலோகெதர, NULL, NULL, NULL,60474,7.7895443,80.1908182
1092,14,Hulugalla,හුළුගල්ල,ஹுலுகல்ல, NULL, NULL, NULL,60477,7.5924375,80.5799531
1093,14,Ihala Gomugomuwa,ඉහළ ගොමුගොමුව,இஹல கோமுகோமுவ, NULL, NULL, NULL,60211,7.4703895,80.0453231
1094,14,Ihala Katugampala,ඉහළ කටුගම්පල,இஹல கடுகம்பலா, NULL, NULL, NULL,60135,7.3947037,80.0987505
1095,14,Indulgodakanda,ඉඳුල්ගොඩකන්ද,இந்துல்கொடகந்த, NULL, NULL, NULL,60016,7.4233668,80.4076132
1096,14,Ithanawatta,ඉතනවත්ත,இதனவத்த, NULL, NULL, NULL,60025,7.4817695,80.3608876
1097,14,Kadigawa,කඩිගාව,கடிகாவா, NULL, NULL, NULL,60492,7.7191983,80.0007142
1098,14,Kalankuttiya,කලංකුට්ටිය,கலங்குட்டிய, NULL, NULL, NULL,50174,7.4868473,80.3651492
1099,14,Kalatuwawa,කලටුවාව,கலதுவாவ, NULL, NULL, NULL,10718,6.85,80.2
1100,14,Kalugamuwa,කළුගමුව,களுகமுவ, NULL, NULL, NULL,60096,7.392159,80.4465594
1101,14,Kanadeniyawala,කනදෙණියවල,கனதெனியாவல, NULL, NULL, NULL,60054,7.4381399,80.5339344
1102,14,Kanattewewa,කනත්තවැව,கனத்தவெவ, NULL, NULL, NULL,60422,7.6185216,80.2070329
1103,14,Kandegedara,කන්දේගෙදර,கண்டேகெதர, NULL, NULL, NULL,90070,7.3529545,80.20773
1104,14,Karagahagedara,කරගහගෙදර,கரகஹகெதர, NULL, NULL, NULL,60106,7.4778593,80.2126109
1105,14,Karambe,කරඹේ,கரம்பே, NULL, NULL, NULL,60602,7.8075691,80.3408061
1106,14,Katiyawa,කටියාව,கடியாவா, NULL, NULL, NULL,50261,7.6268738,80.5501218
1107,14,Katupota,කටුපොත,கடுப்போட, NULL, NULL, NULL,60350,7.5505345,80.1908642
1108,14,Kawudulla,කවුඩුල්ල,கவுடுல்லா, NULL, NULL, NULL,51414,8.1610181,80.9138626
1109,14,Kawuduluwewa Stagell,කවුඩුළුවැව ස්ටැගල්,கவுடுலுவெவ ஸ்டேகல், NULL, NULL, NULL,51514,7.4817695,80.3608876
1110,14,Kekunagolla,කැකුනගොල්ල,கெகுனகொல்ல, NULL, NULL, NULL,60183,7.4983647,80.1735565
1111,14,Keppitiwalana,කැප්පෙටිවලාන,கெப்பிட்டிவலனா, NULL, NULL, NULL,60288,7.3225771,80.1902963
1112,14,Kimbulwanaoya,කිඹුල්වානඔය,கிம்புல்வானாஓயா, NULL, NULL, NULL,60548,7.4817695,80.3608876
1113,14,Kirimetiyawa,කිරිමැටියාව,கிரிமெத்தியாவ, NULL, NULL, NULL,60184,7.5123431,80.1414627
1114,14,Kirindawa,කිරින්දෑව,கிரிந்தாவா, NULL, NULL, NULL,60212,7.4967323,80.1009796
1115,14,Kirindigalla,කිරිඳිගොල්ල,கிரிண்டிகல்ல, NULL, NULL, NULL,60502,7.5532881,80.4799273
1116,14,Kithalawa,කිතලෑව,கிதலாவ, NULL, NULL, NULL,60188,7.4593359,80.1009796
1117,14,Kitulwala,කිතුල්වල,கித்துல்வல, NULL, NULL, NULL,11242,7.5063278,80.5355107
1118,14,Kobeigane,කොබෙයිගනේ,கொபெய்கனே, NULL, NULL, NULL,60410,7.6605768,80.1266159
1119,14,Kohilagedara,කොහිලගෙදර,கோஹிலகெதர, NULL, NULL, NULL,60028,7.4058609,80.338539
1120,14,Konwewa,කොන්වැව,கான்வேவா, NULL, NULL, NULL,60630,7.9849842,80.2809129
1121,14,Kosdeniya,කොස්දෙනිය,கொஸ்தெனிய, NULL, NULL, NULL,60356,7.5726027,80.1456496
1122,14,Kosgolla,කොස්ගල,கொஸ்கொல்ல, NULL, NULL, NULL,60029,7.401018,80.3930037
1123,14,Kotagala,කොටගල,கொட்டகலை, NULL, NULL, NULL,22080,6.9296806,80.6049374
1124,5,Colombo 13,කොළඹ 13,கொழும்பு 13, 'Kotahena', 'කොටහේන', 'கொட்டாஞ்சேனை',1300,6.9487664,79.8604831
1125,14,Kotawehera,කොටවෙහෙර,கொடவெஹர, NULL, NULL, NULL,60483,7.8090007,80.0779773
1126,14,Kudagalgamuwa,කුඩාගල්ගමුව,குடகல்கமுவ, NULL, NULL, NULL,60003,7.557008,80.3449831
1127,14,Kudakatnoruwa,කුඩාකට්නෝරුව,குடகத்னொறுவ, NULL, NULL, NULL,60754,7.4817695,80.3608876
1128,14,Kuliyapitiya,කුලියාපිටිය,குளியபிட்டிய, NULL, NULL, NULL,60200,7.472123,80.0446221
1129,14,Kumaragama,කුමාරගම,குமாரகம, NULL, NULL, NULL,51412,7.4817695,80.3608876
1130,14,Kumbukgeta,කුඹුක්ගැට,கும்பக்கேடா, NULL, NULL, NULL,60508,7.6724218,80.4159603
1131,14,Kumbukwewa,කුඹුක්වැව,கும்பக்வெவ, NULL, NULL, NULL,60506,7.6405056,80.4270885
1132,14,Kuratihena,කුරටිහේන,குறடிஹேன, NULL, NULL, NULL,60438,7.4817695,80.3608876
1133,14,Kurunegala,කුරුණෑගල,குருநாகல், NULL, NULL, NULL,60000,7.4948369,80.3783842
1134,14,Ibbagamuwa,ඉබ්බාගමුව,இப்பாகமுவ, NULL, NULL, NULL,60500,7.5554101,80.456443
1135,14,Ihala Kadigamuwa,ඉහළ කඩිගමුව,இஹல கடிகமுவ, NULL, NULL, NULL,60238,7.4415547,80.0227514
1136,14,Lihiriyagama,ලිහිරියාගම,லிஹிரியாகம, NULL, NULL, NULL,61138,7.3475559,79.9346603
1137,14,Illagolla,ඉල්ලගොල්ල,இல்லகொல்ல, NULL, NULL, NULL,20724,7.1673697,80.8173364
1138,14,Ilukhena,ඉලුක්හේන,இலுகென, NULL, NULL, NULL,60232,7.5304271,80.0022567
1139,14,Lonahettiya,ලෝනහෙට්ටිය,லோனஹெட்டிய, NULL, NULL, NULL,60108,7.5115471,80.2251603
1140,14,Madahapola,මඩහපොල,மதஹபொல, NULL, NULL, NULL,60552,7.4505199,80.1943397
1141,14,Madakumburumulla,මඩකුඹුරුමුල්ල,மடகும்புருமுல்ல, NULL, NULL, NULL,60209,7.4462604,79.9947956
1142,14,Madalagama,මඩලගම,மதலகம, NULL, NULL, NULL,70158,7.343168,80.3094719
1143,14,Madawala Ulpotha,මඩවල උල්පොත,மடவல உல்பொத, NULL, NULL, NULL,21074,7.6155983,80.6354665
1144,14,Maduragoda,මදුරගොඩ,மதுரகோட, NULL, NULL, NULL,60532,7.5763802,80.5493071
1145,14,Maeliya,මාඑලිය,மாலியா, NULL, NULL, NULL,60512,7.7475284,80.4159603
1146,14,Magulagama,මගුලාගම,மகுலகம, NULL, NULL, NULL,60221,7.6706375,80.2181886
1147,14,Maha Ambagaswewa,මහ අඹගස්වැව,மஹா அம்பகஸ்வெவ, NULL, NULL, NULL,51518,8.2097853,81.0353202
1148,14,Mahagalkadawala,මහගල්කඩවල,மஹகல்கடவல, NULL, NULL, NULL,60731,8.0563911,80.2823063
1149,14,Mahagirilla,මහගිරිල්ල,மஹாகிரில்லா, NULL, NULL, NULL,60479,7.8292354,80.1375299
1150,14,Mahamukalanyaya,මහාමුකලන්යාය,மஹாமுகாலந்யாய, NULL, NULL, NULL,60516,7.5626526,80.4187425
1151,14,Mahananneriya,මහනන්නේරිය,மகாநன்னெரியா, NULL, NULL, NULL,60724,8.0015811,80.1861116
1152,14,Mahapallegama,මහපල්ලේගම,மஹாபல்லேகம, NULL, NULL, NULL,71063,7.0999524,80.2077784
1153,14,Maharachchimulla,මහරච්චිමුල්ල,மஹராச்சிமுல்ல, NULL, NULL, NULL,60286,7.3496056,80.2070328
1154,14,Mahatalakolawewa,මහතලාකොළවැව,மஹாதலகொலவெவ, NULL, NULL, NULL,51506,7.4817695,80.3608876
1155,14,Mahawewa,මහවැව,மஹவெவ, NULL, NULL, NULL,61220,7.4598054,79.8263169
1156,14,Maho,මහව,மாகோ, NULL, NULL, NULL,60600,7.8193947,80.2711588
1157,14,Makulewa,මකුලෑව,மகுலேவா, NULL, NULL, NULL,60714,7.9959459,80.3463754
1158,14,Makulpotha,මකුල්පොත,மகுல்பொத, NULL, NULL, NULL,60514,7.7441603,80.4451687
1159,14,Makulwewa,මකුල්වැව,மகுல்வெவா, NULL, NULL, NULL,60578,7.6096126,80.363081
1160,14,Malagane,මලගනේ,மலகனே, NULL, NULL, NULL,60404,7.5939817,80.0713031
1161,14,Mandapola,මණ්ඩපොල,மண்டபொல, NULL, NULL, NULL,60434,7.6359413,80.1065646
1162,14,Maspotha,මාස්පොත,மாஸ்பொத, NULL, NULL, NULL,60344,7.4817695,80.3608876
1163,14,Mawathagama,මාවතගම,மாவத்தகம, NULL, NULL, NULL,60060,7.4369013,80.4537828
1164,14,Medirigiriya,මැදිරිගිරිය,மெதிரிகிரிய, NULL, NULL, NULL,51500,8.1396374,80.9677658
1165,14,Medivawa,මැදිවාව,மெடிவாவா, NULL, NULL, NULL,60612,7.4817695,80.3608876
1166,14,Meegalawa,මීගලෑව,மீகலாவ, NULL, NULL, NULL,60750,8.0527154,80.3547286
1167,14,Meegaswewa,මීගස්වැව,மீகஸ்வெவ, NULL, NULL, NULL,51508,7.8029615,80.3742163
1168,14,Meewellawa,මීවැල්ලව,மீவெல்லவ, NULL, NULL, NULL,60484,7.7506098,80.1160173
1169,14,Melsiripura,මැල්සිරිපුර,மெல்சிரிபுர, NULL, NULL, NULL,60540,7.6449706,80.5077237
1170,14,Metikumbura,මැටිකුඹුර,மெட்டிகும்புரா, NULL, NULL, NULL,60304,7.4817695,80.3608876
1171,14,Metiyagane,මැටියගනේ,மெத்தியகனே, NULL, NULL, NULL,60121,7.3947649,80.1903442
1172,14,Minhettiya,මින්හෙට්ටිය,மின்ஹெட்டிய, NULL, NULL, NULL,60004,7.5889727,80.308079
1173,14,Minuwangete,මිනුවන්ගැටේ,மினுவாங்கேட், NULL, NULL, NULL,60406,7.5072188,80.3429088
1174,14,Mirihanagama,මිරිහානගම,மிரிஹானகம, NULL, NULL, NULL,60408,7.6532928,80.1798159
1175,14,Monnekulama,මොන්නේකුලම,மொன்னேகுலம, NULL, NULL, NULL,60495,7.8225592,80.0618743
1176,14,Moragane,මොරගනේ ය,மொரகனே, NULL, NULL, NULL,60354,7.5467823,80.1275052
1177,14,Moragollagama,මොරගොල්ලාගම,மொரகொல்லாகம, NULL, NULL, NULL,60640,7.9066295,80.4409967
1178,14,Morathiha,මොරටිහ,மொராதிஹா, NULL, NULL, NULL,60038,7.5107156,80.491047
1179,14,Munamaldeniya,මුණමල්දෙණිය,முனமல்தெனிய, NULL, NULL, NULL,60218,7.5478683,80.0576834
1180,14,Muruthenge,මුරුතැන්ගේ,முருத்தேங்கே, NULL, NULL, NULL,60122,7.4376161,80.1443598
1181,14,Mutugala,මුතුගල,முதுகல, NULL, NULL, NULL,51064,7.4881893,80.3503722
1182,14,Nabadewa,නබදේව,நபதேவா, NULL, NULL, NULL,60482,7.7816169,80.1042379
1183,14,Nagollagama,නාගොල්ලාගම,நாகொல்லாகம, NULL, NULL, NULL,60590,7.7535168,80.314672
1184,14,Nagollagoda,නාගොල්ලාගොඩ,நாகொல்லாகொட, NULL, NULL, NULL,60226,7.563528,80.0409178
1185,14,Nakkawatta,නක්කාවත්ත,நக்கவத்த, NULL, NULL, NULL,60186,7.4443143,80.1456496
1186,14,Narammala,නාරම්මල,நாரம்மல, NULL, NULL, NULL,60100,7.4325133,80.2153998
1187,14,Nawasenapura,නවසේනපුර,நவசேனபுர, NULL, NULL, NULL,51066,7.4817695,80.3608876
1188,14,Nawatalwatta,නවතල්වත්ත,நவத்தல்வத்த, NULL, NULL, NULL,60292,7.2833403,80.1923699
1189,14,Nelliya,නෙල්ලිය,நெல்லியா, NULL, NULL, NULL,60549,7.6922471,80.463245
1190,14,Nikaweratiya,නිකවැරටිය,நிக்கவெரட்டிய, NULL, NULL, NULL,60470,7.755445,80.1191402
1191,14,Nugagolla,නුගගොල්ල,நுககொல்ல, NULL, NULL, NULL,21534,7.4817695,80.3608876
1192,14,Nugawela,නුගවෙල,நுகவெல, NULL, NULL, NULL,20072,7.3339719,80.223766
1193,14,Padeniya,පාදෙණිය,பதெனிய, NULL, NULL, NULL,60461,7.6556225,80.2206287
1194,14,Padiwela,පඩිවෙල,படிவெல, NULL, NULL, NULL,60236,7.5422904,79.9892034
1195,14,Pahalagiribawa,පහළගිරිබාව,பஹலகிரிபாவா, NULL, NULL, NULL,60735,8.1175649,80.1916911
1196,14,Pahamune,පහමුනේ,பஹமுனே, NULL, NULL, NULL,60112,7.4809848,80.4122508
1197,14,Palagala,පලාගල,பலகல, NULL, NULL, NULL,50111,7.947466,80.520229
1198,14,Palapathwela,පලාපත්වල,பலபத்வெல, NULL, NULL, NULL,21070,7.5377383,80.6271415
1199,14,Palaviya,පලවිය,பாலவியா, NULL, NULL, NULL,61280,7.9812432,79.8464804
1200,14,Pallewela,පල්ලෙවෙල,பல்லேவெல, NULL, NULL, NULL,11150,7.4782981,79.9947956
1201,14,Palukadawala,පලුකඩවල,பலுகடவல, NULL, NULL, NULL,60704,7.9570835,80.2962385
1202,14,Panadaragama,පානදරගම,பனதரகம, NULL, NULL, NULL,60348,7.5430443,80.2286459
1203,14,Panagamuwa,පනාගමුව,பனகமுவ, NULL, NULL, NULL,60052,7.4899187,80.5188396
1204,14,Panaliya,පැනලිය,பனாலியா, NULL, NULL, NULL,60312,7.3309356,80.3296664
1205,14,Panapitiya,පනාපිටිය,பனாபிட்டிய, NULL, NULL, NULL,70152,7.4817695,80.3608876
1206,14,Panliyadda,පන්ලියද්ද,பன்லியத்தா, NULL, NULL, NULL,60558,7.6726393,80.5466229
1207,14,Pansiyagama,පන්සියගම,பன்சியாகம, NULL, NULL, NULL,60554,7.7352119,80.4968661
1208,14,Parape,පරපේ,பராபே, NULL, NULL, NULL,71105,7.3725791,80.4149325
1209,14,Pathanewatta,පතනේවත්ත,பதனேவத்த, NULL, NULL, NULL,90071,7.4817695,80.3608876
1210,14,Pattiya Watta,පට්ටිය වත්ත,பட்டியா வட்டா, NULL, NULL, NULL,20118,7.4817695,80.3608876
1211,14,Perakanatta,පෙරකනත්ත,பெரகனாட்டா, NULL, NULL, NULL,21532,7.4817695,80.3608876
1212,14,Periyakadneluwa,පෙරියකඩ්නෙළුව,பெரியகத்நெலுவா, NULL, NULL, NULL,60518,7.4817695,80.3608876
1213,14,Pihimbiya Ratmale,පිහිඹිය රත්මලේ,பிஹிம்பிய ரத்மலே, NULL, NULL, NULL,60439,7.5768214,80.0331345
1214,14,Pihimbuwa,පිහිඹුව,பிஹிம்புவா, NULL, NULL, NULL,60053,7.4590794,80.5146713
1215,14,Pilessa,පිලැස්ස,பிலேசா, NULL, NULL, NULL,60058,7.4615469,80.4124824
1216,14,Polgahawela,පොල්ගහවෙල,பொல்காவெல, NULL, NULL, NULL,60300,7.3274866,80.2934522
1217,14,Polgolla,පොල්ගොල්ල,பொல்கொல்ல, NULL, NULL, NULL,20250,7.3164228,80.6521139
1218,14,Polpithigama,පොල්පිතිගම,பொல்பிதிகம, NULL, NULL, NULL,60620,7.8211511,80.4062219
1219,14,Pothuhera,පොතුහැර,பொதுஹெர, NULL, NULL, NULL,60330,7.4216724,80.3296664
1220,14,Pothupitiya,පොතුපිටිය,பொதுப்பிட்டிய, NULL, NULL, NULL,70338,7.3542046,80.1735565
1221,14,Pujapitiya,පූජාපිටිය,பூஜாபிட்டிய, NULL, NULL, NULL,20112,7.4981334,80.3843186
1222,14,Rakwana,රක්වාන,ரக்வானா, NULL, NULL, NULL,70300,6.4647237,80.6160402
1223,14,Ranorawa,රනෝරාව,ரனோரவ, NULL, NULL, NULL,50212,7.6008794,80.2126109
1224,14,Rathukohodigala,රතුකොහොඩිගල,ரதுகொஹொடிகல, NULL, NULL, NULL,20818,7.4817695,80.3608876
1225,14,Ridibendiella,රිදිබැඳිඇල්ල,ரிடிபென்டீல்லா, NULL, NULL, NULL,60606,7.4817695,80.3608876
1226,14,Ridigama,රිදීගම,ரிதிகம, NULL, NULL, NULL,60040,7.5496347,80.4913754
1227,14,Saliya Asokapura,සාලිය අසෝකපුර,சாலிய அசோகபுர, NULL, NULL, NULL,60736,8.1346997,80.1887936
1228,14,Sandalankawa,සඳලංකාව,சண்டலங்காவா, NULL, NULL, NULL,60176,7.3151015,79.9595718
1229,14,Sevanapitiya,සෙවණපිටිය,செவனப்பிட்டிய, NULL, NULL, NULL,51062,7.4817695,80.3608876
1230,14,Sirambiadiya,සිරම්බිඅඩිය,சீரம்பியாடியா, NULL, NULL, NULL,61312,8.0571261,79.8688837
1231,14,Sirisetagama,සිරිසෙතගම,சிரிசெதகம, NULL, NULL, NULL,60478,7.4817695,80.3608876
1232,14,Siyambalangamuwa,සියඹලන්ගමුව,சியம்பலங்காமுவ, NULL, NULL, NULL,60646,7.5294805,80.342853
1233,14,Siyambalawewa,සියඹලාවැව,சியம்பலாவெவ, NULL, NULL, NULL,32048,7.8042275,80.4298704
1234,14,Solepura,සෝලේපුර,சோலேபுரா, NULL, NULL, NULL,60737,8.1531272,80.1568134
1235,14,Solewewa,සෝලේවැව,சோலேவெவ, NULL, NULL, NULL,60738,8.1470521,80.128901
1236,14,Sunandapura,සුනන්දපුර,சுனந்தபுர, NULL, NULL, NULL,60436,7.6365956,80.0723592
1237,14,Talawattegedara,තලවත්තේගෙදර,தலவத்தேகெதர, NULL, NULL, NULL,60306,7.4817695,80.3608876
1238,14,Tambutta,තඹුට්ටා,தம்புட்டா, NULL, NULL, NULL,60734,8.087401,80.2265545
1239,14,Tennepanguwa,තැන්නේපංගුව,தென்னபங்குவா, NULL, NULL, NULL,90072,7.4817695,80.3608876
1240,14,Thalahitimulla,තලහිටිමුල්ල,தலஹிதிமுல்லா, NULL, NULL, NULL,60208,7.4305001,80.005979
1241,14,Thalakolawewa,තලකොළවැව,தலகொலவெவ, NULL, NULL, NULL,60624,7.7949212,80.4340429
1242,14,Thalwita,තල්විට,தல்விதா, NULL, NULL, NULL,60572,7.5822173,80.3352364
1243,14,Tharana Udawela,තරණ උඩවෙල,தரன உடவெல, NULL, NULL, NULL,60227,7.5600143,79.9941051
1244,14,Thimbiriyawa,තිඹිරියාව,திம்பிரியாவ, NULL, NULL, NULL,60476,7.7492625,80.1400671
1245,14,Tisogama,තිසෝගම,திசோகம, NULL, NULL, NULL,60453,7.5905598,79.8320966
1246,14,Thorayaya,තෝරයාය,தோராயய, NULL, NULL, NULL,60499,7.5087493,80.4068469
1247,14,Tulhiriya,තුල්හිරිය,துல்ஹிரியா, NULL, NULL, NULL,71610,7.2753384,80.223766
1248,14,Tuntota,තුන්තොට,துந்தோட்டா, NULL, NULL, NULL,71062,7.1931891,80.265062
1249,14,Tuttiripitigama,තුත්තිරිපිටිගම,துத்திரிபிடிகம, NULL, NULL, NULL,60426,7.4817695,80.3608876
1250,14,Udagaldeniya,උඩගල්දෙණිය,உடகல்தெனிய, NULL, NULL, NULL,71113,7.4174756,80.475062
1251,14,Udahingulwala,උඩහිඟුල්වල,உடஹிங்குல்வாலா, NULL, NULL, NULL,20094,7.4817695,80.3608876
1252,14,Udawatta,උඩවත්ත,உடவத்த, NULL, NULL, NULL,20722,7.4894947,80.3609307
1253,14,Udubaddawa,උඩුබද්දාව,உடுபத்தாவா, NULL, NULL, NULL,60250,7.4852925,79.9675366
1254,14,Udumulla,උඩුමුල්ල,உடுமுல்லை, NULL, NULL, NULL,71521,7.4653167,80.4205682
1255,14,Uhumiya,උහුමිය,உஹுமியா, NULL, NULL, NULL,60094,7.4639242,80.2985345
1256,14,Ulpotha Pallekele,උල්පොත පල්ලෙකැලේ,உல்பொத பல்லேகல, NULL, NULL, NULL,60622,7.8265229,80.4372213
1257,14,Ulpothagama,උල්පොතාගම,உல்போதகம, NULL, NULL, NULL,20965,7.4817695,80.3608876
1258,14,Usgala Siyabmalangamuwa,උස්ගල සියබ්මලන්ගමුව,உஸ்கல சியப்மலங்கமுவ, NULL, NULL, NULL,60732,8.0982645,80.2948696
1259,14,Vijithapura,විජිතපුර,விஜிதபுர, NULL, NULL, NULL,50110,7.4817695,80.3608876
1260,14,Wadakada,වදාකඩ,வடகட, NULL, NULL, NULL,60318,7.3975408,80.268734
1261,14,Wadumunnegedara,වඩුමුන්නේගෙදර,வடுமுன்னேகெதர, NULL, NULL, NULL,60204,7.398108,79.9773981
1262,14,Walakumburumulla,වලකුඹුරුමුල්ල,வலகும்புருமுல்ல, NULL, NULL, NULL,60198,7.4254026,80.0155817
1263,14,Wannigama,වන්නිගම,வன்னிகம, NULL, NULL, NULL,60465,7.7078005,80.144254
1264,14,Wannikudawewa,වන්නිකුඩාවැව,வன்னிகுடாவெவ, NULL, NULL, NULL,60721,8.0339687,80.2174914
1265,14,Wannilhalagama,වන්නිල්හලගම,வன்னிழலகம, NULL, NULL, NULL,60722,7.4817695,80.3608876
1266,14,Wannirasnayakapura,වන්නිරස්නායකපුර,வன்னிராஸ்நாயக்கபுர, NULL, NULL, NULL,60490,7.4817695,80.3608876
1267,14,Warawewa,වරාවැව,வரவெவ, NULL, NULL, NULL,60739,8.1204937,80.1456496
1268,14,Wariyapola,වාරියපොළ,வாரியபொல, NULL, NULL, NULL,60400,7.6239144,80.2433145
1269,14,Watareka,වටරැක,வடரேகா, NULL, NULL, NULL,10511,7.3972603,80.4354337
1270,14,Wattegama,වත්තේගම,வத்தேகம, NULL, NULL, NULL,20810,7.3503313,80.6812468
1271,14,Watuwatta,වටුවත්ත,வடுவத்த, NULL, NULL, NULL,60262,7.5083068,79.9172803
1272,14,Weerapokuna,වීරපොකුණ,வீரபொகுன, NULL, NULL, NULL,60454,7.6513501,79.9889056
1273,14,Welawa Juncton,වැලව හන්දිය,வெலவ ஜங்டன், NULL, NULL, NULL,60464,7.6901219,80.1745355
1274,14,Welipennagahamulla,වැලිපැන්නගහමුල්ල,வெலிபென்னாகஹமுல்ல, NULL, NULL, NULL,60240,7.4313154,79.9275756
1275,14,Wellagala,වැල්ලගල,வெல்லகல, NULL, NULL, NULL,60402,7.6222222,80.2766667
1276,14,Wellarawa,වැල්ලරාව,வெல்லராவ, NULL, NULL, NULL,60456,7.5569221,80.3691879
1277,14,Wellawa,වැල්ලව,வெல்லவ, NULL, NULL, NULL,60570,7.5615466,80.3686488
1278,14,Welpalla,වැල්පල්ල,வெல்பல்ல, NULL, NULL, NULL,60206,7.3654786,79.9612368
1279,14,Wennoruwa,වෙන්නෝරුව,வென்னொருவை, NULL, NULL, NULL,60284,7.3804956,80.2167942
1280,14,Weuda,වෑඋඩ,வீடா, NULL, NULL, NULL,60080,7.4065254,80.4938267
1281,14,Wewagama,වැවගම,வெவகம, NULL, NULL, NULL,60195,7.4233259,80.1023759
1282,14,Wilgamuwa,විල්ගමුව,வில்கமுவ, NULL, NULL, NULL,21530,7.3609928,80.2053639
1283,14,Yakwila,යක්විල,யக்வில, NULL, NULL, NULL,60202,7.381869,80.0381232
1284,14,Yatigaloluwa,යටිගල්ඔළුව,யடிகலொலுவ, NULL, NULL, NULL,60314,7.3297305,80.2739458
1285,15,Mannar,මන්නාරම,மன்னார், NULL, NULL, NULL,41000,8.9809743,79.9044149
1286,15,Puthukudiyiruppu,පුදුකුඩිඉරිප්පු,புதுக்குடியிருப்பு, NULL, NULL, NULL,30158,9.0603894,79.8473091
1287,16,Akuramboda,අකුරම්බොඩ,அகுரம்பொட, NULL, NULL, NULL,21142,7.65,80.6
1288,16,Alawatuwala,අලවතුවල,அலவத்துவல, NULL, NULL, NULL,60047,7.4576549,80.6242599
1289,16,Alwatta,අල්වත්ත,அல்வத்தா, NULL, NULL, NULL,21004,7.448908,80.6645973
1290,16,Ambana,අම්බාන,அம்பானா, NULL, NULL, NULL,21504,7.6476603,80.6923312
1291,16,Aralaganwila,අරලගන්විල,அரலகன்வில, NULL, NULL, NULL,51100,7.7827819,81.1845426
1292,16,Ataragallewa,අටරගල්ලෑව,அதரகல்லேவ, NULL, NULL, NULL,21512,7.467465,80.6234161
1293,16,Bambaragaswewa,බඹරගස්වැව,பம்பரகஸ்வெவ, NULL, NULL, NULL,21212,7.7860914,80.5329166
1294,16,Barawardhana Oya,බරවර්ධන ඔය,பரவர்தன ஓயா, NULL, NULL, NULL,20967,7.467465,80.6234161
1295,16,Beligamuwa,බෙලිගමුව,பெலிகமுவ, NULL, NULL, NULL,21214,7.7273721,80.549748
1296,16,Damana,දමන,தமண, NULL, NULL, NULL,32014,7.467465,80.6234161
1297,16,Dambulla,දඹුල්ල,தம்புள்ள, NULL, NULL, NULL,21100,7.874217,80.6511287
1298,16,Damminna,දම්මින්න,டம்மின்னா, NULL, NULL, NULL,51106,7.7502371,81.2167377
1299,16,Dankanda,දංකන්ද,தங்கந்தா, NULL, NULL, NULL,21032,7.5347288,80.7010927
1300,16,Delwite,දෙල්විටේ,டெல்வைட், NULL, NULL, NULL,60044,7.4709715,80.6230621
1301,16,Devagiriya,දේවගිරිය,தேவகிரிய, NULL, NULL, NULL,21552,7.467465,80.6234161
1302,16,Dewahuwa,දේවහුව,தேவாஹுவ, NULL, NULL, NULL,21206,7.8438612,80.5785621
1303,16,Divuldamana,දිවුල්දමන,திவுல்டமான, NULL, NULL, NULL,51104,7.467465,80.6234161
1304,16,Dullewa,දුල්වල,துல்லேவா, NULL, NULL, NULL,21054,7.5144218,80.6007734
1305,16,Dunkolawatta,දුන්කොලවත්ත,டன்கொலவத்த, NULL, NULL, NULL,21046,7.467465,80.6234161
1306,16,Elkaduwa,ඇල්කඩුව,எல்கடுவ, NULL, NULL, NULL,21012,7.4172376,80.6840121
1307,16,Erawula Junction,එරවුල හන්දිය,எராவுலா சந்தி, NULL, NULL, NULL,21108,7.467465,80.6234161
1308,16,Etanawala,එතනවල,எடனாவல, NULL, NULL, NULL,21402,7.467465,80.6234161
1309,16,Galewela,ගලේවෙල,கலேவெல, NULL, NULL, NULL,21200,7.7565045,80.5771737
1310,16,Galoya Junction,ගල්ඔය හන්දිය,கலோயா சந்தி, NULL, NULL, NULL,51375,7.467465,80.6234161
1311,16,Gammaduwa,ගම්මඩුව,கம்மதுவ, NULL, NULL, NULL,21068,7.5702262,80.6970969
1312,16,Gangala Puwakpitiya,ගන්ගල පුවක්පිටිය,கங்கலா புவக்பிட்டிய, NULL, NULL, NULL,21404,7.5882467,80.7549674
1313,16,Hasalaka,හසලක,ஹசலக, NULL, NULL, NULL,20960,7.4680228,80.6248266
1314,16,Hattota Amuna,හත්තොට අමුණ,ஹத்தோட்ட அமுன, NULL, NULL, NULL,21514,7.6122478,80.8275506
1315,16,Imbulgolla,ඉඹුල්ගොල්ල,இம்புல்கொல்ல, NULL, NULL, NULL,21064,7.5668121,80.6669211
1316,16,Inamaluwa,ඉනාමලුව,இனாமாலுவ, NULL, NULL, NULL,21124,7.9242499,80.6840121
1317,16,Iriyagolla,ඊරියගොල්ල,இரியகொல்ல, NULL, NULL, NULL,60045,7.467465,80.6234161
1318,16,Kaikawala,කයිකාවල,கைகாவாலா, NULL, NULL, NULL,21066,7.5076989,80.6618234
1319,16,Kalundawa,කලන්දූව,கலுந்தவா, NULL, NULL, NULL,21112,7.8033546,80.6696034
1320,16,Kandalama,කන්ඩලම,கண்டலமா, NULL, NULL, NULL,21106,7.8884985,80.7103532
1321,16,Kavudupelella,කවුඩුපැලැල්ල,கவுடுபெலல்ல, NULL, NULL, NULL,21072,7.5802077,80.6265808
1322,16,Kibissa,කිඹිස්ස,கிபிஸ்ஸா, NULL, NULL, NULL,21122,7.9373285,80.7269854
1323,16,Kiwula,කිවුල,கிவுலா, NULL, NULL, NULL,21042,7.4634749,80.6264477
1324,16,Kongahawela,කෝන්ගහවෙල,கொன்கஹவெல, NULL, NULL, NULL,21500,7.6897523,80.7158977
1325,16,Laggala Pallegama,ලග්ගල පල්ලේගම,லக்கல பல்லேகம, NULL, NULL, NULL,21520,7.5965337,80.8367834
1326,16,Leliambe,ලෑලිඅඹේ,லீலியாம்பே, NULL, NULL, NULL,21008,7.4225079,80.6571008
1327,16,Lenadora,ලෙනදොර,லெனடோரா, NULL, NULL, NULL,21094,7.7555173,80.66165
1328,16,Ihala Halmillewa,ඉහළ හල්මිල්ලෑව,இஹல ஹல்மில்லேவா, NULL, NULL, NULL,50262,8.1363774,80.3575128
1329,16,Illukkumbura,ඉලුක්කුඹුර,இல்லுக்கும்புற, NULL, NULL, NULL,21406,7.544131,80.8017877
1330,16,Madipola,මාදිපොල,மடிபோல, NULL, NULL, NULL,51108,7.6761154,80.5827272
1332,16,Mahawela,මහවෙල,மஹவெல, NULL, NULL, NULL,21140,7.5801417,80.6113806
1333,16,Mananwatta,මානවත්ත,மனன்வத்த, NULL, NULL, NULL,21144,7.6845891,80.6021614
1334,16,Maraka,මාරක,மரக்கா, NULL, NULL, NULL,21554,7.5855372,80.9656181
1335,16,Matale,මාතලේ,மாத்தளை, NULL, NULL, NULL,21000,7.467465,80.6234161
1336,16,Melipitiya,මේලිපිටිය,மெலிபிட்டிய, NULL, NULL, NULL,21055,7.467465,80.6234161
1337,16,Metihakka,මැටිහක්ක,மெதிஹாக்கா, NULL, NULL, NULL,21062,7.5400973,80.6532201
1338,16,Millawana,මිල්ලවාන,மில்லவானா, NULL, NULL, NULL,21154,7.6499106,80.5754664
1339,16,Muwandeniya,මුවන්දෙණිය,முவன்தெனிய, NULL, NULL, NULL,21044,7.4547649,80.6409764
1340,16,Nalanda,නාලන්ද,நாளந்தா, NULL, NULL, NULL,21082,7.6697486,80.645856
1341,16,Naula,නාඋල,நாவுலா, NULL, NULL, NULL,21090,7.7071493,80.6521139
1342,16,Opalgala,ඕපල්ගල,ஓபல்கல, NULL, NULL, NULL,21076,7.6248986,80.6937177
1343,16,Pallepola,පල්ලේපො,பல்லேபொல, NULL, NULL, NULL,21152,7.6229762,80.6049374
1344,16,Pimburattewa,පිඹුරත්තෑව,பிம்புரத்தேவா, NULL, NULL, NULL,51102,7.7185503,81.1885293
1345,16,Pulastigama,පුලතිසිගම,புலஸ்திகம, NULL, NULL, NULL,51050,8.0421963,81.0809848
1346,16,Ranamuregama,රණමුරේගම,ரணமுரேகம, NULL, NULL, NULL,21524,7.5029094,80.833034
1347,16,Rattota,රත්තොට,ரத்தோட்ட, NULL, NULL, NULL,21400,7.517273,80.6715317
1348,16,Selagama,සැලගම,செலாகம, NULL, NULL, NULL,21058,7.5920469,80.5940497
1349,16,Sigiriya,සීගිරිය,சிகிரியா, NULL, NULL, NULL,21120,7.9541085,80.754698
1350,16,Sinhagama,සිංහගම,சிங்ககம, NULL, NULL, NULL,51378,7.467465,80.6234161
1351,16,Sungavila,සුංගාවිග,சுங்கவிளை, NULL, NULL, NULL,51052,8.0748374,81.0920218
1352,16,Talagoda Junction,තලගොඩ හන්දිය,தலகொட சந்தி, NULL, NULL, NULL,21506,7.7014477,80.7602394
1353,16,Talakiriyagama,තලකිරියාගම,தலகிரியாகம, NULL, NULL, NULL,21116,7.8253167,80.6208972
1354,16,Tamankaduwa,තමන්කඩුව,தமன்கடுவ, NULL, NULL, NULL,51089,7.467465,80.6234161
1355,16,Udasgiriya,උඩස්ගිරිය,உதஸ்கிரிய, NULL, NULL, NULL,21051,7.5351747,80.5702314
1356,16,Udatenna,උඩතැන්න,உடதென்ன, NULL, NULL, NULL,21006,7.4287425,80.6475418
1357,16,Ukuwela,උකුවෙල,உகுவெல, NULL, NULL, NULL,21300,7.4234623,80.6306103
1358,16,Wahacotte,වහකෝට්ටේ,வஹாகோட்டே, NULL, NULL, NULL,21160,7.7190437,80.5827272
1359,16,Walawela,වලවෙල,வலவெல, NULL, NULL, NULL,21048,7.5197143,80.5979973
1360,16,Wehigala,වැහිගල,வெஹிகல, NULL, NULL, NULL,21009,7.4382265,80.6140685
1361,16,Welangahawatte,වෙලංගහවත්ත,வெலங்கஹவத்த, NULL, NULL, NULL,21408,7.549807,80.7542447
1362,16,Wewalawewa,වේවැලවැව,வெவலவெவ, NULL, NULL, NULL,21114,7.467465,80.6234161
1363,16,Yatawatta,යටවත්ත,யாதவத்த, NULL, NULL, NULL,21056,7.5634826,80.5876794
1364,17,Akuressa,අකුරැස්ස,அக்குரஸ்ஸை, NULL, NULL, NULL,81400,6.1001388,80.4759567
1365,17,Alapaladeniya,අලපලදෙණිය,அலபலதெனிய, NULL, NULL, NULL,81475,6.283333,80.45
1366,17,Aparekka,අපරැක්ක,அபரேக்கா, NULL, NULL, NULL,81032,5.9925373,80.6160402
1367,17,Athuraliya,අතුරලීය,அத்துரலிய, NULL, NULL, NULL,81402,6.0660707,80.5022764
1368,17,Bengamuwa,බෙන්ගමුව,பெங்கமுவா, NULL, NULL, NULL,81614,6.2786139,80.6042639
1369,17,Bopagoda,බෝපගොඩ,போபகொட, NULL, NULL, NULL,81412,6.1586616,80.4995312
1370,17,Dampahala,දම්පහල,தம்பஹாலா, NULL, NULL, NULL,81612,6.2715247,80.6401098
1371,17,Deegala Lenama,දීගල ලෙනම,டீகல லேனமா, NULL, NULL, NULL,81452,6.1659804,80.4616475
1372,17,Deiyandara,දෙයියන්දර,தெய்வந்தாரா, NULL, NULL, NULL,81320,6.1525698,80.6028554
1373,17,Denagama,දෙනගම,தெனகம, NULL, NULL, NULL,81314,6.1142107,80.6616445
1374,17,Denipitiya,දෙණිපිටිය,தெனிபிட்டிய, NULL, NULL, NULL,81730,5.9828773,80.4518053
1375,17,Deniyaya,දෙණියාය,தெனியாய, NULL, NULL, NULL,81500,6.3424847,80.5596582
1376,17,Derangala,දෙරණගල,தேரங்கலா, NULL, NULL, NULL,81454,6.2189118,80.4500425
1377,17,Devinuwara (Dondra),දෙවිනුවර (දෙවුන්දර),தெவிநுவர, NULL, NULL, NULL,81160,5.9312553,80.5914331
1378,17,Dikwella,දික්වැල්ල,திக்வெல்ல, NULL, NULL, NULL,81200,5.9716762,80.6951041
1379,17,Diyagaha,දියගහ,தியாகஹா, NULL, NULL, NULL,81038,5.9855185,80.5785601
1380,17,Diyalape,දියලපේ,தியாலாபே, NULL, NULL, NULL,81422,6.1229542,80.4465594
1381,17,Gandara,ගන්දර,காந்தார, NULL, NULL, NULL,81170,5.9376403,80.6132646
1382,17,Godapitiya,ගොඩපිටිය,கோதாபிட்டிய, NULL, NULL, NULL,81408,6.0886604,80.4790866
1383,17,Gomilamawarala,ගොමිලමවරල,கோமிலமவரல, NULL, NULL, NULL,81072,6.2100926,80.5922881
1384,17,Hawpe,හව්පෙ,ஹவ்பே, NULL, NULL, NULL,80132,6.1328852,80.4896571
1385,17,Horapawita,හොරපාවිට,ஹொரபவிட்ட, NULL, NULL, NULL,81108,6.1070399,80.5827272
1386,17,Kalubowitiyana,කළුබෝවිටියාන,களுபோவிட்டியன, NULL, NULL, NULL,81478,6.3116538,80.3937182
1387,17,Kamburugamuwa,කඹුරුගමුව,கம்புருகமுவ, NULL, NULL, NULL,81750,5.944587,80.4938344
1388,17,Kamburupitiya,කඹුරුපිටිය,கம்புருபிட்டிய, NULL, NULL, NULL,81100,6.0779107,80.5632884
1389,17,Karagoda Uyangoda,කරන්ගොඩ උයන්ගොඩ,கரகொட உயங்கொட, NULL, NULL, NULL,81082,6.0520009,80.5282587
1390,17,Karaputugala,කරපුටුල,கரபுடுகல, NULL, NULL, NULL,81106,6.0845296,80.6013403
1391,17,Karatota,කරාතොට,கரதொட்ட, NULL, NULL, NULL,81318,6.0641272,80.6660092
1392,17,Kekanadura,කෙකනදුර,கேகனதுர, NULL, NULL, NULL,81020,5.9637528,80.6132646
1393,17,Kiriweldola,කිරිවැල්ගොඩ,கிரிவெல்டோலா, NULL, NULL, NULL,81514,6.3711505,80.5355107
1394,17,Kiriwelkele,කිරිවැල්කැලේ,கிரிவெல்கெலே, NULL, NULL, NULL,81456,6.2422484,80.4507311
1395,17,Kolawenigama,කොලවෙනිගම,கொலவெனிகம, NULL, NULL, NULL,81522,6.3232398,80.5021652
1396,17,Kotapola,කොටපොල,கொட்டபொல, NULL, NULL, NULL,81480,6.2779725,80.539678
1397,17,Lankagama,ලංකාගම,லங்காகம, NULL, NULL, NULL,81526,6.3671372,80.4604643
1398,17,Makandura,මාකඳුර,மாகந்துரை, NULL, NULL, NULL,81070,6.1419248,80.5563449
1399,17,Maliduwa,මැලිදූව,மலிதுவா, NULL, NULL, NULL,81424,6.1354339,80.4104743
1400,17,Maramba,මාරඹ,மரம்பா, NULL, NULL, NULL,81416,6.1455208,80.4823599
1401,17,Matara,මාතර,மாத்தறை, NULL, NULL, NULL,81000,5.9495308,80.5303931
1402,17,Mediripitiya,මැදිරිපිටිය,மெதிரிபிட்டிய, NULL, NULL, NULL,81524,6.3507095,80.4930904
1403,17,Miella,මීඇල්ල,மியெல்லா, NULL, NULL, NULL,81312,6.1179132,80.6716111
1404,17,Mirissa,මිරිස්ස,மிரிஸ்ஸா, NULL, NULL, NULL,81740,5.948262,80.4715866
1405,17,Morawaka,මොරවක,மொரவக, NULL, NULL, NULL,81470,6.2652802,80.491047
1406,17,Mulatiyana Junction,මුලටියාන හන්දිය,முலட்டியான சந்தி, NULL, NULL, NULL,81071,6.1620886,80.5855038
1407,17,Nadugala,නඩුගල,நடுகல, NULL, NULL, NULL,81092,5.9813659,80.5497101
1408,17,Naimana,නයිමන,நைமனா, NULL, NULL, NULL,81017,5.9634458,80.5658496
1409,17,Palatuwa,පලාතුව,பலத்துவ, NULL, NULL, NULL,81050,5.9763124,80.5184418
1410,17,Parapamulla,පරපමුල්ල,பரபமுல்லா, NULL, NULL, NULL,81322,6.1516259,80.6218666
1411,17,Pasgoda,පස්ගොඩ,பஸ்கொடா, NULL, NULL, NULL,81615,6.2463916,80.6077132
1412,17,Penetiyana,පෙනතියන,பெண்டியான, NULL, NULL, NULL,81722,6.047728,80.4499474
1413,17,Pitabeddara,පිටබැද්දර,பிட்டபெத்தர, NULL, NULL, NULL,81450,6.2070773,80.463245
1414,17,Puhulwella,පුහුවැල්ල,புஹுல்வெல்ல, NULL, NULL, NULL,81290,6.0515288,80.6257539
1415,17,Radawela,රඳාවෙල,ரடவெல, NULL, NULL, NULL,81316,7.672758,80.709373
1416,17,Ransegoda,රන්සෑගොඩ,ரன்சேகொட, NULL, NULL, NULL,81064,6.1186298,80.5641507
1417,17,Rotumba,රොටුඹ,ரோடும்பா, NULL, NULL, NULL,81074,6.225788,80.5759772
1418,17,Sultanagoda,සුල්තානාගොඩ,சுல்தானகொடா, NULL, NULL, NULL,81051,5.9772421,80.5109948
1419,17,Telijjawila,තෙලිජ්ජවෙල,தெலிஜ்ஜாவில, NULL, NULL, NULL,81060,6.0250846,80.4959114
1420,17,Thihagoda,තිහාගොඩ,திஹகொட, NULL, NULL, NULL,81280,6.0133387,80.5660041
1421,17,Urubokka,ඌරුබොක්ක,ஊர்பொக்க, NULL, NULL, NULL,81600,6.3065297,80.6306103
1422,17,Urugamuwa,ඌරුගමුව,உருகமுவ, NULL, NULL, NULL,81230,6.010073,80.6479524
1423,17,Urumutta,උරුමුත්ත,உருமுட்டா, NULL, NULL, NULL,81414,6.1619598,80.5169252
1424,17,Viharahena,විහාරහේන,விஹாரஹேன, NULL, NULL, NULL,81508,6.3827697,80.6020234
1425,17,Walakanda,වලකන්ද,வாலகண்டா, NULL, NULL, NULL,81294,6.0230505,80.6558658
1426,17,Walasgala,වලස්ගල,வலஸ்கல, NULL, NULL, NULL,81220,5.9828401,80.6985701
1427,17,Waralla,වැරැල්ල,வாரல்லா, NULL, NULL, NULL,81479,6.2763831,80.524397
1428,17,Weligama,වැලිගම,வெலிகம, NULL, NULL, NULL,81700,5.9730321,80.4228041
1429,17,Wilpita,විල්පිට,வில்பிட, NULL, NULL, NULL,81404,5.9460327,80.5577288
1430,17,Yatiyana,යටියාන,யதியான, NULL, NULL, NULL,81034,6.0302713,80.6063253
1431,18,Ayiwela,අයිවෙල,ஆயிவேல, NULL, NULL, NULL,91516,7.1070256,81.2504855
1432,18,Badalkumbura,බඩල්කුඹුර,படல்கும்புர, NULL, NULL, NULL,91070,6.8955992,81.2363589
1433,18,Baduluwela,බදුලුවෙල,பதுலுவெல, NULL, NULL, NULL,91058,6.9934009,81.0549815
1434,18,Bakinigahawela,බකිණිගහවෙල,பகினிகஹவெல, NULL, NULL, NULL,91554,6.9982469,81.2850807
1435,18,Balaharuwa,බලහරුව,பலஹருவா, NULL, NULL, NULL,91295,6.530849,81.0644263
1436,18,Bibile,බිබිලේ,பிபிலை, NULL, NULL, NULL,91500,6.8608624,81.3502541
1437,18,Buddama,බුද්ධගම,புத்தமா, NULL, NULL, NULL,91038,7.040545,81.4888066
1438,18,Buttala,බුත්තල,புத்தளை, NULL, NULL, NULL,91100,6.7589233,81.2491298
1439,18,Dambagalla,දඹගල්ල,டம்பகல்ல, NULL, NULL, NULL,91050,6.9499999,81.3666671
1440,18,Diyakobala,දියකොබල,தியாகோபாலா, NULL, NULL, NULL,91514,7.1588473,81.1993404
1441,18,Dombagahawela,දොඹගහවෙල,தொம்பகஹவெல, NULL, NULL, NULL,91010,6.9076487,81.5094194
1442,18,Ethimalewewa,ඇතිමලේවැව,எதிமலேவெவ, NULL, NULL, NULL,91020,6.8111512,81.5020328
1443,18,Ettiliwewa,ඇත්තිලිවැව,எட்டிலிவெவ, NULL, NULL, NULL,91250,6.8906454,81.3454417
1444,18,Galabedda,ගලබැද්ද,கலபெத்தா, NULL, NULL, NULL,91008,6.9191139,81.385091
1445,18,Gamewela,ගමේවැල,கேம்வேலா, NULL, NULL, NULL,90512,6.9246405,81.2053324
1446,18,Hambegamuwa,හම්බෙගමුව,ஹம்பேகமுவ, NULL, NULL, NULL,91308,6.5386336,80.9630156
1447,18,Hingurukaduwa,හිඟුරකඩුව,ஹிங்குருகடுவ, NULL, NULL, NULL,90508,6.8257456,81.1629841
1448,18,Hulandawa,හුලන්දාව,ஹுலந்தவா, NULL, NULL, NULL,91004,6.8546791,81.3385663
1449,18,Inginiyagala,ඉඟිනියාගල,இங்கினியாகல, NULL, NULL, NULL,91040,7.2138156,81.5431872
1450,18,Kandaudapanguwa,කන්දඋඩපංගුව,கந்தவுடபங்குவா, NULL, NULL, NULL,91032,6.9803464,81.54148
1451,18,Kandawinna,කන්දවින්න,கண்டவின்னா, NULL, NULL, NULL,91552,6.8906454,81.3454417
1452,18,Kataragama,කතරගම,கதிர்காமம், NULL, NULL, NULL,91400,6.4135463,81.3325679
1453,18,Kotagama,කොටගම,கொட்டகம, NULL, NULL, NULL,91512,7.1109888,81.1802619
1454,18,Kotamuduna,කොටමුදුන,கொடமுதுனா, NULL, NULL, NULL,90506,6.8902261,81.1775059
1455,18,Kotawehera Mankada,කොටවෙහෙර මංකඩ,கொட்டவெஹெர மங்கட, NULL, NULL, NULL,91312,6.646907,80.9084755
1456,18,Kudawewa,කුඩාවැව,குடவெவ, NULL, NULL, NULL,61226,8.5622222,80.6938889
1457,18,Kumbukkana,කුඹුක්කන,கும்புக்கனா, NULL, NULL, NULL,91098,6.810595,81.3006668
1458,18,Marawa,මරාවා,மரவா, NULL, NULL, NULL,91006,6.8090098,81.3811839
1459,18,Mariarawa,මාරියරාව,மரியராவா, NULL, NULL, NULL,91052,6.9683781,81.4762043
1460,18,Medagana,මැදගාන,மெதகம, NULL, NULL, NULL,91550,7.0344732,81.276004
1461,18,Medawelagama,මැදවෙලගම,மெதவெலகம, NULL, NULL, NULL,90518,7.0344732,81.276004
1462,18,Miyanakandura,මියනකඳුර,மியானகந்துர, NULL, NULL, NULL,90584,6.8906454,81.3454417
1463,18,Monaragala,මොණරාගල,மொனராகலை, NULL, NULL, NULL,91000,6.8906454,81.3454417
1464,18,Moretuwegama,මොරටුවේගම,மொரேதுவேகம, NULL, NULL, NULL,91108,6.8906454,81.3454417
1465,18,Nakkala,නක්කල,நக்கலா, NULL, NULL, NULL,91003,6.8899962,81.2984309
1466,18,Namunukula,නමුණුකුල,நமுனுகுல, NULL, NULL, NULL,90580,6.8744787,81.1154703
1467,18,Nannapurawa,නන්නපුරව,நன்னபுரவா, NULL, NULL, NULL,91519,7.0853701,81.2593133
1468,18,Nelliyadda,නෙල්ලියද්ද,நெல்லியத்தா, NULL, NULL, NULL,91042,7.3878558,81.4169093
1469,18,Nilgala,නිල්ගල,நீலகலா, NULL, NULL, NULL,91508,7.1933379,81.3963901
1470,18,Obbegoda,ඔබ්බේගොඩ,ஒபேகொட, NULL, NULL, NULL,91007,6.9250709,81.354086
1471,18,Okkampitiya,ඔක්කම්පිටිය,ஒக்கம்பிடிய, NULL, NULL, NULL,91060,6.750035,81.3076193
1472,18,Pangura,පංගුරා,பங்குரா, NULL, NULL, NULL,91002,6.9766866,81.3200893
1473,18,Pitakumbura,පිටකුඹුර,பிடகும்புரா, NULL, NULL, NULL,91505,7.1786936,81.293122
1474,18,Randeniya,රන්දෙණිය,ரண்டெனிய, NULL, NULL, NULL,91204,6.8015199,81.1140912
1475,18,Ruwalwela,රුවල්වෙල,ருவல்வெல, NULL, NULL, NULL,91056,6.8610803,81.3391804
1476,18,Sella Kataragama,සෙල්ල කතරගම,செல்ல கதிர்காமம், NULL, NULL, NULL,91405,6.4373285,81.2986767
1477,18,Siyambalagune,සියඹලාගුණේ,சியாம்பலாகுனே, NULL, NULL, NULL,91202,6.8906454,81.3454417
1478,18,Siyambalanduwa,සියඹලාණ්ඩුව,சியம்பலாண்டுவ, NULL, NULL, NULL,91030,6.9064636,81.5610138
1479,18,Suriara,සූරියරා,சூரியரா, NULL, NULL, NULL,91306,6.8906454,81.3454417
1480,18,Thanamalwila,තණමල්විල,தனமல்விலை, NULL, NULL, NULL,91300,6.4397548,81.1333968
1481,18,Uva Gangodagama,ඌව ගංගොඩගම,ஊவா கங்கோடாகம, NULL, NULL, NULL,91054,7.0198599,81.4333923
1482,18,Uva Kudaoya,ඌව කුඩාඔය,ஊவா குடாஓயா, NULL, NULL, NULL,91298,6.5327971,81.1747498
1483,18,Uva Pelwatta,ඌව පැල්වත්ත,ஊவா பெல்வத்த, NULL, NULL, NULL,91112,6.7447337,81.1967958
1484,18,Warunagama,වරුණගම,வருணகம, NULL, NULL, NULL,91198,6.7323426,81.1340862
1485,18,Wedikumbura,වෙඩිකුඹුර,வெடிகும்புர, NULL, NULL, NULL,91005,6.8955992,81.2363589
1486,18,Weherayaya Handapanagala,වෙහෙරයාය හඳපානාගල,வெஹெரயாய ஹந்தபானகல, NULL, NULL, NULL,91206,6.6435903,81.118259
1487,18,Wellawaya,වැල්ලවාය,வெல்லவாய, NULL, NULL, NULL,91200,6.7377356,81.1030573
1488,18,Wilaoya,විලාඔය,விலாஓய, NULL, NULL, NULL,91022,6.767782,81.6972166
1489,18,Yudaganawa,යුදගනාව,யுதகனவா, NULL, NULL, NULL,51424,6.7742508,81.2351131
1490,19,Mullativu,මුලතිව්,முல்லைத்தீவு, NULL, NULL, NULL,42000,9.2670911,80.814248
1491,20,Agarapathana,ආගරපතන,அக்கரப்பத்தனை, NULL, NULL, NULL,22094,6.8672431,80.7121754
1492,20,Ambatalawa,අඹතලාව,அம்பதலாவ, NULL, NULL, NULL,20686,7.05,80.6666669
1493,20,Ambewela,අඹේවෙල,அம்பேவெல, NULL, NULL, NULL,22216,6.8787195,80.8135558
1494,20,Bogawantalawa,බොගවන්තලාව,பொகவந்தலாவ, NULL, NULL, NULL,22060,6.7972337,80.675692
1495,20,Bopattalawa,බෝපත්තලාව,போபத்தலாவ, NULL, NULL, NULL,22095,6.809019,80.6959013
1496,20,Dagampitiya,දාගම්පිටිය,தகம்பிட்டிய, NULL, NULL, NULL,20684,6.9774755,80.4743669
1497,20,Dayagama Bazaar,ඩයගම බසාර්,டயகம பஜார், NULL, NULL, NULL,22096,6.8561299,80.7474261
1498,20,Dikoya,දික්ඔය,டிக்கோயா, NULL, NULL, NULL,22050,6.8751313,80.6006772
1499,20,Doragala,දොරගල,தொரகல, NULL, NULL, NULL,20567,6.956273,80.784718
1500,20,Dunukedeniya,දුනුකෙදෙණිය,துனுகெதெனிய, NULL, NULL, NULL,22002,6.9900282,80.6368539
1501,20,Egodawela,එගොඩවෙල,எகொடவெல, NULL, NULL, NULL,90013,6.9644836,80.7633599
1502,20,Ekiriya,ඇකිරිය,எகிரியா, NULL, NULL, NULL,20732,7.1482551,80.7543517
1503,20,Elamulla,ඇලමුල්ල,எலமுல்லா, NULL, NULL, NULL,20742,7.0566861,80.7684374
1504,20,Ginigathena,ගිනිගතැන,கினிகத்தனை, NULL, NULL, NULL,20680,6.9893171,80.4926933
1505,20,Gonakele,ගෝනකැලේ,கோனகேலை, NULL, NULL, NULL,22226,6.9837958,80.7581585
1506,20,Haggala,හග්ගල,ஹக்கலா, NULL, NULL, NULL,22208,6.9186817,80.8310318
1507,20,Halgranoya,හාල්ගරනඔය,ஹல்கிரானோயா, NULL, NULL, NULL,22240,7.0067834,80.8652038
1508,20,Hangarapitiya,හඟරාපිටිය,ஹங்கராபிட்டிய, NULL, NULL, NULL,22044,6.920407,80.4725565
1509,20,Hapugasthalawa,හපුගස්තලාව,ஹப்புகஸ்தலாவை, NULL, NULL, NULL,20668,7.0578134,80.5730084
1510,20,Harasbedda,හරස්බැද්ද,ஹரஸ்பெத்தா, NULL, NULL, NULL,22262,7.0626387,80.8820535
1511,20,Hatton,හැටන්,ஹட்டன், NULL, NULL, NULL,22000,6.8922153,80.5985765
1512,20,Hewaheta,හේවාහැට,ஹெவாஹெட்டா, NULL, NULL, NULL,20440,7.1118366,80.7633563
1513,20,Hitigegama,හිටිගේගම,ஹிட்டிகேகம, NULL, NULL, NULL,22046,6.9506076,80.4576835
1514,20,Jangulla,ජංගුල්ල,ஜங்குல்லா, NULL, NULL, NULL,90063,6.9497166,80.7891068
1515,20,Kalaganwatta,කලගන්වත්ත,கலகன்வத்த, NULL, NULL, NULL,22282,7.100639,80.8994579
1516,20,Kandapola,කඳපොල,கந்தபொல, NULL, NULL, NULL,22220,7.0002512,80.818401
1517,20,Karandagolla,කරඳගොල්ල,கரந்தகொல்ல, NULL, NULL, NULL,20738,7.0570194,80.9007245
1518,20,Keerthi Bandarapura,කීර්තිබණ්ඩාරපුර,கீர்த்தி பண்டாரபுர, NULL, NULL, NULL,22274,7.1458998,80.853001
1519,20,Kiribathkumbura,කිරිබත්කුඹුර,கிரிபத்கும்புரா, NULL, NULL, NULL,20442,7.2696289,80.5757161
1520,20,Kotiyagala,කොටියාගල,கொட்டியாகலை, NULL, NULL, NULL,91024,6.7855074,80.6853986
1521,20,Kotmale,කොත්මලේ,கொத்மலை, NULL, NULL, NULL,20560,7.0223089,80.5910567
1522,20,Kottellena,කොට්ටැල්ලෙන,கொட்டெல்லெனா, NULL, NULL, NULL,22040,6.8931684,80.5021652
1523,20,Kumbalgamuwa,කුඹල්ගමුව,கும்பல்கமுவ, NULL, NULL, NULL,22272,7.1124839,80.8460822
1524,20,Kumbukwela,කුඹුක්වෙල,கும்பக்வேலா, NULL, NULL, NULL,22246,7.0534652,80.8889692
1525,20,Kurupanawela,කුරුපනාවෙල,குருபனவெல, NULL, NULL, NULL,22252,7.0167262,80.9138608
1526,20,Labukele,ලබුකැලේ,லபுகெல, NULL, NULL, NULL,20592,7.0243154,80.7190951
1527,20,Laxapana,ලක්ෂපාන,லக்ஷ்பான, NULL, NULL, NULL,22034,6.9247584,80.491047
1528,20,Lindula,ලිඳුල,லிந்துல, NULL, NULL, NULL,22090,6.901898,80.6716524
1529,20,Madulla,මඩුල්ල,மதுல்லா, NULL, NULL, NULL,22256,7.0194419,80.921301
1530,20,Mandaram Nuwara,මන්දාරම් නුවර,மந்தாரம் நுவர, NULL, NULL, NULL,20744,7.0420108,80.7796313
1531,20,Maskeliya,මස්කෙළිය,மஸ்கெலியா, NULL, NULL, NULL,22070,6.8329294,80.5709256
1532,20,Maswela,මස්වෙල,மஸ்வெலா, NULL, NULL, NULL,20566,7.0639737,80.6330479
1533,20,Maturata,මතුරට,மதுரதா, NULL, NULL, NULL,20748,6.9910874,80.8338012
1534,20,Mipanawa,මීපනාව,மிபனாவா, NULL, NULL, NULL,22254,6.97314,80.76664
1535,20,Mipilimana,මීපිලිමාන,மிபிலிமன, NULL, NULL, NULL,22214,6.9304568,80.7796313
1536,20,Morahenagama,මොරහේනගම,மொரஹேனகம, NULL, NULL, NULL,22036,6.9457512,80.4799273
1537,20,Munwatta,මුන්වත්ත,முன்வத்த, NULL, NULL, NULL,20752,7.1157896,80.8114792
1538,20,Nayapana Janapadaya,නයපාන ජනපදය,நயபன ஜநபதய, NULL, NULL, NULL,20568,7.0665384,80.606533
1539,20,Nildandahinna,නිල්දණ්ඩාහින්න,நில்தண்டாஹின்ன, NULL, NULL, NULL,22280,7.0801197,80.8917353
1540,20,Nissanka Uyana,නිශ්ශංක උයන,நிஸ்ஸங்க உயன, NULL, NULL, NULL,22075,6.9497166,80.7891068
1541,20,Norwood,නෝවුඩ්,நோர்வூட், NULL, NULL, NULL,22058,6.8384207,80.6146524
1542,20,Nuwara Eliya,නුවරඑළිය,நுவரெலியா, NULL, NULL, NULL,22200,6.9479581,80.7885103
1543,20,Padiyapelella,පදියපැලැල්ල,பதியபெலல்ல, NULL, NULL, NULL,20750,7.0935749,80.7983262
1544,20,Pallebowala,පල්ලෙබෝවල,பல்லேபோவல, NULL, NULL, NULL,20734,7.1515047,80.7339144
1545,20,Panvila,පන්විල,பன்வில, NULL, NULL, NULL,20830,7.4004208,80.7329079
1546,20,Pitawala,පිටවල,பிடவாலா, NULL, NULL, NULL,20682,6.9983695,80.4576835
1547,20,Pundaluoya,පුණ්ඩළුඔය,பூண்டுலோயா, NULL, NULL, NULL,22120,7.0131278,80.6632103
1548,20,Ramboda,රම්බොඩ,ரம்பொடை, NULL, NULL, NULL,20590,7.0565468,80.6938474
1549,20,Rikillagaskada,රිකිල්ලගස්කඩ,ரிகில்லகஸ்கட, NULL, NULL, NULL,20730,7.1486516,80.7907103
1550,20,Rozella,රොසැල්ල,ரொசெல்ல, NULL, NULL, NULL,22008,6.9276827,80.558546
1551,20,Rupaha,රූපහ,ரூபாஹா, NULL, NULL, NULL,22245,7.0322593,80.9043234
1552,20,Ruwaneliya,රුවන්එළිය,ருவனெலியா, NULL, NULL, NULL,22212,6.9420892,80.7768129
1553,20,Santhipura,ශාන්තිපුර,சாந்திபுரா, NULL, NULL, NULL,22202,6.9789453,80.7477708
1554,20,Talawakele,තලවකැලේ,தலவாக்கலை, NULL, NULL, NULL,22100,6.9387914,80.6632103
1555,20,Tawalantenna,තවලන්තැන්න,தவலந்தென்ன, NULL, NULL, NULL,20838,7.0706822,80.6840121
1556,20,Teripeha,තෙරිපේහා,தெரிபெஹா, NULL, NULL, NULL,22287,7.1140442,80.9144285
1557,20,Udamadura,උඩමාදුර,உடமதுர, NULL, NULL, NULL,22285,7.0965737,80.916626
1558,20,Udapussallawa,උඩපුස්සල්ලාව,உடபுஸ்ஸல்லாவ, NULL, NULL, NULL,22250,7.0127123,80.9124781
1559,20,Uva Deegalla,ඌව දීගල්ල,ஊவா டீகல்ல, NULL, NULL, NULL,90062,6.9497166,80.7891068
1560,20,Uva Uduwara,ඌව උඩුවර,ஊவா உடுவார, NULL, NULL, NULL,90061,6.9304421,81.0561458
1561,20,Uvaparanagama,ඌව-පරණගම,ஊவா பரணகம, NULL, NULL, NULL,90230,6.9497166,80.7891068
1562,20,Walapane,වලපනේ,வலப்பனை, NULL, NULL, NULL,22270,7.1021663,80.8626864
1563,20,Watawala,වටවල,வட்டவளை, NULL, NULL, NULL,22010,6.9449468,80.5389834
1564,20,Widulipura,විදුලිපුර,விதுலிபுரா, NULL, NULL, NULL,22032,6.9094057,80.5188396
1565,20,Wijebahukanda,විජේබාහුකන්ද,விஜேபாகுகந்த, NULL, NULL, NULL,22018,6.9497166,80.7891068
1566,21,Attanakadawala,අත්තනගඩවල,அத்தனகடவல, NULL, NULL, NULL,51235,7.9330954,80.8702955
1567,21,Bakamuna,බකමූණ,பகமுனா, NULL, NULL, NULL,51250,7.780602,80.818401
1568,21,Diyabeduma,දියබෙදුම,தியபெடும, NULL, NULL, NULL,51225,7.9297432,80.8709872
1569,21,Elahera,ඇලහැර,எலஹெரா, NULL, NULL, NULL,51258,7.734387,80.7934798
1570,21,Giritale,ගිරිතලේ,கிரிதலே, NULL, NULL, NULL,51026,8.0023564,80.9249212
1571,21,Hingurakdamana,හිඟුරක්දමන,ஹிங்குரக்டமன, NULL, NULL, NULL,51408,8.0415888,80.9532359
1572,21,Hingurakgoda,හිඟුරක්ගොඩ,இங்குராகொடை, NULL, NULL, NULL,51400,8.0415888,80.9532359
1573,21,Jayanthipura,ජයන්තිපුර,ஜெயந்திபுரா, NULL, NULL, NULL,51024,7.9483156,81.0017827
1574,21,Kalingaela,කාලිංගඇල,கலிங்கேலா, NULL, NULL, NULL,51002,7.9403384,81.0187984
1575,21,Lakshauyana,ලක්ෂඋයන,லக்ஷௌயன, NULL, NULL, NULL,51006,7.9905068,80.9995387
1576,21,Mankemi,මන්කෙමි,மான்கெமி, NULL, NULL, NULL,30442,7.9403384,81.0187984
1577,21,Minneriya,මින්නේරිය,மின்னேரியா, NULL, NULL, NULL,51410,8.0386709,80.9063922
1578,21,Onegama,ඕනගම,ஒன்கம, NULL, NULL, NULL,51004,7.9776777,81.0920218
1579,21,Orubendi Siyambalawa,ඔරුබැඳි සියඹලාව,ஒருபெண்டி சியம்பலாவா, NULL, NULL, NULL,51256,7.7536098,80.8128636
1580,21,Palugasdamana,පලුගස්දමන,பலுகஸ்தமன, NULL, NULL, NULL,51046,7.9654599,81.0257763
1581,21,Panichankemi,පනිචංකෙමි,பனிசங்கேமி, NULL, NULL, NULL,30444,7.9403384,81.0187984
1582,21,Polonnaruwa,පොළොන්නරුව,பொலநறுவை, NULL, NULL, NULL,51000,7.9619141,80.9952353
1583,21,Talpotha,තල්පොත,தல்போத, NULL, NULL, NULL,51044,8.0314571,81.0340151
1584,21,Tambala,තඹල,தம்பாலா, NULL, NULL, NULL,51049,8.0093977,81.0697053
1585,21,Unagalavehera,උණගලවෙහෙර,உனகலவெஹர, NULL, NULL, NULL,51008,8.0119043,80.9912514
1586,21,Wijayabapura,විජයබාපුර,விஜயபாபுரா, NULL, NULL, NULL,51042,7.8227119,81.1856994
1587,22,Adippala,අඩිප්පල,அடிப்பாலா, NULL, NULL, NULL,61012,7.6734366,79.8772834
1588,22,Alutgama,අළුත්ගම,அளுத்கம, NULL, NULL, NULL,12080,7.566667,79.9
1589,22,Alutwewa,අළුත්වැව,அலுத்வேவா, NULL, NULL, NULL,51014,7.983333,80.4
1590,22,Ambakandawila,අඹකඳවිල,அம்பகண்டவில, NULL, NULL, NULL,61024,7.5275627,79.7936322
1591,22,Anamaduwa,ආනමඩුව,ஆனைமடு, NULL, NULL, NULL,61500,7.8777703,80.0111156
1592,22,Andigama,අඬිගම,ஆண்டிகம, NULL, NULL, NULL,61508,7.7782889,79.9486489
1593,22,Angunawila,අඟුණවිල,அங்குனாவில, NULL, NULL, NULL,61264,7.7533988,79.8604831
1594,22,Attawilluwa,අත්තවිල්ලුව,அட்டவில்லுவா, NULL, NULL, NULL,61328,7.9605599,79.8800832
1595,22,Bangadeniya,බංගදෙණිය,பங்கதெனிய, NULL, NULL, NULL,61238,7.6280562,79.8254722
1596,22,Baranankattuwa,බරණන්කට්ටුව,பரனங்கட்டுவ, NULL, NULL, NULL,61262,7.8019284,79.8716837
1597,22,Battuluoya,බත්තුලුඔය,பட்டுலுஓயா, NULL, NULL, NULL,61246,7.73377,79.8240715
1598,22,Bujjampola,බුජ්ජම්පොල,புஜ்ஜம்போல, NULL, NULL, NULL,61136,7.3271638,79.9164717
1599,22,Chilaw,හලාවත,சிலாபம், NULL, NULL, NULL,61000,7.5619894,79.8016569
1600,22,Dalukana,දලුකන,டலுகானா, NULL, NULL, NULL,51092,8.0407913,79.839386
1601,22,Dankotuwa,දංකොටුව,தங்கொட்டுவ, NULL, NULL, NULL,61130,7.2974635,79.8821881
1602,22,Dewagala,දේවගල,தேவகல, NULL, NULL, NULL,51094,8.0407913,79.839386
1603,22,Dummalasuriya,දුම්මලසූරිය,தும்மலசூரிய, NULL, NULL, NULL,60260,7.4924001,79.9108744
1604,22,Dunkannawa,දුන්කන්නාව,டங்கன்னாவா, NULL, NULL, NULL,61192,7.4186794,79.9100319
1605,22,Eluwankulama,එළුවන්කුලම,எழுவன்குளம, NULL, NULL, NULL,61308,8.2730821,79.8800832
1606,22,Ettale,ඇත්තලේ,எட்டாலே, NULL, NULL, NULL,61343,8.0407913,79.839386
1607,22,Galamuna,ගලමුන,கலமுனா, NULL, NULL, NULL,51416,7.466168,79.8730837
1608,22,Galmuruwa,ගල්මුරුව,கல்முருவா, NULL, NULL, NULL,61233,7.5028245,79.8996789
1609,22,Hansayapalama,හංසයාපාලම,ஹன்சயபாலம, NULL, NULL, NULL,51098,8.0407913,79.839386
1610,22,Ihala Kottaramulla,ඉහළ කොට්ටාරමුල්ල,இஹல கொட்டாரமுல்ல, NULL, NULL, NULL,61154,7.3782089,79.8758835
1611,22,Ilippadeniya,ඉලිප්පදෙණිය,இலிப்பதெனிய, NULL, NULL, NULL,61018,7.5705986,79.8268729
1612,22,Inginimitiya,ඉඟිනිමිටිය,இங்கினிமிட்டிய, NULL, NULL, NULL,61514,7.9866848,79.9590808
1613,22,Ismailpuram,ඉස්මයිල්පුරම්,இஸ்மாயில்புரம், NULL, NULL, NULL,61302,8.0407913,79.839386
1614,22,Jayasiripura,ජයසිරිපුර,ஜெயஸ்ரீபுர, NULL, NULL, NULL,51246,7.5756587,80.0451095
1615,22,Kakkapalliya,කාක්කපල්ලිය,காக்கப்பள்ளியா, NULL, NULL, NULL,61236,7.5277156,79.82127
1616,22,Kalkudah,කල්කුඩා,கல்குடா, NULL, NULL, NULL,30410,8.1173684,79.7152334
1617,22,Kalladiya,කල්අඩිය,கல்லடியா, NULL, NULL, NULL,61534,7.9904807,79.8940806
1618,22,Kandakuliya,කන්දකුලිය,கந்தகுளியா, NULL, NULL, NULL,61358,8.2037473,79.7007211
1619,22,Karathivu,කරතිව්,காரைதீவு, NULL, NULL, NULL,61307,8.0407913,79.839386
1620,22,Karawitagara,කරවිටාගාර,கரவிட்டகர, NULL, NULL, NULL,61022,7.567081,79.8478808
1621,22,Karuwalagaswewa,කරුවලගස්වැව,கருவலகஸ்வெவ, NULL, NULL, NULL,61314,8.0565759,79.9556424
1622,22,Katuneriya,කටුනේරිය,கட்டுனேரியா, NULL, NULL, NULL,61180,7.3706207,79.8352767
1623,22,Koswatta,කොස්වත්ත,கொஸ்வத்த, NULL, NULL, NULL,61158,7.3920608,79.9012671
1624,22,Kottantivu,කොට්ටන්තිව්,கொட்டன்தீவு, NULL, NULL, NULL,61252,7.8616705,79.7904475
1625,22,Kottapitiya,කෝට්ටපිටිය,கொட்டபிட்டிய, NULL, NULL, NULL,51244,7.6358832,79.8170675
1626,22,Kottukachchiya,කොට්ටුකච්චිය,கொட்டுகச்சியா, NULL, NULL, NULL,61532,7.9406915,79.9472502
1627,22,Kumarakattuwa,කුමාරකට්ටුව,குமாரகட்டுவ, NULL, NULL, NULL,61032,7.6341108,79.8743263
1628,22,Kurinjanpitiya,කුරින්ජන්පිටිය,குறிஞ்சன்பிட்டிய, NULL, NULL, NULL,61356,8.0407913,79.839386
1629,22,Kuruketiyawa,කුරුකැටියාව,குருகெட்டியாவ, NULL, NULL, NULL,61516,8.0202778,80.0536111
1630,22,Lunuwila,ලුණුවිල,லுனுவில, NULL, NULL, NULL,61150,7.3558782,79.8726524
1631,22,Madampe,මාදම්පේ,மாதம்பை, NULL, NULL, NULL,61230,7.4972336,79.8413319
1632,22,Madurankuliya,මදුරන්කුලිය,மதுரங்குளிய, NULL, NULL, NULL,61270,7.9080663,79.82127
1633,22,Mahakumbukkadawala,මහකුඹුක්කඩවල,மஹகும்புக்கடவல, NULL, NULL, NULL,61272,7.8478779,79.8856824
1634,22,Mahauswewa,මහඋස්වැව,மஹௌஸ்வேவா, NULL, NULL, NULL,61512,7.924126,80.0967906
1635,22,Mampitiya,මාම්පිටිය,மம்பிட்டிய, NULL, NULL, NULL,51090,8.0407913,79.839386
1636,22,Mampuri,මාම්පුරි,மாம்புரி, NULL, NULL, NULL,61341,8.0035373,79.7407256
1637,22,Mangalaeliya,මංගලඑළිය,மங்கலேலியா, NULL, NULL, NULL,61266,7.8599091,79.8204619
1638,22,Marawila,මාරවිල,மாரவில, NULL, NULL, NULL,61210,7.4239428,79.8352767
1639,22,Mudalakkuliya,මුදලක්කුලිය,முதலக்குளிய, NULL, NULL, NULL,61506,7.9080663,79.82127
1640,22,Mugunuwatawana,මුගුණුවටවන,முகனுவடவன, NULL, NULL, NULL,61014,7.5833824,79.859083
1641,22,Mukkutoduwawa,මුක්කුතොඩුවාව,முக்குதொடுவாவ, NULL, NULL, NULL,61274,7.9183333,79.7602778
1642,22,Mundel,මුන්ඩෙල්,முந்தல், NULL, NULL, NULL,61250,7.7975587,79.8016569
1643,22,Muttibendiwila,මුට්ටිබැඳිවිල,முட்டிபெந்திவில, NULL, NULL, NULL,61195,8.0407913,79.839386
1644,22,Nainamadama,නයිනමඩම,நைனமடம, NULL, NULL, NULL,61120,7.3148681,79.8436796
1645,22,Nalladarankattuwa,නල්ලදරන්කට්ටුව,நல்லதரன்கட்டுவ, NULL, NULL, NULL,61244,7.6637171,79.8393034
1646,22,Nattandiya,නාත්තණ්ඩිය,நாத்தாண்டி, NULL, NULL, NULL,61190,7.412487,79.859083
1647,22,Nawagattegama,නවගත්තේගම,நவகத்தேகம, NULL, NULL, NULL,61520,8.0012906,80.10379
1648,22,Nelumwewa,නෙළුම්වැව,நெலும்வெவ, NULL, NULL, NULL,51096,8.0134902,79.870027
1649,22,Norachcholai,නොරච්චෝලේ,நுரைச்சோலை, NULL, NULL, NULL,61342,8.0131676,79.7242393
1650,22,Pallama,පල්ලම,பல்லமா, NULL, NULL, NULL,61040,7.6843939,79.9257969
1651,22,Palliwasalturai,පල්ලිවාසල්තුරෙයි,பள்ளிவாசல்துறை, NULL, NULL, NULL,61354,8.0407913,79.839386
1652,22,Panirendawa,පනිරෙන්දව,பனிரெண்டாவா, NULL, NULL, NULL,61234,7.4918844,79.8884819
1653,22,Parakramasamudraya,පරාක්‍රමසමුද්‍රය,பராக்ரமஸமுদ்ராய, NULL, NULL, NULL,51016,7.89959,80.9705292
1654,22,Pothuwatawana,පොතුවටවන,பொதுவடவன, NULL, NULL, NULL,61162,7.3585411,79.9164712
1655,22,Puttalam,පුත්තලම,புத்தளம், NULL, NULL, NULL,61300,8.0407913,79.839386
1656,22,Puttalam Cement Factory,පුත්තලම සිමෙන්ති කම්හල,புத்தளம் சீமெந்து தொழிற்ச்சலை, NULL, NULL, NULL,61326,7.9878275,79.8681837
1657,22,Rajakadaluwa,රජකදළුව,ராஜகடலுவ, NULL, NULL, NULL,61242,7.656449,79.8380778
1658,22,Saliyawewa Junction,සාලියවැව හන්දිය,சாலியவெவ சந்தி, NULL, NULL, NULL,61324,8.1934077,80.0939978
1659,22,Serukele,සේරුකැලේ,செருகேலே, NULL, NULL, NULL,61042,7.7266149,79.9181332
1660,22,Siyambalagashene,සියඹලාගස්හේනේ,சியம்பலாகாஷேனே, NULL, NULL, NULL,61504,8.0407913,79.839386
1661,22,Tabbowa,තබ්බෝව,தப்போவா, NULL, NULL, NULL,61322,8.0861221,79.9263598
1662,22,Talawila Church,තලවිල පල්ලිය,தலவில தேவாலயம், NULL, NULL, NULL,61344,8.1125436,79.7034586
1663,22,Toduwawa,තොඩුවාව,தொடுவாவ, NULL, NULL, NULL,61224,7.4859027,79.803058
1664,22,Udappuwa,උඩප්පුව,உடப்புவ, NULL, NULL, NULL,61004,7.7358447,79.7988547
1665,22,Uridyawa,උරිද්යාව,உரித்யாவா, NULL, NULL, NULL,61502,8.0407913,79.839386
1666,22,Vanathawilluwa,වනාතවිල්ලුව,வனத்தவில்லுவா, NULL, NULL, NULL,61306,8.1869315,79.8611832
1667,22,Waikkal,වයික්කාල,வைக்காலை, NULL, NULL, NULL,61110,7.2837919,79.8577634
1668,22,Watugahamulla,වතුගහමුල්ල,வடுகஹமுல்ல, NULL, NULL, NULL,61198,8.0407913,79.839386
1669,22,Wennappuwa,වෙන්නප්පුව,வென்னப்புவ, NULL, NULL, NULL,61170,7.3493037,79.8352767
1670,22,Wijeyakatupotha,විජයකටුපොත,விஜேயகதுபொத, NULL, NULL, NULL,61006,7.7241229,79.8688837
1671,22,Wilpotha,විල්පොත,வில்பொத, NULL, NULL, NULL,61008,7.7458263,79.8800832
1672,22,Yodaela,යෝඩඇල,யோடேலா, NULL, NULL, NULL,51422,7.5666667,79.8666667
1673,22,Yogiyana,යෝගියානා,யோக்கியனா, NULL, NULL, NULL,61144,7.2887675,79.926266
1674,23,Akarella,අකරැල්ල,அகரெல்லா, NULL, NULL, NULL,70082,6.5905329,80.6479524
1675,23,Amunumulla,අමුනුමුල්ල,அமுனுமுல்ல, NULL, NULL, NULL,90204,6.7145912,80.7872185
1676,23,Atakalanpanna,අටකලන්පන්න,அடகலன்பண்ண, NULL, NULL, NULL,70294,6.5406695,80.5910567
1677,23,Ayagama,අයගම,அயகம, NULL, NULL, NULL,70024,6.6377266,80.3125537
1678,23,Balangoda,බලන්ගොඩ,பலாங்கொடை, NULL, NULL, NULL,70100,6.642522,80.6887333
1679,23,Batatota,බටතොට,படடோட்டா, NULL, NULL, NULL,70504,6.7055742,80.3847345
1680,23,Beralapanathara,බෙරලපනතර,பேரலபநாதரா, NULL, NULL, NULL,81541,6.7055742,80.3847345
1681,23,Bogahakumbura,බෝගහකුඹුර,போகஹகும்புர, NULL, NULL, NULL,90354,6.8632985,80.8737539
1682,23,Bolthumbe,බොල්තුඹෙ,போல்தும்பே, NULL, NULL, NULL,70131,6.7428477,80.668758
1683,23,Bomluwageaina,බොම්ලුවගෙයින,பொம்லுவாகைன, NULL, NULL, NULL,70344,6.7055742,80.3847345
1684,23,Bowalagama,බෝවලගම,போவலகம, NULL, NULL, NULL,82458,6.6792812,80.4064707
1685,23,Bulutota,බුලුතොට,புலுதோட்டா, NULL, NULL, NULL,70346,6.4706651,80.612089
1686,23,Dambuluwana,දඹුලුවාන,தம்புலுவான, NULL, NULL, NULL,70019,6.7018319,80.3268812
1687,23,Daugala,දවුගල,டௌகலா, NULL, NULL, NULL,70455,6.7055742,80.3847345
1688,23,Dela,දෙල,டெலா, NULL, NULL, NULL,70042,6.6204934,80.4542074
1689,23,Delwala,දෙල්වල,டெல்வாலா, NULL, NULL, NULL,70046,6.516667,80.466667
1690,23,Dodampe,දොඩම්පෙ,தொடம்பே, NULL, NULL, NULL,70017,6.7479409,80.3146502
1691,23,Doloswalakanda,දොලොස්වලකන්ද,டோலோஸ்வலகந்த, NULL, NULL, NULL,70404,6.5744201,80.4506066
1692,23,Dumbara Manana,දුම්බර මනන,தும்பரா மனனா, NULL, NULL, NULL,70495,6.6823977,80.2427185
1693,23,Eheliyagoda,ඇහැළියගොඩ,எஹலியகொட, NULL, NULL, NULL,70600,6.8485638,80.26001
1694,23,Ekamutugama,එකමුතුගම,ஏகமுதுகம, NULL, NULL, NULL,70254,6.670085,80.395352
1695,23,Elapatha,ඇලපාත,எலபத, NULL, NULL, NULL,70032,6.6591103,80.3700407
1696,23,Ellagawa,ඇල්ලගාව,எல்லகவா, NULL, NULL, NULL,70492,6.733223,80.214817
1697,23,Ellaulla,ඇල්ලඋල,எல்லாவுல்லா, NULL, NULL, NULL,70552,6.7055742,80.3847345
1698,23,Ellawala,ඇල්ලවල,எல்லாவல, NULL, NULL, NULL,70606,6.8089283,80.2627973
1699,23,Embilipitiya,ඇඹිලිපිටිය,எம்பிலிபிட்டிய, NULL, NULL, NULL,70200,6.3162324,80.8433145
1700,23,Eratna,එරත්න,எரத்னா, NULL, NULL, NULL,70506,6.8350065,80.4083088
1701,23,Erepola,එරෙපොල,எரெபோல, NULL, NULL, NULL,70602,6.8032999,80.2460718
1702,23,Gabbela,ගබ්බෙල,கபேலா, NULL, NULL, NULL,70156,6.5134793,80.5466229
1703,23,Gangeyaya,ගන්ගෙයාය,கங்கேயாய, NULL, NULL, NULL,70195,6.3739887,80.8377789
1704,23,Gawaragiriya,ගවරගිරිය,கவரகிரிய, NULL, NULL, NULL,70026,6.6504056,80.2627973
1705,23,Gillimale,ගිලීමලේ,கில்லிமலே, NULL, NULL, NULL,70002,6.7519393,80.4267037
1706,23,Godakawela,ගොඩකවැල,கொடகவெல, NULL, NULL, NULL,70160,6.504906,80.6521139
1707,23,Gurubewilagama,ගුරුබෙවිලගම,குருபேவிலகம, NULL, NULL, NULL,70136,7.873054,80.771797
1708,23,Halwinna,හල්වින්න,ஹல்வின்னா, NULL, NULL, NULL,70171,6.7055742,80.3847345
1709,23,Handagiriya,හඳගිරිය,ஹந்தகிரிய, NULL, NULL, NULL,70106,6.5521354,80.7824012
1710,23,Hatangala,හටංගල,ஹடங்கலா, NULL, NULL, NULL,70105,6.542693,80.7400537
1711,23,Hatarabage,තරබාගේ,ஹடராபாகே, NULL, NULL, NULL,70108,6.658241,80.7491443
1712,23,Hewanakumbura,හේවානකුඹුර,ஹெவனகும்புரா, NULL, NULL, NULL,90358,7.3057088,80.6737742
1713,23,Hidellana,හිදැල්ලන,ஹிடெல்லானா, NULL, NULL, NULL,70012,6.7142258,80.3860459
1714,23,Hiramadagama,හිරමඩගම,ஹிரமடகம, NULL, NULL, NULL,70296,6.5343127,80.6035494
1715,23,Horewelagoda,හොරේවෙලගොඩ,ஹொரேவெலகொட, NULL, NULL, NULL,82456,6.7283412,80.393811
1716,23,Ittakanda,ඉත්තකන්ද,இட்டகண்டா, NULL, NULL, NULL,70342,6.4019615,80.6382413
1717,23,Kahangama,කහන්ගම,கஹங்கம, NULL, NULL, NULL,70016,6.7131236,80.3564792
1718,23,Kahawatta,කහවත්ත,கஹவத்தை, NULL, NULL, NULL,70150,6.5755312,80.574573
1719,23,Kalawana,කලවාන,களவான, NULL, NULL, NULL,70450,6.5317136,80.3964824
1720,23,Kaltota,කල්තොට,கல்தோட்டை, NULL, NULL, NULL,70122,6.659396,80.8709872
1721,23,Kalubululanda,කළුබුළුලන්ද,கலுபுலுலண்டா, NULL, NULL, NULL,90352,6.7283412,80.393811
1722,23,Kananke Bazaar,කනන්කේ බසාර්,கனங்கே பஜார், NULL, NULL, NULL,80136,6.0187655,80.4420992
1723,23,Kandepuhulpola,කන්දෙපුහුල්පොල,கந்தேபுஹுல்பொல, NULL, NULL, NULL,90356,6.8366826,80.8682203
1724,23,Karandana,කරඳන,கரந்தன, NULL, NULL, NULL,70488,6.7827035,80.2183951
1725,23,Karangoda,කරංගොඩ,கரங்கொட, NULL, NULL, NULL,70018,6.6775711,80.3957885
1726,23,Kella Junction,කෑල්ල හන්දිය,கெல்ல சந்திப்பு, NULL, NULL, NULL,70352,6.3611044,80.6919119
1727,23,Keppetipola,කැප්පෙටිපොළ,கெப்பெட்டிபொல, NULL, NULL, NULL,90350,7.1632517,80.5705396
1728,23,Kiriella,කිරිඇල්ල,கிரியெல்ல, NULL, NULL, NULL,70480,6.7295038,80.2704602
1729,23,Kiriibbanwewa,කිරිඉබ්බන්වැව,கிரிப்பன்வெவ, NULL, NULL, NULL,70252,6.3776742,80.9719108
1730,23,Kolambage Ara,කොළඹගේ ආර,கொலம்பகே ஆரா, NULL, NULL, NULL,70180,6.4183564,80.7803238
1731,23,Kolombugama,කොළඹගම,கொலம்புகம, NULL, NULL, NULL,70403,6.5678356,80.4938267
1732,23,Kolonna,කොළොන්න,கொலொன்னா, NULL, NULL, NULL,70350,6.4052845,80.6852253
1733,23,Kudawa,කුඩාව,குடவா, NULL, NULL, NULL,70005,6.4433546,80.4170572
1734,23,Kuruwita,කුරුවිට,குருவிட்டை, NULL, NULL, NULL,70500,6.8218403,80.3615079
1735,23,Lellopitiya,ලෙල්ලොපිටිය,லெல்லோபிட்டிய, NULL, NULL, NULL,70056,6.663967,80.4840974
1736,23,Imaduwa,ඉමදූව,இமதுவ, NULL, NULL, NULL,80130,6.0359878,80.3903902
1737,23,Imbulpe,ඉඹුල්පේ,இம்புல்பே, NULL, NULL, NULL,70134,6.7008173,80.7533126
1738,23,Mahagama Colony,මහගම ජනපදය,மகாகம காலனி, NULL, NULL, NULL,70256,7.3787979,80.3839584
1739,23,Mahawalatenna,මහාවලතැන්න,மஹாவலதென்ன, NULL, NULL, NULL,70112,6.5870877,80.7486062
1740,23,Makandura,මාකඳුර,மகந்துர, NULL, NULL, NULL,70298,6.5532888,80.6313041
1741,23,Malwala Junction,මල්වල හන්දිය,மல்வல சந்தி, NULL, NULL, NULL,70001,6.6821743,80.4097349
1742,23,Malwatta,මල්වත්ත,மல்வத்தை, NULL, NULL, NULL,32198,6.5099709,80.641016
1743,23,Matuwagalagama,මතුවාගලගම,மட்டுவாகலகம, NULL, NULL, NULL,70482,6.7055742,80.3847345
1744,23,Medagalature,මැදගලතුරේ,மெடகலச்சூர், NULL, NULL, NULL,70021,6.6775711,80.3957885
1745,23,Meddekanda,මැද්දෙකන්ද,மெடேகண்டா, NULL, NULL, NULL,70127,6.6752433,80.6590494
1746,23,Minipura Dumbara,මිණිපුර දුම්බර,மினிபுரா தும்பரா, NULL, NULL, NULL,70494,6.7159327,80.2139173
1747,23,Mitipola,මිටිපොල,மிட்டிபோல, NULL, NULL, NULL,70604,6.8345939,80.223766
1748,23,Moragala Kirillapone,මොරගල කිරිල්ලපොන,மொரகல கிரில்லபொன், NULL, NULL, NULL,81532,6.8577436,80.2558288
1749,23,Morahela,මොරහැල,மொரஹெலா, NULL, NULL, NULL,70129,6.6850981,80.6909448
1750,23,Mulendiyawala,මුල්ඇඩියාවල,முலேந்தியாவல, NULL, NULL, NULL,70212,6.288684,80.771321
1751,23,Mulgama,මුල්ගම,முல்கம, NULL, NULL, NULL,70117,6.6660517,80.817651
1752,23,Nawalakanda,නාවලකන්ද,நாவலகந்த, NULL, NULL, NULL,70469,6.244607,80.1434573
1753,23,Nawinnapinnakanda,නාවින්නපින්නකන්ඳ,நாவின்னாபின்னகந்த, NULL, NULL, NULL,70165,6.7055742,80.3847345
1754,23,Niralagama,නිරලගම,நிரலாகம, NULL, NULL, NULL,70038,6.7055742,80.3847345
1755,23,Nivitigala,නිවිතිගල,நிவிதிகலை, NULL, NULL, NULL,70400,6.595885,80.457767
1756,23,Omalpe,ඕමල්පේ,ஓமல்பே, NULL, NULL, NULL,70215,6.3267626,80.6964905
1757,23,Opanayaka,ඕපනායක,ஓப்பனாயாக, NULL, NULL, NULL,70080,6.6237596,80.6874372
1758,23,Padalangala,පදලංගල,படலங்கல, NULL, NULL, NULL,70230,6.2491779,80.9152434
1759,23,Pallebedda,පල්ලෙබැද්ද,பல்லேபெத்தா, NULL, NULL, NULL,70170,6.4827398,80.7064489
1760,23,Pallekanda,පල්ලෙකන්ද,பல்லேகந்த, NULL, NULL, NULL,82454,6.6360373,80.6812388
1761,23,Pambagolla,පඹගොල්ල,பம்பகொல்ல, NULL, NULL, NULL,70133,6.6904871,80.3798933
1762,23,Panamura,පණාමුර,பனமுரா, NULL, NULL, NULL,70218,6.3435275,80.7731932
1763,23,Panapola,පනාපොළ,பனாபொல, NULL, NULL, NULL,70461,6.4300373,80.4493405
1764,23,Paragala,පරගල,பரகல, NULL, NULL, NULL,81474,6.5964832,80.3380213
1765,23,Parakaduwa,පරකඩුව,பரகடுவ, NULL, NULL, NULL,70550,6.8257029,80.3073826
1766,23,Pebotuwa,පෙබොටුව,பெபொடுவ, NULL, NULL, NULL,70045,6.5279235,80.4538177
1767,23,Pelmadulla,පැල්මඩුල්ල,பெல்மடுல்லை, NULL, NULL, NULL,70070,6.6344847,80.5299541
1768,23,Pinnawala,පින්නවල,பின்னவலை, NULL, NULL, NULL,70130,7.3009705,80.3871563
1769,23,Pothdeniya,පොත්දෙණිය,பொத்தெனிய, NULL, NULL, NULL,81538,6.7082496,80.3826644
1770,23,Rajawaka,රජවක,ராஜவக, NULL, NULL, NULL,70116,6.6027409,80.8073259
1771,23,Ranwala,රන්වල,ரன்வாலா, NULL, NULL, NULL,70162,6.5472914,80.6632103
1772,23,Rassagala,රාස්සගල,ராஸ்ஸகல, NULL, NULL, NULL,70135,6.6923487,80.6378945
1773,23,Rathgama,රත්ගම,ரத்கம, NULL, NULL, NULL,80260,6.7151698,80.4688805
1774,23,Ratna Hangamuwa,රත්න හංගමුව,ரத்ன ஹங்கமுவ, NULL, NULL, NULL,70036,6.6423601,80.3909164
1775,23,Ratnapura,රත්නපුර,இரத்தினபுரி, NULL, NULL, NULL,70000,6.6951454,80.3727429
1776,23,Sewanagala,සෙවණගල,செவனகல, NULL, NULL, NULL,70250,6.3598916,80.9195605
1777,23,Sri Palabaddala,ශ්‍රී පලාබද්දල,ஸ்ரீ பாலபத்தலா, NULL, NULL, NULL,70004,6.7890641,80.4604643
1778,23,Sudagala,සුදාගල,சுதாகலா, NULL, NULL, NULL,70502,6.8089088,80.3936994
1779,23,Thalakolahinna,තලකොළහින්න,தலகொலஹின்ன, NULL, NULL, NULL,70101,6.7055742,80.3847345
1780,23,Thanjantenna,තන්ජන්තැන්න,தஞ்சந்தென்ன, NULL, NULL, NULL,70118,6.6334943,80.8457363
1781,23,Theppanawa,තෙප්පනාව,தெப்பனாவ, NULL, NULL, NULL,70512,6.7494438,80.3460273
1782,23,Thunkama,තුංකම,தூங்காம, NULL, NULL, NULL,70205,6.2782595,80.8882777
1783,23,Udakarawita,උඩකරවිට,உடகரவிட்ட, NULL, NULL, NULL,70044,6.5928022,80.4594505
1784,23,Udaniriella,උඩනිරිඇල්ල,உதநிரியெல்லா, NULL, NULL, NULL,70034,6.7295038,80.2704602
1785,23,Udawalawe,උඩවලවේ,உடவலவே, NULL, NULL, NULL,70190,6.4055619,80.8020543
1786,23,Ullinduwawa,උල්ලිඳුවාව,உள்ளிந்துவாவ, NULL, NULL, NULL,70345,6.3701976,80.6271415
1787,23,Veddagala,වැද්දාගල,வெத்தகல, NULL, NULL, NULL,70459,6.4645846,80.4320286
1788,23,Vijeriya,විජේරිය,விஜேரியா, NULL, NULL, NULL,70348,6.4173268,80.6535958
1789,23,Waleboda,වලේබොඩ,வாலேபோடா, NULL, NULL, NULL,70138,6.7265157,80.6640036
1790,23,Watapotha,වටාපොත,வடபோத, NULL, NULL, NULL,70408,6.7283412,80.393811
1791,23,Waturawa,වටුරාව,வடுரவ, NULL, NULL, NULL,70456,6.4985327,80.4445611
1792,23,Weligepola,වැලිගෙපොල,வெலிகேபொல, NULL, NULL, NULL,70104,6.5718059,80.7048084
1793,23,Welipathayaya,වැලිපතයාය,வெலிபதாயாய, NULL, NULL, NULL,70124,6.6198117,80.8737539
1794,23,Wikiliya,විකිලිය,விக்கிலியா, NULL, NULL, NULL,70114,6.621491,80.7505417
1795,24,Agbopura,අග්බෝපුර,அக்போபுரா, NULL, NULL, NULL,31304,8.3313952,80.9764892
1796,24,Buckmigama,බක්මීගම,பக்மிகம, NULL, NULL, NULL,31028,8.5873638,81.2152121
1797,24,China Bay,චීන වරාය,சீன குடா, NULL, NULL, NULL,31050,8.5629202,81.1990094
1798,24,Dehiwatte,දෙහිවත්ත,தெஹிவத்தை, NULL, NULL, NULL,31226,8.5873638,81.2152121
1799,24,Echchilampattai,එච්චිලම්පට්ටෙයි,எச்சிலம்பட்டை, NULL, NULL, NULL,31236,8.5873638,81.2152121
1800,24,Galmetiyawa,ගල්මැටියාව,கல்மெட்டியாவ, NULL, NULL, NULL,31318,8.5873638,81.2152121
1801,24,Gomarankadawala,ගෝමරන්කඩවල,கோமரன்கடவல, NULL, NULL, NULL,31026,8.6750384,80.9632423
1802,24,Kaddaiparichchan,කඩ්ඩයිපරිච්චන්,கட்டைபறிச்சான், NULL, NULL, NULL,31212,8.4543544,81.2917971
1803,24,Kallar,කල්ලාර්,கள்ளாறு, NULL, NULL, NULL,30250,8.5873638,81.2152121
1804,24,Kanniya,කන්නියා,கிண்ணியா, NULL, NULL, NULL,31032,8.5987805,81.1871515
1805,24,Kantalai,කන්තලේ,கந்தளாய், NULL, NULL, NULL,31300,8.3512634,81.0069928
1806,24,Kantalai Sugar Factory,කන්තලේ සීනි කර්මාන්ත ශාලාව,கந்தளாய் சீனி தொழிற்சாலை, NULL, NULL, NULL,31306,8.3167222,81.0467219
1807,24,Kiliveddy,කිලිවෙද්දී,கிளிவெட்டி, NULL, NULL, NULL,31220,8.3618361,81.2842702
1808,24,Kinniya,කින්නියා,கிண்ணியா, NULL, NULL, NULL,31100,8.5025473,81.1803832
1809,24,Kuchchaveli,කුච්චවේලි,குச்சவெளி, NULL, NULL, NULL,31014,8.821385,81.0947808
1810,24,Kumburupiddy,කුඹුරුපිද්දී,கும்புறுப்பிட்டி, NULL, NULL, NULL,31012,8.7356879,81.1609679
1811,24,Kurinchakerny,කුරින්චකෙමි,குறிஞ்சகெர்னி, NULL, NULL, NULL,31112,8.5019158,81.1719936
1812,24,Lankapatuna,ලංකාපටුන,லங்காபடுன, NULL, NULL, NULL,31234,8.3573611,81.3896222
1813,24,Mahadivulwewa,මහදිවුල්වැව,மஹதிவுல்வெவ, NULL, NULL, NULL,31036,8.6173858,80.9642773
1814,24,Maharugiramam,මහරුගිරමං,மஹருகிராமம், NULL, NULL, NULL,31106,8.5873638,81.2152121
1815,24,Mallikativu,මල්ලිකතිව්,மல்லிகதீவு, NULL, NULL, NULL,31224,8.5873638,81.2152121
1816,24,Mawadichenai,මාවඩ්චේන,மாவடிச்சேனை, NULL, NULL, NULL,31238,8.6094463,81.2163837
1817,24,Mullipothana,මුල්ලිපොතන,முள்ளிப்பொத்தானை, NULL, NULL, NULL,31312,8.4286799,81.0561458
1818,24,Mutur,මුතුර්,மூதூர், NULL, NULL, NULL,31200,8.4579065,81.2684019
1819,24,Neelapola,නීලපොල,நீலபொல, NULL, NULL, NULL,31228,8.3700677,81.2243444
1820,24,Nilaveli,නිලාවැලි,நிலாவெளி, NULL, NULL, NULL,31010,8.6927331,81.1885293
1821,24,Pankulam,පන්කුලම්,பன்குளம், NULL, NULL, NULL,31034,8.6251302,81.0326795
1822,24,Pulmoddai,පුල්මුඩේ,புல்மோட்டை, NULL, NULL, NULL,50567,8.9445522,80.9826718
1823,24,Rottawewa,රොට්ටවැව,ரொட்டவெவ, NULL, NULL, NULL,31038,8.5995002,80.9217021
1824,24,Sampaltivu,සම්පල්ටිවූ,சாம்பல் தீவு, NULL, NULL, NULL,31006,8.6365976,81.2230485
1825,24,Sampoor,සාම්පූර්,சம்பூர், NULL, NULL, NULL,31216,8.4822436,81.2893793
1826,24,Serunuwara,සේනුවර,சேருநுவர, NULL, NULL, NULL,31232,8.3249734,81.3007405
1827,24,Seruwila,සේරුවිල,சேருவில, NULL, NULL, NULL,31260,8.37057,81.3199136
1828,24,Sirajnagar,සිරජ්නගර්,சிறாஜ்நகர், NULL, NULL, NULL,31314,8.5873638,81.2152121
1829,24,Somapura,සෝමපුර,சோமபுரா, NULL, NULL, NULL,31222,8.2980156,81.2766598
1830,24,Tampalakamam,තම්පලකාමම්,தம்பலகாமம், NULL, NULL, NULL,31046,8.4973752,81.0920218
1831,24,Thuraineelavanai,තුරෛනීලාවනයි,துறைநீலாவணை, NULL, NULL, NULL,30254,7.4473064,81.7992057
1832,24,Tiriyayi,තිරියයි,திரியாயி, NULL, NULL, NULL,31016,6.9406468,79.8613286
1833,24,Toppur,තොප්පුර්,தோப்பூர், NULL, NULL, NULL,31250,8.4045812,81.3124341
1834,24,Trincomalee,තිරිකුණාමලය,திருகோணமலை, NULL, NULL, NULL,31000,8.5873638,81.2152121
1835,24,Wanela,වනෙල,வனேலா, NULL, NULL, NULL,31308,8.3817383,81.079605
1836,25,Vavuniya,වව්නියාව,வவுனியா, NULL, NULL, NULL,43000,8.7542029,80.4982402
1837,5,Colombo 1,කොළඹ 1,கொழும்பு 1, 'Fort', 'කොටුව', 'கோட்டை',100,6.87587,79.8606739
1838,5,Colombo 3,කොළඹ 3,கொழும்பு 3, 'Colpetty', 'කොල්ලුපිටිය', 'கொள்ளுபிட்டி',300,6.8989344,79.8537672
1839,5,Colombo 4,කොළඹ 4,கொழும்பு 4, 'Bambalapitiya', 'බම්බලපිටිය', 'பம்பலப்பிட்டி',400,6.8961335,79.8571475
1840,5,Colombo 5,කොළඹ 5,கொழும்பு 5, 'Havelock Town', 'තිඹිරිගස්යාය', 'ஹெவ்லொக் நகரம்',500,6.8887947,79.8663024
1841,5,Colombo 7,කොළඹ 7,கொழும்பு 7, 'Cinnamon Gardens', 'කුරුඳු වත්ත', 'கறுவாத் தோட்டம்',700,6.9116652,79.8645678
1842,5,Colombo 9,කොළඹ 9,கொழும்பு 9, 'Dematagoda', 'දෙමටගොඩ', 'தெமட்டகொடை',900,6.9367708,79.8607806
1843,5,Colombo 10,කොළඹ 10,கொழும்பு 10, 'Maradana', 'මරදාන', 'மருதானை',1000,6.9277038,79.8660836
1844,5,Colombo 11,කොළඹ 11,கொழும்பு 11, 'Pettah', 'පිට කොටුව', 'புறக் கோட்டை',1100,6.9390418,79.853319
1845,5,Colombo 12,කොළඹ 12,கொழும்பு 12, 'Hulftsdorp', 'අලුත් කඩේ', 'புதுக்கடை',1200,6.9386362,79.8609174
1846,5,Colombo 14,කොළඹ 14,கொழும்பு 14, 'Grandpass', 'ග්‍රන්ඩ්පාස්', 'பாலத்துறை',1400,6.9447602,79.8680208
1847,5,Colombo Secretariant,කොළඹ ලේකම්,கொழும்பு செயலர், NULL, NULL, NULL,110,6.9388302,79.855973
1848,5,Melle Street,මෙල්ල වීදිය,மெல்லே தெரு, NULL, NULL, NULL,276,6.9270786,79.861243
1849,5,Rifel Street,රයිෆල් වීදිය,ரைபிள் தெரு, NULL, NULL, NULL,279,6.9238144,79.8504913
1850,5,Gem & Jewelry,මැණික් සහ ස්වර්ණාභරණ,ரத்தினம் &amp; நகைகள், NULL, NULL, NULL,370,6.9326529,79.844161
1851,5,Torington Square,ටොරින්ටන් චතුරශ්‍රය,டோரிங்டன் சதுக்கம், NULL, NULL, NULL,376,6.9035383,79.8681098
1852,5,National Museum of Colombo,කොළඹ ජාතික කෞතුකාගාරය,கொழும்பு தேசிய அருங்காட்சியகம், NULL, NULL, NULL,377,6.9104555,79.8609925
1853,5,Colombo Labour Sec,කොළඹ කම්කරු අංශය,கொழும்பு தொழிலாளர் பிரிவு, NULL, NULL, NULL,510,6.8920069,79.8764254
1854,5,Polhengoda,පොල්හේන්ගොඩ,பொல்ஹெங்கொட, NULL, NULL, NULL,576,6.8810588,79.8801335
1855,5,Anderson Plats,ඇන්ඩර්සන් ප්ලැට්ස්,ஆண்டர்சன் பிளாட்ஸ், NULL, NULL, NULL,577,6.8901704,79.8729621
1856,5,Keppetipola Mawatha,කැප්පෙටිපොළ මාවත,கெப்பெட்டிபொல மாவத்தை, NULL, NULL, NULL,579,6.9280062,79.8875707
1857,5,Narahenpita,නාරාහේන්පිට,நாரஹேன்பிட்டி, NULL, NULL, NULL,582,6.8975934,79.881483
1858,5,Kirulapana,කිරුළපන,கிருலப்பனை, NULL, NULL, NULL,677,6.8814717,79.8763476
1859,5,University of Colombo,කොළඹ විශ්වවිද්‍යාලය,கொழும்பு பல்கலைக்கழகம், NULL, NULL, NULL,710,6.9000149,79.8587938
1860,5,Colombo General Hospital,කොළඹ මහ රෝහල,கொழும்பு பொது வைத்தியசாலை, NULL, NULL, NULL,779,6.9187429,79.868992
1861,5,Gothami Road,ගෝතමී පාර,கோதமி சாலை, NULL, NULL, NULL,876,6.9145356,79.8873565
1862,5,Wanathamulla,වනාතමුල්ල,வனத்தமுல்ல, NULL, NULL, NULL,877,6.9267093,79.881483
1863,5,Baseline Road,බේස්ලයින් පාර,பேஸ்லைன் சாலை, NULL, NULL, NULL,878,6.9327966,79.8781775
1864,5,Kopiyawatta,කෝපියාවත්ත,கோபியாவத்தை, NULL, NULL, NULL,879,6.9336902,79.8787417
1865,5,Maligawatta,මාලිගාවත්ත,மாளிகாவத்தை, NULL, NULL, NULL,1070,6.9372716,79.8717512
1866,5,Panchikawatte,පංචිකාවත්ත,பஞ்சிகாவத்தை, NULL, NULL, NULL,1078,6.9309682,79.8639835
1867,5,Sarasavipaya,සරසවිපාය,சரஸவிபாய, NULL, NULL, NULL,1079,6.908046,79.8759816
1868,5,Maligakanda,මාලිගාකන්ද,மாலிகாகந்த, NULL, NULL, NULL,1081,6.9284106,79.8681837
1869,5,Wolfendal Street,වුල්ෆෙන්ඩල් වීදිය,உல்ஃபெண்டல் தெரு, NULL, NULL, NULL,1178,6.9396352,79.8543014
1870,5,Pettah Bus Stand,පිටකොටුව බස් නැවතුම,பேட்டை பேருந்து நிலையம், NULL, NULL, NULL,1179,6.9350054,79.8545697
1871,5,Colombo Kachcheri,කොළඹ කච්චේරිය,கொழும்பு கச்சேரி, NULL, NULL, NULL,1181,6.9384005,79.8555521
1872,5,Armour Street,ආමර් වීදිය,ஆர்மர் தெரு, NULL, NULL, NULL,1182,6.9424222,79.8637618
1873,5,St. Anthony\'s,ශාන්ත අන්තෝනි,புனித அந்தோணியார், NULL, NULL, NULL,1183,6.9317104,79.8737618
1874,5,Miraniya Street,මිරානියා වීදිය,மிரானியா தெரு, NULL, NULL, NULL,1276,6.9369644,79.8636471
1875,5,Wasala Road,වාසල පාර,வாசாலா சாலை, NULL, NULL, NULL,1377,6.9511877,79.8649857
1876,5,Nagalagam Street,නාගලගම් වීදිය,நாகலகம் தெரு, NULL, NULL, NULL,1476,6.955273,79.8765151
1877,5,Aluth Mawatha Road,අලුත් මාවත පාර,அளுத் மாவத்தை வீதி, NULL, NULL, NULL,1478,6.9695288,79.8732249
1878,5,Mutwal South,මුට්වාල් දකුණ,முட்வால் தெற்கு, NULL, NULL, NULL,1479,6.9669247,79.8711533
1879,5,Beddagana,බැද්දගාන,பெத்தகானா, NULL, NULL, NULL,10101,6.8914991,79.9090871
1880,5,Madiwela,මාදිවෙල,மடிவேலா, NULL, NULL, NULL,10102,6.8773153,79.9234678
1881,5,Sri Perakumpura,ශ්‍රී පැරකුම්පුර,ஸ்ரீ பேரகும்புரா, NULL, NULL, NULL,10103,8.1528551,80.1456496
1882,5,Mirihana North,මිරිහාන උතුර,மிரிஹான வடக்கு, NULL, NULL, NULL,10104,6.8796652,79.9094751
1883,5,Nawala-Koswatte,නාවල-කොස්වත්ත,நாவல - கொஸ்வத்தை, NULL, NULL, NULL,10105,6.9005375,79.8954802
1884,5,Nawala,නාවල,நாவல, NULL, NULL, NULL,10106,6.8964191,79.8884819
1885,5,Rajagiriya,රාජගිරිය,ராஜகிரிய, NULL, NULL, NULL,10107,6.9094108,79.8942538
1886,5,Parliament of Sri Lanka,ශ්‍රී ලංකා පාර්ලිමේන්තුව,இலங்கை பாராளுமன்றம், NULL, NULL, NULL,10110,6.9311095,79.8430296
1887,5,Obeysekarapura,ඔබේසේකරපුර,ஒபேசேகரபுர, NULL, NULL, NULL,10111,6.9133098,79.8902636
1888,5,Kalapaluwawa,කලපලුවාව,கலபலுவாவ, NULL, NULL, NULL,10112,6.9165531,79.9208324
1889,5,Talangama North,තලංගම උතුර,தலங்கம வடக்கு, NULL, NULL, NULL,10113,6.9168782,79.9317302
1890,5,Talangama South,තලංගම දකුණ,தலங்கம தெற்கு, NULL, NULL, NULL,10114,6.8867552,79.9475999
1891,5,Jayawardhenegama,ජයවර්ධනගම,ஜெயவர்தனேகம, NULL, NULL, NULL,10117,6.9270786,79.861243
1892,5,Isurupaya,ඉසුරුපාය,இசுருபாய, NULL, NULL, NULL,10130,6.9291877,79.8639489
1893,5,Sethsiripaya,සෙත්සිරිපාය,சேத்சிரிபாய, NULL, NULL, NULL,10140,6.9032769,79.9154222
1894,5,Malabe,මාලබේ,மாலபே, NULL, NULL, NULL,10155,6.9060787,79.9696277
1895,5,Oruwala,ඔරුවල,ஒருவள, NULL, NULL, NULL,10201,6.8829038,80.0003875
1896,5,Panagoda Army Camp,පනාගොඩ යුද හමුදා කඳවුර,பனாகொட இராணுவ முகாம், NULL, NULL, NULL,10203,6.8656117,80.0276427
1897,5,Magammana-Dolekade,මාගම්මන-දොලේකඩේ,மகம்மன-டோலேகடே, NULL, NULL, NULL,10207,6.8217877,79.9983811
1898,5,Homagama Town,හෝමාගම නගරය,ஹோமாகம நகரம், NULL, NULL, NULL,10209,6.8432762,80.0031833
1899,5,Godagama Junction,ගොඩගම හන්දිය,கொடகம சந்தி, NULL, NULL, NULL,10211,6.8516724,80.0327334
1900,5,Panagoda,පනාගොඩ,பனாகொட, NULL, NULL, NULL,10213,6.8656117,80.0276427
1901,5,Galawilawaththa,ගලවිලවත්ත,கலாவிலவத்த, NULL, NULL, NULL,10217,6.8364602,79.9933976
1902,5,Kottawa,කොට්ටාව,கொட்டாவ, NULL, NULL, NULL,10220,6.8411652,79.9654324
1903,5,Pelenwatta,පැලැන්වත්ත,பெலன்வத்த, NULL, NULL, NULL,10231,6.8235393,79.9444526
1904,5,Arawwala West,බටහිර ඇරැව්වල,அரவ்வல மேற்கு, NULL, NULL, NULL,10233,6.8382446,79.944071
1905,5,Kottawa North,කොට්ටාව උතුර,கொட்டாவ வடக்கு, NULL, NULL, NULL,10235,6.8614731,79.9563417
1906,5,Rukmale-Pannipitiya,රුක්මලේ-පන්නිපිටිය,ருக்மலே-பன்னிபிட்டிய, NULL, NULL, NULL,10237,6.8559758,79.9780178
1907,5,Malapalla,මලපල්ල,மலபல்லா, NULL, NULL, NULL,10239,6.8468057,79.9822126
1908,5,Mattegoda,මත්තේගොඩ,மத்தேகொட, NULL, NULL, NULL,10240,6.8135488,79.9724245
1909,5,Mirihana,මිරිහාන,மிரிஹானா, NULL, NULL, NULL,10251,6.8689647,79.9038774
1910,5,Udahamulla,උඩහමුල්ල,உடஹமுல்ல, NULL, NULL, NULL,10252,6.8665559,79.9150724
1911,5,Kohuwala,කොහුවල,கொஹுவாலா, NULL, NULL, NULL,10255,6.8624842,79.8854983
1912,5,Pamunuwa-Patiragoda,පමුණුව - පතිරගොඩ,பமுனுவ-பதிரகொட, NULL, NULL, NULL,10281,6.8616689,79.928929
1913,5,Sudanapura,සුදනපුර,சுதனபுர, NULL, NULL, NULL,10282,6.878306,80.2432536
1914,5,Nawinna,නාවින්න,நாவின்ன, NULL, NULL, NULL,10283,6.8533309,79.9150724
1915,5,Vidyodaya University,විද්‍යෝදය විශ්වවිද්‍යාලය,வித்யோதயா பல்கலைக்கழகம், NULL, NULL, NULL,10284,6.9052235,79.8512559
1916,5,Pepiliyana,පැපිලියාන,பெப்பிலியானா, NULL, NULL, NULL,10291,6.8538166,79.8850876
1917,5,Katuwawala,කටුවාවල,கடுவாவல, NULL, NULL, NULL,10292,6.8321178,79.9122738
1918,5,Suwarapola,සුවරාපොල,சுவர்பொல, NULL, NULL, NULL,10301,6.7978742,79.9178709
1919,5,Gorakapitiya,ගොරකපිටිය,கோரகபிட்டிய, NULL, NULL, NULL,10303,6.8143746,79.9486489
1920,5,Makandana,මාකන්දන,மகாண்டனா, NULL, NULL, NULL,10305,6.7769319,79.9511143
1921,5,Kesbewa,කැස්බෑව,கெஸ்பேவா, NULL, NULL, NULL,10307,6.7786701,79.9472502
1922,5,Bokundara,බෝකුන්දර,போகுந்தரா, NULL, NULL, NULL,10309,6.8164327,79.9206694
1923,5,Kahathuduwa,කහතුඩුව,கஹதுடுவ, NULL, NULL, NULL,10321,6.782298,79.9947956
1924,5,Ratmalana North,රත්මලාන උතුර,இரத்மலானை வடக்கு, NULL, NULL, NULL,10372,6.8213856,79.8901296
1925,5,Sirimal Uyana,සිරිමල් උයන,சிறிமல் உயன, NULL, NULL, NULL,10373,6.82677,79.8779834
1926,5,Ratmalana,රත්මලාන,இரத்மலானை, NULL, NULL, NULL,10390,6.8187954,79.8710195
1927,5,Koralawella,කොරලවැල්ල,கோரலவெல்ல, NULL, NULL, NULL,10401,6.7577928,79.88737
1928,5,Egodauyana North,එගොඩඋයන උතුර,எகொடௌயன வடக்கு, NULL, NULL, NULL,10402,6.7209414,79.9010784
1929,5,Egodauyana South,එගොඩඋයන දකුණ,எகொடௌயன தெற்கு, NULL, NULL, NULL,10403,6.7209414,79.9010784
1930,5,Indibedda,ඉඳිබැද්ද,இந்திபெட்டா, NULL, NULL, NULL,10404,6.7738048,79.9038774
1931,5,Moratumulla,මොරටුමුල්ල,மொரட்டுமுல்ல, NULL, NULL, NULL,10405,6.7808497,79.8933807
1932,5,Rawathawatta,රාවතාවත්ත,ராவதவத்த, NULL, NULL, NULL,10406,6.7918869,79.8842826
1933,5,Willorawatta,විල්ලෝරවත්ත,வில்லோரவத்த, NULL, NULL, NULL,10407,6.7868785,79.9009884
1934,5,Lunawa,ලුනාව,லுனாவா, NULL, NULL, NULL,10408,6.7864859,79.8786833
1935,5,Laksapatiya,ලක්ෂපතිය,லக்சபதியா, NULL, NULL, NULL,10409,6.9270786,79.861243
1936,5,Angulana,අඟුලාන,அங்குலானா, NULL, NULL, NULL,10411,6.7976114,79.8737836
1937,5,Kaldemulla,කල්දෙමුල්ල,கல்தெமுல்ல, NULL, NULL, NULL,10413,6.8056265,79.8779834
1938,5,Katubedda,කටුබැද්ද,கடுபெட்டா, NULL, NULL, NULL,10414,6.8014572,79.8996789
1939,5,Liyanwala,ලියනවල,லியான்வல, NULL, NULL, NULL,10501,6.8369077,80.0786359
1940,5,Poregedara,පෝරේගෙදර,போரேகெதர, NULL, NULL, NULL,10503,6.8225047,80.0856189
1941,5,Dampe,දම්පේ,டாம்பே, NULL, NULL, NULL,10505,6.7717868,79.9159181
1942,5,Malagala,මලගල,மலகல, NULL, NULL, NULL,10507,6.7951715,80.1065646
1943,5,Meepe Junction,මීපේ හන්දිය,மீப்பே சந்தி, NULL, NULL, NULL,10509,6.7674949,80.8471749
1944,5,Pinnawala-Waga,පින්නවල-වග,பின்னவல-வாகா, NULL, NULL, NULL,10515,6.8672073,80.1209422
1945,5,Angampitiya,අංගම්පිටිය,அங்கம்பிட்டிய, NULL, NULL, NULL,10517,6.8470031,80.1191296
1946,5,Arukwathupura,අරුක්වතුපුර,அருக்வத்துபுர, NULL, NULL, NULL,10519,6.8710258,79.9388571
1947,5,Kandanapitiya,කඳානපිටිය,கந்தனாபிட்டிய, NULL, NULL, NULL,10523,6.8152383,80.1517322
1948,5,Gurulana,ගුරුලනා,குருலானா, NULL, NULL, NULL,10527,6.8345776,80.1582088
1949,5,Udugamkanda,උඩුගම්කන්ද,உடுகம்கந்த, NULL, NULL, NULL,10529,7.1376448,80.0928982
1951,7,Wattala,වත්තල,வத்தளை, NULL, NULL, NULL,11300,6.9860132,79.9070156
1952,2,Bulnewa,බුල්නෑව,புல்னேவா, NULL, NULL, NULL,50172,8.0413923,80.4465594
1953,2,Kebithigollewa,කැබිතිගොල්ලෑව,கெபிதிகொல்லேவ, NULL, NULL, NULL,50550,8.6408916,80.6696816
1974,16,Madipola,මාඩිපොල,மடிபோல, NULL, NULL, NULL,21156,7.6761154,80.5827272
1975,17,Karatota,කරතොට,கரதொட்ட, NULL, NULL, NULL,81308,6.0641272,80.6660092
1976,8,Gangulandeniya,ගඟුලන්දෙනිය,கங்குலந்தெனிய, NULL, NULL, NULL,82506,6.2956299,80.7186697
1977,3,Idalgashinna,ඉදල්ගස්හින්න,இடல்கஷின்னா, NULL, NULL, NULL,90167,6.782969,80.9000331
1978,9,Allaipiddi,අල්ලයිපිඩ්ඩි,அல்லைப்பிட்டி, NULL, NULL, NULL,40048,9.6198878,79.9654324
1979,9,Allaveddi,අල්ලවෙඩ්ඩි,அல்லவெட்டி, NULL, NULL, NULL,40120,9.6614981,80.0255465
1980,9,Alvai,අල්වායි,அல்வாய், NULL, NULL, NULL,40635,9.8208633,80.2042436
1981,9,Anaikoddai,ආනයිකොඩ්ඩෙයි,ஆனைக்கோட்டை, NULL, NULL, NULL,40198,9.6963543,79.9947956
1982,9,Analaitivu,අනලතිව්,அனலைதீவு, NULL, NULL, NULL,40280,9.6679003,79.7764337
1983,9,Araly,අරලි,அரளி, NULL, NULL, NULL,40221,9.7062078,79.9556424
1984,9,Atchuveli,අච්චුවේලි,அச்சுவேலி, NULL, NULL, NULL,40150,9.7786397,80.1160651
1985,9,Chankanai,චංකානයි,சங்கானை, NULL, NULL, NULL,40212,9.7452236,79.9724245
1986,9,Chavakachcheri,චාවකච්චේරි,சாவகச்சேரி, NULL, NULL, NULL,40500,9.66646,80.1320918
1987,9,Chullipuram,චුල්ලිපුරම්,சுள்ளிபுரம், NULL, NULL, NULL,40230,9.7659262,79.9462375
1988,9,Chundikuli,චුන්ඩිකුලි,சுண்டிக்குளி, NULL, NULL, NULL,40020,9.6534927,80.0339312
1989,9,Chunnakam,චුන්නාකම්,சுன்னாகம், NULL, NULL, NULL,40075,9.7375634,80.0245049
1990,9,Delft West,ඩෙල්ෆ්ට් බටහිර,டெல்ஃப்ட் மேற்கு, NULL, NULL, NULL,40378,9.5276911,79.6998574
1991,9,Delft,ඩෙල්ෆ්ට්,டெல்ஃப்ட், NULL, NULL, NULL,40370,9.5276911,79.6998574
1992,9,Eluvaitivu,එළුවතිව්,எழுவைதீவு, NULL, NULL, NULL,40275,9.6923105,79.811464
1993,9,Erialai,ඊරියාලයි,எரியாலை, NULL, NULL, NULL,40080,9.6382902,80.0786359
1994,9,Ilavalai,ඉලවාලෙයි,இளவாலை, NULL, NULL, NULL,40108,9.7952753,79.9892034
1995,9,Kankesanthurai,කන්කසන්තුරේ,காங்கேசன்துறை, NULL, NULL, NULL,40190,9.8161105,80.0447878
1996,9,Karainagar,කරෙයිනගර්,காரைநகர், NULL, NULL, NULL,40250,9.7480738,79.8828828
1997,9,Karaveddi,කරවෙඩ්ඩි,கரவெட்டி, NULL, NULL, NULL,40520,9.8000673,80.1994182
1998,9,Kayts,කයිට්ස්,ஊர்காவற்துறை, NULL, NULL, NULL,40270,9.6978937,79.8604831
1999,9,Kodikamam,කොඩිකාමම්,கொடிகாமம், NULL, NULL, NULL,40700,9.6844904,80.2220177
2000,9,Kokuvil,කොකුවිල්,கொக்குவில், NULL, NULL, NULL,40060,9.690824,80.021143
2001,9,Kondavil,කොන්ඩාවිල්,கோண்டாவில், NULL, NULL, NULL,40062,9.7030007,80.0339312
2002,9,Kopay,කෝපායි,கோப்பாய், NULL, NULL, NULL,40170,9.7043028,80.0786359
2003,9,Kudatanai,කුඩාතනයි,குடத்தனை, NULL, NULL, NULL,40620,9.6614981,80.0255465
2004,9,Mallakam,මල්ලාකම්,மல்லாகம், NULL, NULL, NULL,40142,9.7618864,80.0241489
2005,9,Mandaitivu,මණ්ඩතිව්,மண்டைதீவு, NULL, NULL, NULL,40045,9.6165391,79.9919995
2006,9,Manipay,මනිපායි,மானிப்பாய், NULL, NULL, NULL,40200,9.7291062,79.9925446
2007,9,Mathagal,මාතගල්,மாதகல், NULL, NULL, NULL,40110,9.7860178,79.9661308
2008,9,Meesalai,මීසාලෙයි,மீசாலை, NULL, NULL, NULL,40510,9.6746661,80.1958755
2009,9,Mahiyampathy,මහියම්පති,மஹியம்பதி, NULL, NULL, NULL,NULL,9.6620798,80.0118926
2010,9,Mirusuvil,මිරුසුවිල්,மிருசுவில், NULL, NULL, NULL,40750,9.6677028,80.234018
2011,9,Nagarkovil,නාගර්කෝවිල්,நாகர்கோவில், NULL, NULL, NULL,40630,9.703095,80.3137106
2012,9,Nagendramadam,නාගේන්ද්‍රමඩම්,நாகேந்திரமடம், NULL, NULL, NULL,40223,9.6614981,80.0255465
2013,9,Nainathivu,නයිනතිව්,நயினாதீவு, NULL, NULL, NULL,40360,9.6190123,79.7748762
2014,9,Neervely,නොරිස්සුම් සහගතයි,பதற்றத்துடன், NULL, NULL, NULL,40165,9.7210699,80.0846944
2015,9,Pandaterippu,පණ්ඩතෙරිප්පු,பண்டதெரிப்பு, NULL, NULL, NULL,40100,9.7782569,79.9724245
2016,9,Point Pedro,පේදුරුතුඩුව,பருத்தித்துறை, NULL, NULL, NULL,40600,9.7937885,80.2209773
2017,9,Puloly,පුලෝලි,புலோலி, NULL, NULL, NULL,40615,9.8172829,80.2352681
2018,9,Pungudutivu,පුංගුඩුතිව්,புங்குடுதீவு, NULL, NULL, NULL,40330,9.5896465,79.8240715
2019,9,Puttur,පුත්තූර්,புத்தூர், NULL, NULL, NULL,40158,9.7330898,80.1000376
2020,9,Sandilipay,සන්දිලිපායි,சண்டிலிப்பாய், NULL, NULL, NULL,40098,9.749336,79.9873832
2021,9,Sangarathai,සංගරති,சங்கரத்தை, NULL, NULL, NULL,40225,9.7285472,79.9668308
2022,9,Sithankerny,සිතන්කර්නි,சித்தன்கெர்னி, NULL, NULL, NULL,40229,9.753655,79.9617755
2023,9,Sivankovilady,සිවන්කෝවිලඩි,சிவன்கோவிலடி, NULL, NULL, NULL,40227,9.6713051,80.0115568
2024,9,Thellippallai,තෙල්ලිප්පල්ලයි,தெல்லிப்பளை, NULL, NULL, NULL,40130,9.7910875,80.0339312
2025,9,Thondamanaru,තොණ්ඩමනාරු,தொண்டமானாறு, NULL, NULL, NULL,40545,9.8184078,80.1369654
2026,9,Urumpirai,උරුම්පිරායි,உரும்பிராய், NULL, NULL, NULL,40180,9.720319,80.0430418
2027,9,Vaddukoddai,වඩ්ඩුකොඩ්ඩෙයි,வட்டுக்கோட்டை, NULL, NULL, NULL,40220,9.7223843,79.9444526
2028,9,Valvettithurai,වැල්වැටිතුරෙයි,வல்வெட்டித்துறை, NULL, NULL, NULL,40540,9.814937,80.1660804
2029,9,Varany,වරනි,வரணி, NULL, NULL, NULL,40640,9.6664999,80.0109654
2030,9,Vasavilan,වාසවිලාන්,வசாவிளான், NULL, NULL, NULL,40145,9.7883065,80.0700712
2031,9,Velanai,වේලනයි,வேலணை, NULL, NULL, NULL,40300,9.6372405,79.9010784
2032,9,Gurunagar,ගුරුනගර්,குருநகர், NULL, NULL, NULL,NULL,9.6535589,80.0169503
2033,9,Kaitadi,කයිතඩි,கைதடி, NULL, NULL, NULL,NULL,9.6714614,80.0964415
2034,9,Nallur,නල්ලුර්,நல்லூர், NULL, NULL, NULL,NULL,9.6701547,80.0395205
2035,9,Thirunelvely,තිරුනෙල්වේලි,திருநெல்வேலி, NULL, NULL, NULL,NULL,9.6825755,80.0369948
2036,9,Vannarponnai,වන්නර්පොන්නයි,வண்ணார்பொன்னை, NULL, NULL, NULL,NULL,9.6838407,80.0136667
2037,13,Akkarayankulam,අක්කරායන්කුලම්,அக்கராயன்குளம், NULL, NULL, NULL,42640,9.3261452,80.3018107
2038,13,Aliyawalai,අලියාවලයි,அலியாவளை, NULL, NULL, NULL,42565,9.5881892,80.4465594
2039,13,Chempiyanpattu,චෙම්පියන්පත්තුව,செம்பியன்பட்டு, NULL, NULL, NULL,42560,9.3802886,80.3769999
2040,13,Elephant Pass,අලිමංකඩ,ஆனையிறவு, NULL, NULL, NULL,42510,9.5256655,80.4062265
2041,13,Eluthumadduval,එළුතුමද්දුවල්,எழுதுமட்டுவல், NULL, NULL, NULL,42580,9.65623,80.2831668
2042,13,Iranaitiv,ඉරණතිව්,இரணைதீவு, NULL, NULL, NULL,42630,9.2899329,79.9836108
2043,13,Iyyakachchi,අයියකච්චි,இயக்கச்சி, NULL, NULL, NULL,42520,9.5715235,80.4161968
2044,13,Kavutharimunai,කවුතාරිමුනේ,கவுதாரிமுனை, NULL, NULL, NULL,42608,9.566667,80.116667
2045,13,Konavil,කොනාවිල්,கோணவில், NULL, NULL, NULL,42645,9.3514991,80.3268812
2046,13,Mulliyan,මුල්ලියන්,முள்ளியன், NULL, NULL, NULL,42570,9.5531319,80.4715866
2047,13,Murasumoddai,මුරසුමෝඩයි,முரசுமோட்டை, NULL, NULL, NULL,42505,9.4379202,80.4528169
2048,13,Pallavarayankaddu,පල්ලවරායන්කඩ්ඩු,பல்லவராயன்கட்டு, NULL, NULL, NULL,42615,9.314322,80.1707662
2049,13,Paranthan,පරන්තන්,பரந்தன், NULL, NULL, NULL,42500,9.4414152,80.4048306
2050,13,Puliyampokkanai,පුලියම්පොක්කනයි,புளியம்பொக்கனை, NULL, NULL, NULL,42509,9.4410449,80.5312523
2051,13,Punakari-Nallur,පුනකාරි-නල්ලූර්,புனகரி-நல்லூர், NULL, NULL, NULL,42606,9.4502757,80.2781262
2052,13,Ramanathapuram,රාමනාතපුරම්,ராமநாதபுரம், NULL, NULL, NULL,42408,9.3669942,80.4938267
2053,13,Sivapuram,සිවපුරම්,சிவபுரம், NULL, NULL, NULL,42618,9.4458753,80.4173514
2054,13,Skanthapuram,ස්කන්තපුරම්,ஸ்கந்தபுரம், NULL, NULL, NULL,42638,9.3371078,80.3018107
2055,13,Thalaiyadi,තලෙයියඩි,தாளையடி, NULL, NULL, NULL,42563,9.6304585,80.4028523
2056,13,Tharmapuram,තර්මපුරම්,தர்மபுரம், NULL, NULL, NULL,42512,9.4106524,80.5233636
2057,13,Uruthirapuram,උරුතිරපුරම්,உருத்திரபுரம், NULL, NULL, NULL,42502,9.3986525,80.3463754
2058,13,Vaddakachchi,වඩ්ඩකච්චි,வட்டக்கச்சி, NULL, NULL, NULL,42405,9.3613906,80.4666732
2059,13,Vannerikkulam,වන්නෙරික්කුලම්,வன்னேரிக்குளம், NULL, NULL, NULL,42635,9.3802886,80.3769999
2060,13,Veravil,වෙරාවිල්,வெராவில், NULL, NULL, NULL,42620,9.3528476,80.0786359
2061,13,Vinayagapuram,විනයාගපුරම්,விநாயகபுரம், NULL, NULL, NULL,42625,9.1138401,80.2432839
2063,13,Ambalnagar,අම්බල්නගර්,அம்பாள்நகர், NULL, NULL, NULL,NULL,9.3457715,80.4187425
2064,13,Cheddiyakurichchi,චෙඩ්ඩියාකුරිච්චි,செட்டியக்குறிச்சி, NULL, NULL, NULL,NULL,9.3727285,80.4117857
2065,13,Chundikulam,චුන්ඩිකුලම්,சுண்டிக்குளம், NULL, NULL, NULL,NULL,9.5141667,80.5322222
2066,13,Kalmadunagar,කල්මඩුනගර්,கல்மடுநகர், NULL, NULL, NULL,NULL,9.3785653,80.5160608
2067,13,Karadipokku,කරඩිපොක්කු,கரடிபோக்கு, NULL, NULL, NULL,NULL,9.4086372,80.4064447
2068,13,Kilay,කිලේ,கிலே, NULL, NULL, NULL,NULL,9.3897561,80.4065001
2069,13,Kunchuparanthan,කුංචුපරන්තන්,குஞ்சுபரந்தன், NULL, NULL, NULL,NULL,9.4108779,80.3382607
2070,13,Muhamalai,මුහමාලේ,முகமாலை, NULL, NULL, NULL,NULL,9.6471769,80.2934522
2071,13,Pallai,පලෙයි,பாளை, NULL, NULL, NULL,42550,9.5673228,80.3881333
2072,13,Sivanagar,සිවනගර්,சிவநகர், NULL, NULL, NULL,NULL,9.3889375,80.3421984
2073,13,Soranpattu,සෝරන්පත්තුව,சோரன்பட்டு, NULL, NULL, NULL,NULL,9.5970264,80.3686488
2074,13,Thirunagar,තිරුනගර්,திருநகர், NULL, NULL, NULL,NULL,9.3943834,80.3909164
2075,13,Thiruvaiaru,තිරුවයිආරු,திருவையாறு, NULL, NULL, NULL,NULL,9.3761645,80.4270885
2076,19,Alampil,අලම්පිල්,அலம்பில், NULL, NULL, NULL,42005,9.1815797,80.8460822
2077,19,Karuppaddamurippu,කරුප්පද්දමුරිප්පු,கருப்பட்டமுறிப்பு, NULL, NULL, NULL,42220,9.1526403,80.520229
2078,19,Mankulam,මාන්කුලම්,மாங்குளம், NULL, NULL, NULL,42300,9.1369885,80.4451687
2079,19,Mullivaikkal,මුල්ලිවයික්කාල්,முள்ளிவாய்க்கால், NULL, NULL, NULL,42540,9.3119602,80.7865906
2080,19,Mulliyawalai,මුල්ලියාවලයි,முள்ளியவளை, NULL, NULL, NULL,42100,9.2192151,80.7643952
2081,19,Muththaiyankaddukulam,මුත්තයියන්කඩ්ඩුකුලම්,முத்தையான்கட்டுக்குளம், NULL, NULL, NULL,42210,9.2670911,80.814248
2082,19,Naddankandal,නද්දන්කන්ඩාල්,நட்டான்கண்டல், NULL, NULL, NULL,42308,9.004013,80.2209773
2083,19,Oddusudan,ඔඩ්ඩුසුඩාන්,ஒட்டுசுடான், NULL, NULL, NULL,42200,9.1538678,80.6497312
2084,19,Puthukkudiyiruppu,පුදුක්කුඩිඉරිප්පු,புதுக்குடியிருப்பு, NULL, NULL, NULL,42530,9.3157998,80.6926212
2085,19,Puthuvedduvan,පුත්තුවෙද්දුවන්,புதுவெட்டுவான், NULL, NULL, NULL,42330,9.2475408,80.3324514
2086,19,Thunukkai,තුනුක්කායි,துணுக்காய், NULL, NULL, NULL,42320,9.1340486,80.2862636
2087,19,Udayarkaddu,උදයාර්කඩ්ඩු,உடையார்கட்டு, NULL, NULL, NULL,42518,9.3131821,80.5841155
2088,19,Vavunakkulam,වව්නක්කුලම්,வவுணக்குளம், NULL, NULL, NULL,42305,9.2670911,80.814248
2089,19,Visvamadukulam,විශ්වමඩුකුලම්,விஸ்வமடுகுளம், NULL, NULL, NULL,42515,9.376037,80.5502456
2090,19,Yogapuram,යෝගපුරම්,யோகபுரம், NULL, NULL, NULL,42315,9.130417,80.3072085
2091,19,Ampalavanpokkanai,අම්පලවන්පොක්කනයි,அம்பலவன்பொக்கனை, NULL, NULL, NULL,NULL,9.3741906,80.6871767
2092,19,Ananthapuram,අනන්තපුරම්,அனந்தபுரம், NULL, NULL, NULL,NULL,9.3254135,80.7289509
2093,19,Ethawetunuwewa,ඇතාවැටුණුවැව,எதவெதுனுவெவ, NULL, NULL, NULL,50584,8.9752567,80.7449997
2094,19,Kokkilai,කොක්කිලායි,கொக்கிளாய், NULL, NULL, NULL,NULL,9.0004066,80.9491448
2095,19,Kokkuthuoduvai,කොක්කුතුඔඩුවායි,கொக்குதூதுவாய், NULL, NULL, NULL,NULL,9.4936111,80.5738889
2096,19,Kumulamunai,කුමුලමුනෙයි,குமுளமுனை, NULL, NULL, NULL,NULL,9.1525096,80.8238449
2097,19,Mullathivu,මුලතිව්,முல்லைத்தீவு, NULL, NULL, NULL,42000,9.2670911,80.814248
2098,19,Murukandy,මුරුකන්ඩි,முருகண்டி, NULL, NULL, NULL,NULL,9.2629587,80.3964824
2099,19,Welioya,වැලිඔය,வெலிஓயா, NULL, NULL, NULL,50586,8.9640414,80.7879407
2116,25,Nedunkerny,නෙඩුන්කේනි,நெடுங்கேணி, NULL, NULL, NULL,42250,9.0537187,80.6604364
2117,25,Neriyakulam,නෙරියකුලම්,நேரியகுளம், NULL, NULL, NULL,43300,8.6154622,80.3547286
2135,25,Alagalla,අලගල්ල,அலகல்லா, NULL, NULL, NULL,NULL,8.6790116,80.5049445
2136,25,Andiyapuliyankulam,ආණ්ඩියපුලියන්කුලම්,ஆண்டியபுளியங்குளம், NULL, NULL, NULL,NULL,8.7218924,80.2655846
2137,25,Asikulam,ආසිකුලම්,ஆசிகுளம், NULL, NULL, NULL,NULL,8.6818145,80.5365949
2138,25,Cheddikulam,චෙඩ්ඩිකුලම්,செட்டிகுளம், NULL, NULL, NULL,NULL,8.6655956,80.2962385
2139,25,Chemamadukulam,චෙමාමඩුකුලම්,செம்மாமடுக்குளம், NULL, NULL, NULL,NULL,8.8822222,80.5819444
2140,25,Iranai lluppaikulam,ඉරණයි ලුප්පයිකුලම්,இரணை லுப்பைக்குளம், NULL, NULL, NULL,NULL,8.8523954,80.3612898
2141,25,Kalmadhu,කල්මඩු,கல்மது, NULL, NULL, NULL,NULL,8.8394931,80.3936994
2142,25,Iratta Periyakulama,ඉරට්ට පෙරියකුලම,இரட்டை பெரியகுளம, NULL, NULL, NULL,NULL,8.7071106,80.4820736
2143,25,Kanagarayankulam,කනගරායන්කුලම්,கனகராயன்குளம், NULL, NULL, NULL,NULL,8.7536545,80.4957489
2144,25,Kannaddi,කන්නඩ්ඩි,கன்னடி, NULL, NULL, NULL,NULL,8.7860201,80.2209773
2145,25,Kela Bogaswewa,කැල බෝගස්වැව,கெல போகஸ்வெவ, NULL, NULL, NULL,NULL,8.8789743,80.6604364
2146,25,Kovilkulam,කෝවිල්කුලම්,கோவில்குளம், NULL, NULL, NULL,NULL,8.7375307,80.5063341
2147,25,Madukanda,මඩුකන්ද,மதுகந்தா, NULL, NULL, NULL,NULL,8.75658,80.5605111
2148,25,Mahakachchakodiya,මහාකච්චකොඩිය,மகாகச்சகோடியா, NULL, NULL, NULL,NULL,8.7855524,80.5757853
2149,25,Mamaduwa,මාමඩුව,மாமதுவா, NULL, NULL, NULL,NULL,8.816354,80.5549561
2150,25,Maradammaduwa,මරදම්මඩුව,மரதம்மதுவ, NULL, NULL, NULL,NULL,8.5782958,80.3685643
2151,25,Maraiyadithakulam,මරයඩිතකුලම්,மறையடித்தகுளம், NULL, NULL, NULL,NULL,8.7503242,80.4970435
2152,25,Maruthodai,මරුතෝඩෙයි,மருதோடை, NULL, NULL, NULL,NULL,8.8686111,80.5172222
2153,25,Mathavuvaithakulam,මතවුවයිතකුලම්,மாதவுவைத்தகுளம், NULL, NULL, NULL,NULL,8.7503242,80.4970435
2154,25,Nainamadu,නයිනමඩු,நைனாமடு, NULL, NULL, NULL,NULL,9.0407938,80.5827272
2155,25,Nelukkulam,නෙලුක්කුලම්,நெளுக்குளம், NULL, NULL, NULL,NULL,8.7646693,80.4493405
2156,25,Nochchimoddai,නොච්චිමොඩෙයි,நொச்சிமோட்டை, NULL, NULL, NULL,NULL,8.8314364,80.5049445
2157,25,Omanthai,ඕමන්තයි,ஓமந்தை, NULL, NULL, NULL,NULL,8.872387,80.5077237
2158,25,Palamoddai,පලාමොඩෙයි,பாலமோட்டை, NULL, NULL, NULL,NULL,8.9432243,80.3992652
2159,25,Pampaimadu,පම්පයිමඩු,பம்பைமடு, NULL, NULL, NULL,NULL,8.7855979,80.4159603
2160,25,Pavakkulama Unit 1,පාවක්කුලම ඒකකය 1,பாவக்குளம அலகு 1, NULL, NULL, NULL,NULL,8.7542029,80.4982402
2161,25,Pavakkulama Unit 2,පාවක්කුලම ඒකකය 2,பாவக்குளம அலகு 2, NULL, NULL, NULL,NULL,8.7063385,80.402048
2162,25,Periyathambanai,පෙරියතම්බානෙයි,பெரியதம்பனை, NULL, NULL, NULL,NULL,8.7923163,80.4660256
2163,25,Periya Ulukkulama,පෙරිය උළුක්කුලම,பெரிய உலக்குலமா, NULL, NULL, NULL,NULL,8.6767812,80.4159603
2164,25,Poovarasankulam,පූවරසන්කුලම්,பூவரசங்குளம், NULL, NULL, NULL,NULL,8.7841751,80.360297
2165,25,Puliyankulam,පුලියන්කුලම,புளியங்குளம், NULL, NULL, NULL,NULL,8.9738178,80.5271756
2166,25,Sathirikulankulam,සතිරිකුලන්කුලම්,சத்திரிக்குளங்குளம், NULL, NULL, NULL,NULL,8.7783345,80.4848957
2167,25,Sinnasippikulam,සින්නසිප්පිකුලම්,சின்னசிப்பிக்குளம், NULL, NULL, NULL,NULL,8.5714626,80.3324514
2168,25,Thandikulam,තාණ්ඩිකුලම්,தாண்டிக்குளம், NULL, NULL, NULL,NULL,8.7872932,80.4827074
2169,25,Vaarikkuttiyoor,වාරික්කුට්ටියූර්,வரிக்குட்டியூர், NULL, NULL, NULL,NULL,8.7385424,80.5093738
2172,15,Aandankulam,ආන්දන්කුලම්,ஆண்டங்குளம், NULL, NULL, NULL,NULL,8.941429,80.0227514
2173,15,Adampan,අඩම්පන්,அடம்பன், NULL, NULL, NULL,NULL,8.9325741,79.9975916
2174,15,Arippu,අරිප්පු,அரிப்பு, NULL, NULL, NULL,NULL,8.7925571,79.9296537
2175,15,Athimottai,ඇතිමොට්ටෙයි,அத்திமோட்டை, NULL, NULL, NULL,NULL,8.977739,79.91629
2176,15,Chilavathurai,චිලාවතුරෙයි,சிலாவத்துறை, NULL, NULL, NULL,NULL,8.7450074,79.9542438
2177,15,Erukkalampiddy,එරුක්කලම්පිඩ්ඩි,எருக்கலம்பிட்டி, NULL, NULL, NULL,NULL,9.0343506,79.881483
2178,15,Illuppaikadavai,ඉලුප්පයිකඩවයි,இலுப்பைக்கடவை, NULL, NULL, NULL,NULL,9.0925286,80.0805563
2179,15,Karisal,කරිසල්,கரிசல், NULL, NULL, NULL,NULL,9.0667468,79.8412842
2180,15,Kokkupadayan,කොක්කුපාදයන්,கொக்குபடயன், NULL, NULL, NULL,NULL,8.733113,79.9668308
2181,15,Madhu Church,මඩු පල්ලිය,மடு தேவாலயம், NULL, NULL, NULL,NULL,8.8550202,80.202842
2182,15,Madhu Road,මඩු පාර,மது சாலை, NULL, NULL, NULL,NULL,8.8141966,80.1763949
2183,15,Marichchikaddi,මරිච්චිකඩ්ඩි,மரிச்சிக்கட்டி, NULL, NULL, NULL,NULL,8.9648611,79.9182777
2184,15,Mullikulam,මුල්ලිකුලම්,முள்ளிக்குளம், NULL, NULL, NULL,NULL,8.7254736,79.9605375
2185,15,Murunkan,මුරුන්කන්,முருங்கன், NULL, NULL, NULL,NULL,8.832797,80.0339312
2186,15,Nanattan,නානත්තන්,நானாட்டான், NULL, NULL, NULL,NULL,8.8370993,79.9691098
2187,15,Palampiddy,පාලම්පිඩ්ඩි,பாலம்பிட்டி, NULL, NULL, NULL,NULL,8.9220461,80.2153998
2188,15,Pallimunai,පල්ලිමුනෙයි,பள்ளிமுனை, NULL, NULL, NULL,NULL,8.980094,79.9216073
2189,15,Pandaraveli,පණ්ඩරවැලි,பாண்டாரவெளி, NULL, NULL, NULL,NULL,8.7815934,79.9500477
2190,15,Pappamoddai,පප්පමෝඩයි,பாப்பாமோட்டை, NULL, NULL, NULL,NULL,8.9929968,80.0143656
2191,15,Parappankandal,පරප්පන්කන්දල්,பரப்பன்கண்டல், NULL, NULL, NULL,NULL,8.874003,80.0479039
2192,15,Parappukadanthan,පරප්පුකදන්තන්,பரப்புகடந்தான், NULL, NULL, NULL,NULL,8.9155457,80.0653017
2193,15,Periyakunchikulam,පෙරියකුංචිකුලම්,பெரியகுஞ்சிகுளம், NULL, NULL, NULL,NULL,8.9758559,79.9169964
2194,15,Periyamadhu,පෙරියමඩු,பெரியமது, NULL, NULL, NULL,NULL,8.9809971,80.1763467
2195,15,Periyapandivirichchan,පෙරියපණ්ඩිවිරිච්චන්,பெரியபாண்டிவிரிச்சான், NULL, NULL, NULL,NULL,8.9648611,79.9182777
2196,15,Pesalai,පේසාලෙයි,பேசாலை, NULL, NULL, NULL,NULL,9.0828304,79.810063
2197,15,Potkerny,පොට්කර්නි,பொட்கெர்னி, NULL, NULL, NULL,NULL,8.7793138,79.9691797
2198,15,Puthuveli,පුතුවේලි,புதுவேலி, NULL, NULL, NULL,NULL,8.7697694,79.9654324
2199,15,Sooriyakaddaikadhu,සූරියකඩ්ඩයිකාඩු,சூரியகட்டைக்காடு, NULL, NULL, NULL,NULL,8.9816707,79.9231902
2200,15,Thalaimannar,තලෙයිමන්නාරම,தலைமன்னார், NULL, NULL, NULL,NULL,9.08343,79.7343791
2201,15,Thalaimannar Pier,තලෙයිමන්නාරම පියර්,தலைமன்னார் பையர், NULL, NULL, NULL,NULL,9.102291,79.7259658
2202,15,Thalaimannar West,තලෙයිමන්නාරම බටහිර,தலைமன்னார் மேற்கு, NULL, NULL, NULL,NULL,9.08343,79.7343791
2203,15,Thalvupadu,තල්වුපාඩු,தாழ்வுபாடு, NULL, NULL, NULL,NULL,8.9909258,79.8888012
2204,15,Tharapuram,තාරාපුරම්,தாராபுரம், NULL, NULL, NULL,NULL,9.0123795,79.8758835
2205,15,Thiruketheeswaram,තිරුකේතීස්වරම්,திருக்கேதீஸ்வரம், NULL, NULL, NULL,NULL,8.9444357,79.9577404
2206,15,Uyilankulam,උයිලන්කුලම්,உயிலங்குளம், NULL, NULL, NULL,NULL,8.8858916,79.9836108
2207,15,Uyirtharasankulam,උයිර්තරසංකුලම්,உயிர்தரசங்குளம், NULL, NULL, NULL,NULL,8.9863276,79.9089146
2208,15,Vaddakandal,වඩ්ඩකන්ඩාල්,வட்டக்கண்டல், NULL, NULL, NULL,NULL,8.90771,80.0353285
2209,15,Vankalai,වංකලයි,வாங்கலை, NULL, NULL, NULL,NULL,8.8940985,79.9346603
2210,15,Vellankulam,වෙල්ලන්කුලම්,வெள்ளாங்குளம், NULL, NULL, NULL,NULL,9.186089,80.1264809
2211,15,Veppankulam,වෙප්පන්කුලම්,வேப்பங்குளம், NULL, NULL, NULL,NULL,8.7860273,80.0143656
2212,15,Vidataltivu,විඩතලතිව්,விடத்தல்தீவு, NULL, NULL, NULL,NULL,9.0215499,80.0508631
2213,7,Mabola,මාබෝල,மாபோலா, NULL, NULL, NULL,11104,7.0062833,79.8924828
